{
  "type": "Feature",
  "properties": {
    "tripId": "xinjiang-self-drive-2026",
    "dayId": "day-4",
    "segmentId": "day-4-baihaba-driving",
    "label": "铁热克提至白哈巴新村停车场",
    "mode": "driving",
    "routeQuality": "road-network",
    "routingProvider": "https://router.project-osrm.org",
    "routingProfile": "driving",
    "requestOptions": {
      "geometries": "geojson",
      "overview": "full",
      "steps": false,
      "alternatives": false
    },
    "inputCoordinates": [
      [
        86.69837,
        48.474442
      ],
      [
        86.778475,
        48.681506
      ]
    ],
    "snappedWaypoints": [
      [
        86.698495,
        48.474297
      ],
      [
        86.779329,
        48.681684
      ]
    ],
    "source": "OSRM",
    "sourceUrl": "https://project-osrm.org/",
    "mapData": "© OpenStreetMap contributors",
    "mapDataUrl": "https://www.openstreetmap.org/copyright",
    "generatedAt": "2026-09-06T06:54:18.172Z",
    "distanceMeters": 37580.2,
    "durationSeconds": 1609.8,
    "distanceKm": 37.6,
    "durationMinutes": 27
  },
  "geometry": {
    "coordinates": [
      [
        86.698495,
        48.474297
      ],
      [
        86.696054,
        48.473376
      ],
      [
        86.694557,
        48.472674
      ],
      [
        86.69346,
        48.47216
      ],
      [
        86.693144,
        48.472108
      ],
      [
        86.692865,
        48.472167
      ],
      [
        86.69256,
        48.47229
      ],
      [
        86.692139,
        48.47247
      ],
      [
        86.691394,
        48.472799
      ],
      [
        86.691202,
        48.4729
      ],
      [
        86.690999,
        48.473173
      ],
      [
        86.690953,
        48.473296
      ],
      [
        86.690964,
        48.473617
      ],
      [
        86.691329,
        48.474227
      ],
      [
        86.694574,
        48.477332
      ],
      [
        86.695482,
        48.478529
      ],
      [
        86.698345,
        48.483786
      ],
      [
        86.69859,
        48.48436
      ],
      [
        86.69884,
        48.484613
      ],
      [
        86.698974,
        48.484851
      ],
      [
        86.700041,
        48.487002
      ],
      [
        86.700236,
        48.487626
      ],
      [
        86.700352,
        48.488269
      ],
      [
        86.700517,
        48.490256
      ],
      [
        86.700446,
        48.490698
      ],
      [
        86.700414,
        48.490899
      ],
      [
        86.700019,
        48.491742
      ],
      [
        86.698884,
        48.493671
      ],
      [
        86.697956,
        48.495284
      ],
      [
        86.69781,
        48.495687
      ],
      [
        86.694027,
        48.502244
      ],
      [
        86.693142,
        48.504836
      ],
      [
        86.692918,
        48.506207
      ],
      [
        86.692668,
        48.508503
      ],
      [
        86.692582,
        48.50873
      ],
      [
        86.692398,
        48.508922
      ],
      [
        86.692026,
        48.50915
      ],
      [
        86.691754,
        48.509182
      ],
      [
        86.691301,
        48.509197
      ],
      [
        86.6907,
        48.509191
      ],
      [
        86.690418,
        48.509228
      ],
      [
        86.690215,
        48.509341
      ],
      [
        86.690081,
        48.509481
      ],
      [
        86.690041,
        48.509636
      ],
      [
        86.690085,
        48.509766
      ],
      [
        86.690202,
        48.509864
      ],
      [
        86.691805,
        48.510295
      ],
      [
        86.692393,
        48.510493
      ],
      [
        86.692759,
        48.510692
      ],
      [
        86.693236,
        48.511041
      ],
      [
        86.693651,
        48.511711
      ],
      [
        86.694089,
        48.512663
      ],
      [
        86.69429,
        48.512856
      ],
      [
        86.695474,
        48.513396
      ],
      [
        86.695791,
        48.513597
      ],
      [
        86.695944,
        48.513763
      ],
      [
        86.696102,
        48.514041
      ],
      [
        86.696079,
        48.514732
      ],
      [
        86.695879,
        48.515794
      ],
      [
        86.695893,
        48.516092
      ],
      [
        86.69597,
        48.516278
      ],
      [
        86.69614,
        48.516536
      ],
      [
        86.696727,
        48.51736
      ],
      [
        86.697204,
        48.517953
      ],
      [
        86.697727,
        48.518881
      ],
      [
        86.698099,
        48.519973
      ],
      [
        86.698931,
        48.520926
      ],
      [
        86.699235,
        48.521762
      ],
      [
        86.699473,
        48.522231
      ],
      [
        86.699649,
        48.522484
      ],
      [
        86.699996,
        48.522815
      ],
      [
        86.700381,
        48.523051
      ],
      [
        86.701864,
        48.52378
      ],
      [
        86.706949,
        48.526201
      ],
      [
        86.707636,
        48.52645
      ],
      [
        86.707985,
        48.526528
      ],
      [
        86.708237,
        48.526518
      ],
      [
        86.708758,
        48.526345
      ],
      [
        86.708994,
        48.526309
      ],
      [
        86.709235,
        48.526315
      ],
      [
        86.709452,
        48.526424
      ],
      [
        86.709505,
        48.526541
      ],
      [
        86.709468,
        48.526764
      ],
      [
        86.709096,
        48.527265
      ],
      [
        86.70897,
        48.527579
      ],
      [
        86.708808,
        48.527937
      ],
      [
        86.708147,
        48.528459
      ],
      [
        86.707326,
        48.529661
      ],
      [
        86.705946,
        48.531236
      ],
      [
        86.705458,
        48.5321
      ],
      [
        86.705421,
        48.532368
      ],
      [
        86.705547,
        48.532694
      ],
      [
        86.705621,
        48.532833
      ],
      [
        86.705656,
        48.532914
      ],
      [
        86.705659,
        48.533087
      ],
      [
        86.705591,
        48.533425
      ],
      [
        86.705232,
        48.533834
      ],
      [
        86.70522,
        48.534178
      ],
      [
        86.705551,
        48.535759
      ],
      [
        86.705522,
        48.536258
      ],
      [
        86.704634,
        48.538809
      ],
      [
        86.704428,
        48.539654
      ],
      [
        86.704435,
        48.539873
      ],
      [
        86.70456,
        48.540182
      ],
      [
        86.705233,
        48.541519
      ],
      [
        86.706217,
        48.54336
      ],
      [
        86.706361,
        48.544098
      ],
      [
        86.706506,
        48.546249
      ],
      [
        86.706621,
        48.546511
      ],
      [
        86.706836,
        48.546746
      ],
      [
        86.707063,
        48.547125
      ],
      [
        86.707119,
        48.547807
      ],
      [
        86.706823,
        48.549183
      ],
      [
        86.706845,
        48.549608
      ],
      [
        86.708024,
        48.551763
      ],
      [
        86.708271,
        48.552179
      ],
      [
        86.708342,
        48.552343
      ],
      [
        86.708419,
        48.552515
      ],
      [
        86.708459,
        48.552635
      ],
      [
        86.708444,
        48.552699
      ],
      [
        86.708329,
        48.552867
      ],
      [
        86.708186,
        48.552957
      ],
      [
        86.70796,
        48.553004
      ],
      [
        86.707794,
        48.55302
      ],
      [
        86.707536,
        48.552916
      ],
      [
        86.707286,
        48.552661
      ],
      [
        86.7068,
        48.552185
      ],
      [
        86.706541,
        48.551991
      ],
      [
        86.706299,
        48.551878
      ],
      [
        86.706071,
        48.551858
      ],
      [
        86.70581,
        48.551879
      ],
      [
        86.705666,
        48.55198
      ],
      [
        86.70485,
        48.552653
      ],
      [
        86.704282,
        48.553201
      ],
      [
        86.703947,
        48.553608
      ],
      [
        86.703844,
        48.554018
      ],
      [
        86.703994,
        48.55452
      ],
      [
        86.704378,
        48.554984
      ],
      [
        86.705395,
        48.555897
      ],
      [
        86.705602,
        48.556214
      ],
      [
        86.705726,
        48.557424
      ],
      [
        86.706195,
        48.558208
      ],
      [
        86.706216,
        48.558581
      ],
      [
        86.706193,
        48.558951
      ],
      [
        86.705966,
        48.559326
      ],
      [
        86.705586,
        48.559716
      ],
      [
        86.705138,
        48.560002
      ],
      [
        86.703355,
        48.560893
      ],
      [
        86.702445,
        48.561439
      ],
      [
        86.702152,
        48.561628
      ],
      [
        86.701605,
        48.56212
      ],
      [
        86.700839,
        48.562582
      ],
      [
        86.700626,
        48.562787
      ],
      [
        86.700175,
        48.563511
      ],
      [
        86.699913,
        48.564493
      ],
      [
        86.69947,
        48.565232
      ],
      [
        86.699086,
        48.565472
      ],
      [
        86.698437,
        48.56573
      ],
      [
        86.697918,
        48.565927
      ],
      [
        86.697265,
        48.566047
      ],
      [
        86.696774,
        48.566073
      ],
      [
        86.696155,
        48.566019
      ],
      [
        86.695452,
        48.565874
      ],
      [
        86.694767,
        48.565835
      ],
      [
        86.693839,
        48.565976
      ],
      [
        86.693536,
        48.566054
      ],
      [
        86.693448,
        48.56611
      ],
      [
        86.693403,
        48.566205
      ],
      [
        86.693424,
        48.566281
      ],
      [
        86.693527,
        48.566374
      ],
      [
        86.693693,
        48.566408
      ],
      [
        86.693919,
        48.566367
      ],
      [
        86.694279,
        48.56628
      ],
      [
        86.694702,
        48.566185
      ],
      [
        86.694954,
        48.566168
      ],
      [
        86.695176,
        48.566199
      ],
      [
        86.69538,
        48.566283
      ],
      [
        86.695591,
        48.566428
      ],
      [
        86.695905,
        48.566718
      ],
      [
        86.69618,
        48.566805
      ],
      [
        86.696457,
        48.566822
      ],
      [
        86.696822,
        48.566769
      ],
      [
        86.697091,
        48.566747
      ],
      [
        86.697324,
        48.566788
      ],
      [
        86.697539,
        48.566896
      ],
      [
        86.698776,
        48.567968
      ],
      [
        86.698987,
        48.568267
      ],
      [
        86.699033,
        48.568471
      ],
      [
        86.698981,
        48.568741
      ],
      [
        86.69887,
        48.568971
      ],
      [
        86.698378,
        48.569606
      ],
      [
        86.698324,
        48.569839
      ],
      [
        86.698384,
        48.57027
      ],
      [
        86.69842,
        48.570797
      ],
      [
        86.698345,
        48.571171
      ],
      [
        86.697667,
        48.571982
      ],
      [
        86.697413,
        48.572192
      ],
      [
        86.697083,
        48.572332
      ],
      [
        86.69596,
        48.572749
      ],
      [
        86.695,
        48.573078
      ],
      [
        86.694571,
        48.573347
      ],
      [
        86.694194,
        48.573691
      ],
      [
        86.693746,
        48.574294
      ],
      [
        86.692229,
        48.576884
      ],
      [
        86.692044,
        48.577466
      ],
      [
        86.691901,
        48.57818
      ],
      [
        86.691674,
        48.579789
      ],
      [
        86.691734,
        48.580031
      ],
      [
        86.692089,
        48.580672
      ],
      [
        86.6922,
        48.581044
      ],
      [
        86.692547,
        48.581249
      ],
      [
        86.693625,
        48.581641
      ],
      [
        86.694039,
        48.581681
      ],
      [
        86.695071,
        48.581509
      ],
      [
        86.695242,
        48.581546
      ],
      [
        86.695375,
        48.581644
      ],
      [
        86.695229,
        48.581809
      ],
      [
        86.694572,
        48.582053
      ],
      [
        86.693871,
        48.58248
      ],
      [
        86.693475,
        48.582665
      ],
      [
        86.691435,
        48.583286
      ],
      [
        86.690577,
        48.583978
      ],
      [
        86.689474,
        48.584398
      ],
      [
        86.689172,
        48.584599
      ],
      [
        86.689092,
        48.584671
      ],
      [
        86.689151,
        48.58492
      ],
      [
        86.689395,
        48.585266
      ],
      [
        86.689458,
        48.585673
      ],
      [
        86.688711,
        48.586725
      ],
      [
        86.688747,
        48.586966
      ],
      [
        86.688641,
        48.587204
      ],
      [
        86.688338,
        48.587389
      ],
      [
        86.688041,
        48.587387
      ],
      [
        86.68786,
        48.587307
      ],
      [
        86.687295,
        48.586534
      ],
      [
        86.686968,
        48.586357
      ],
      [
        86.68629,
        48.586118
      ],
      [
        86.68603,
        48.58596
      ],
      [
        86.68563,
        48.585555
      ],
      [
        86.685429,
        48.585431
      ],
      [
        86.684999,
        48.585409
      ],
      [
        86.684758,
        48.585535
      ],
      [
        86.684227,
        48.586225
      ],
      [
        86.683938,
        48.586769
      ],
      [
        86.683758,
        48.587358
      ],
      [
        86.683609,
        48.588294
      ],
      [
        86.683697,
        48.588629
      ],
      [
        86.684535,
        48.589987
      ],
      [
        86.684763,
        48.591412
      ],
      [
        86.685522,
        48.592554
      ],
      [
        86.686235,
        48.59397
      ],
      [
        86.685852,
        48.59542
      ],
      [
        86.685849,
        48.595769
      ],
      [
        86.686142,
        48.596322
      ],
      [
        86.687571,
        48.597705
      ],
      [
        86.687919,
        48.598252
      ],
      [
        86.688555,
        48.598574
      ],
      [
        86.688724,
        48.598735
      ],
      [
        86.688907,
        48.59906
      ],
      [
        86.689124,
        48.599299
      ],
      [
        86.689321,
        48.599412
      ],
      [
        86.690025,
        48.599393
      ],
      [
        86.690235,
        48.599451
      ],
      [
        86.69034,
        48.599648
      ],
      [
        86.690014,
        48.600168
      ],
      [
        86.690009,
        48.600462
      ],
      [
        86.69028,
        48.600926
      ],
      [
        86.691284,
        48.602294
      ],
      [
        86.692051,
        48.60281
      ],
      [
        86.69319,
        48.60338
      ],
      [
        86.693896,
        48.603593
      ],
      [
        86.694565,
        48.603645
      ],
      [
        86.694767,
        48.603708
      ],
      [
        86.694846,
        48.60385
      ],
      [
        86.69481,
        48.604008
      ],
      [
        86.694646,
        48.604177
      ],
      [
        86.694,
        48.60435
      ],
      [
        86.694005,
        48.604467
      ],
      [
        86.694597,
        48.605638
      ],
      [
        86.694981,
        48.607353
      ],
      [
        86.695187,
        48.607828
      ],
      [
        86.695689,
        48.608686
      ],
      [
        86.696148,
        48.609681
      ],
      [
        86.697441,
        48.611157
      ],
      [
        86.697682,
        48.611686
      ],
      [
        86.697847,
        48.612614
      ],
      [
        86.697962,
        48.612946
      ],
      [
        86.699454,
        48.615681
      ],
      [
        86.699908,
        48.616201
      ],
      [
        86.701372,
        48.617382
      ],
      [
        86.701399,
        48.617534
      ],
      [
        86.701313,
        48.617745
      ],
      [
        86.70093,
        48.617788
      ],
      [
        86.700562,
        48.617626
      ],
      [
        86.699845,
        48.617169
      ],
      [
        86.699529,
        48.617067
      ],
      [
        86.699361,
        48.617123
      ],
      [
        86.699259,
        48.617295
      ],
      [
        86.699585,
        48.617607
      ],
      [
        86.700247,
        48.617991
      ],
      [
        86.701639,
        48.618351
      ],
      [
        86.702313,
        48.618874
      ],
      [
        86.70356,
        48.619395
      ],
      [
        86.704062,
        48.619746
      ],
      [
        86.704664,
        48.620278
      ],
      [
        86.705141,
        48.620826
      ],
      [
        86.705846,
        48.622115
      ],
      [
        86.706736,
        48.623396
      ],
      [
        86.707092,
        48.624454
      ],
      [
        86.707202,
        48.624597
      ],
      [
        86.707456,
        48.624676
      ],
      [
        86.707617,
        48.624635
      ],
      [
        86.707775,
        48.624467
      ],
      [
        86.708005,
        48.623952
      ],
      [
        86.708305,
        48.623811
      ],
      [
        86.708636,
        48.62382
      ],
      [
        86.708874,
        48.623991
      ],
      [
        86.708959,
        48.624338
      ],
      [
        86.708985,
        48.625163
      ],
      [
        86.709209,
        48.625923
      ],
      [
        86.709178,
        48.626111
      ],
      [
        86.708975,
        48.626357
      ],
      [
        86.70863,
        48.626513
      ],
      [
        86.708097,
        48.626524
      ],
      [
        86.707738,
        48.626375
      ],
      [
        86.706879,
        48.625413
      ],
      [
        86.70612,
        48.62491
      ],
      [
        86.705891,
        48.624859
      ],
      [
        86.705665,
        48.624879
      ],
      [
        86.705498,
        48.625066
      ],
      [
        86.705541,
        48.625277
      ],
      [
        86.70608,
        48.62548
      ],
      [
        86.70638,
        48.625627
      ],
      [
        86.706534,
        48.625759
      ],
      [
        86.70672,
        48.625995
      ],
      [
        86.706809,
        48.626256
      ],
      [
        86.706848,
        48.626839
      ],
      [
        86.70706,
        48.627094
      ],
      [
        86.707278,
        48.627232
      ],
      [
        86.708069,
        48.627573
      ],
      [
        86.708722,
        48.628126
      ],
      [
        86.709086,
        48.628305
      ],
      [
        86.710705,
        48.628825
      ],
      [
        86.712717,
        48.629358
      ],
      [
        86.714132,
        48.629575
      ],
      [
        86.714284,
        48.629671
      ],
      [
        86.714531,
        48.630625
      ],
      [
        86.714314,
        48.631143
      ],
      [
        86.714311,
        48.631322
      ],
      [
        86.714583,
        48.631789
      ],
      [
        86.714514,
        48.63259
      ],
      [
        86.714839,
        48.633261
      ],
      [
        86.715115,
        48.633407
      ],
      [
        86.715338,
        48.633442
      ],
      [
        86.716684,
        48.633325
      ],
      [
        86.71706,
        48.633348
      ],
      [
        86.717198,
        48.634331
      ],
      [
        86.717553,
        48.634894
      ],
      [
        86.717544,
        48.635105
      ],
      [
        86.717527,
        48.635562
      ],
      [
        86.717585,
        48.635754
      ],
      [
        86.717849,
        48.635861
      ],
      [
        86.719185,
        48.635874
      ],
      [
        86.719448,
        48.635977
      ],
      [
        86.719501,
        48.635987
      ],
      [
        86.719292,
        48.636634
      ],
      [
        86.718393,
        48.638146
      ],
      [
        86.71834,
        48.638374
      ],
      [
        86.718441,
        48.638561
      ],
      [
        86.718689,
        48.638691
      ],
      [
        86.719115,
        48.638735
      ],
      [
        86.719895,
        48.638487
      ],
      [
        86.720518,
        48.63847
      ],
      [
        86.720871,
        48.638572
      ],
      [
        86.72098,
        48.638712
      ],
      [
        86.720823,
        48.638973
      ],
      [
        86.72035,
        48.639307
      ],
      [
        86.719823,
        48.63985
      ],
      [
        86.719743,
        48.640112
      ],
      [
        86.719694,
        48.640871
      ],
      [
        86.719536,
        48.641148
      ],
      [
        86.719431,
        48.641351
      ],
      [
        86.719196,
        48.641389
      ],
      [
        86.718813,
        48.641198
      ],
      [
        86.718658,
        48.640956
      ],
      [
        86.718769,
        48.640765
      ],
      [
        86.719212,
        48.640684
      ],
      [
        86.719418,
        48.640387
      ],
      [
        86.719435,
        48.639929
      ],
      [
        86.719508,
        48.63971
      ],
      [
        86.719711,
        48.639398
      ],
      [
        86.719711,
        48.639245
      ],
      [
        86.719596,
        48.639115
      ],
      [
        86.719414,
        48.639056
      ],
      [
        86.71851,
        48.639248
      ],
      [
        86.718267,
        48.639189
      ],
      [
        86.717529,
        48.638786
      ],
      [
        86.717387,
        48.638598
      ],
      [
        86.717389,
        48.638323
      ],
      [
        86.717595,
        48.637342
      ],
      [
        86.717547,
        48.637085
      ],
      [
        86.717298,
        48.636953
      ],
      [
        86.716982,
        48.636964
      ],
      [
        86.716449,
        48.637072
      ],
      [
        86.716045,
        48.636993
      ],
      [
        86.715792,
        48.636838
      ],
      [
        86.715635,
        48.636588
      ],
      [
        86.715533,
        48.635602
      ],
      [
        86.715391,
        48.635289
      ],
      [
        86.715154,
        48.635172
      ],
      [
        86.714863,
        48.635247
      ],
      [
        86.713906,
        48.635836
      ],
      [
        86.713654,
        48.635937
      ],
      [
        86.713328,
        48.635912
      ],
      [
        86.713012,
        48.635787
      ],
      [
        86.712883,
        48.635668
      ],
      [
        86.712708,
        48.635298
      ],
      [
        86.712354,
        48.634492
      ],
      [
        86.71215,
        48.634025
      ],
      [
        86.711905,
        48.633831
      ],
      [
        86.711456,
        48.63377
      ],
      [
        86.711161,
        48.633835
      ],
      [
        86.710975,
        48.634033
      ],
      [
        86.710723,
        48.634544
      ],
      [
        86.710209,
        48.635365
      ],
      [
        86.70999,
        48.635493
      ],
      [
        86.709568,
        48.635594
      ],
      [
        86.70897,
        48.635503
      ],
      [
        86.708559,
        48.635675
      ],
      [
        86.707761,
        48.635858
      ],
      [
        86.707196,
        48.635871
      ],
      [
        86.70635,
        48.636291
      ],
      [
        86.705575,
        48.636301
      ],
      [
        86.705041,
        48.636177
      ],
      [
        86.704726,
        48.636136
      ],
      [
        86.704075,
        48.636208
      ],
      [
        86.703824,
        48.636129
      ],
      [
        86.703513,
        48.635857
      ],
      [
        86.702267,
        48.636055
      ],
      [
        86.701993,
        48.636347
      ],
      [
        86.701691,
        48.63651
      ],
      [
        86.700549,
        48.636676
      ],
      [
        86.699405,
        48.63691
      ],
      [
        86.698998,
        48.636893
      ],
      [
        86.698678,
        48.63674
      ],
      [
        86.698331,
        48.636734
      ],
      [
        86.698232,
        48.636879
      ],
      [
        86.698307,
        48.637049
      ],
      [
        86.698638,
        48.637252
      ],
      [
        86.698913,
        48.637311
      ],
      [
        86.699147,
        48.637269
      ],
      [
        86.699561,
        48.637096
      ],
      [
        86.69983,
        48.637113
      ],
      [
        86.700085,
        48.637237
      ],
      [
        86.700513,
        48.637558
      ],
      [
        86.700798,
        48.637623
      ],
      [
        86.701038,
        48.637586
      ],
      [
        86.701204,
        48.637483
      ],
      [
        86.701381,
        48.637097
      ],
      [
        86.70161,
        48.636849
      ],
      [
        86.702124,
        48.636648
      ],
      [
        86.702694,
        48.636561
      ],
      [
        86.702893,
        48.636617
      ],
      [
        86.703223,
        48.636866
      ],
      [
        86.703658,
        48.637078
      ],
      [
        86.704605,
        48.637105
      ],
      [
        86.705487,
        48.637314
      ],
      [
        86.705868,
        48.637298
      ],
      [
        86.707541,
        48.637393
      ],
      [
        86.709305,
        48.637268
      ],
      [
        86.709456,
        48.637375
      ],
      [
        86.709461,
        48.637498
      ],
      [
        86.709343,
        48.637671
      ],
      [
        86.708171,
        48.63834
      ],
      [
        86.707046,
        48.639222
      ],
      [
        86.706255,
        48.639466
      ],
      [
        86.705898,
        48.639656
      ],
      [
        86.705592,
        48.6399
      ],
      [
        86.705095,
        48.640572
      ],
      [
        86.704666,
        48.641466
      ],
      [
        86.704593,
        48.641812
      ],
      [
        86.704603,
        48.642275
      ],
      [
        86.704761,
        48.643085
      ],
      [
        86.705054,
        48.64359
      ],
      [
        86.705335,
        48.643855
      ],
      [
        86.705986,
        48.644236
      ],
      [
        86.708099,
        48.645074
      ],
      [
        86.709073,
        48.64551
      ],
      [
        86.711661,
        48.646827
      ],
      [
        86.712421,
        48.647301
      ],
      [
        86.713532,
        48.648223
      ],
      [
        86.713756,
        48.648305
      ],
      [
        86.714418,
        48.648333
      ],
      [
        86.714778,
        48.648423
      ],
      [
        86.714937,
        48.648537
      ],
      [
        86.71516,
        48.64923
      ],
      [
        86.715515,
        48.649513
      ],
      [
        86.716586,
        48.649673
      ],
      [
        86.716903,
        48.649848
      ],
      [
        86.717692,
        48.650467
      ],
      [
        86.717918,
        48.650559
      ],
      [
        86.718153,
        48.650609
      ],
      [
        86.718913,
        48.650618
      ],
      [
        86.719149,
        48.650661
      ],
      [
        86.719366,
        48.65083
      ],
      [
        86.719663,
        48.651442
      ],
      [
        86.719867,
        48.651706
      ],
      [
        86.720179,
        48.651961
      ],
      [
        86.722874,
        48.653609
      ],
      [
        86.725941,
        48.655658
      ],
      [
        86.726347,
        48.655878
      ],
      [
        86.726992,
        48.656114
      ],
      [
        86.727543,
        48.656242
      ],
      [
        86.730751,
        48.656812
      ],
      [
        86.731942,
        48.657153
      ],
      [
        86.732958,
        48.65768
      ],
      [
        86.740302,
        48.66196
      ],
      [
        86.746091,
        48.665394
      ],
      [
        86.7474,
        48.666319
      ],
      [
        86.750352,
        48.668353
      ],
      [
        86.75179,
        48.669367
      ],
      [
        86.756176,
        48.671047
      ],
      [
        86.760382,
        48.672663
      ],
      [
        86.760954,
        48.672777
      ],
      [
        86.761844,
        48.672961
      ],
      [
        86.762989,
        48.673308
      ],
      [
        86.764062,
        48.673747
      ],
      [
        86.766189,
        48.674647
      ],
      [
        86.769061,
        48.675964
      ],
      [
        86.771007,
        48.676858
      ],
      [
        86.77297,
        48.677764
      ],
      [
        86.773303,
        48.677899
      ],
      [
        86.775041,
        48.678452
      ],
      [
        86.77714,
        48.679258
      ],
      [
        86.779949,
        48.680387
      ],
      [
        86.779329,
        48.681684
      ]
    ],
    "type": "LineString"
  }
}
