{
  "type": "Feature",
  "properties": {
    "tripId": "xinjiang-self-drive-2026",
    "dayId": "day-5",
    "segmentId": "day-5-kashgar-driving",
    "label": "喀什机场至古城",
    "mode": "driving",
    "routeQuality": "road-network",
    "routingProvider": "https://router.project-osrm.org",
    "routingProfile": "driving",
    "requestOptions": {
      "geometries": "geojson",
      "overview": "full",
      "steps": false,
      "alternatives": false
    },
    "inputCoordinates": [
      [
        76.019713,
        39.54002
      ],
      [
        75.987628,
        39.472055
      ]
    ],
    "snappedWaypoints": [
      [
        76.018033,
        39.536693
      ],
      [
        75.987743,
        39.472091
      ]
    ],
    "source": "OSRM",
    "sourceUrl": "https://project-osrm.org/",
    "mapData": "© OpenStreetMap contributors",
    "mapDataUrl": "https://www.openstreetmap.org/copyright",
    "generatedAt": "2026-09-06T06:54:22.449Z",
    "distanceMeters": 11102.1,
    "durationSeconds": 836.4,
    "distanceKm": 11.1,
    "durationMinutes": 14
  },
  "geometry": {
    "coordinates": [
      [
        76.018033,
        39.536693
      ],
      [
        76.018033,
        39.536693
      ],
      [
        76.017048,
        39.536653
      ],
      [
        76.016652,
        39.536588
      ],
      [
        76.01648,
        39.536422
      ],
      [
        76.016431,
        39.536299
      ],
      [
        76.016353,
        39.53623
      ],
      [
        76.015919,
        39.536201
      ],
      [
        76.015987,
        39.53547
      ],
      [
        76.01605,
        39.534791
      ],
      [
        76.014451,
        39.534708
      ],
      [
        76.013231,
        39.534645
      ],
      [
        76.012057,
        39.534584
      ],
      [
        76.011331,
        39.534609
      ],
      [
        76.009045,
        39.534482
      ],
      [
        76.004957,
        39.534253
      ],
      [
        76.001224,
        39.534044
      ],
      [
        75.998742,
        39.533908
      ],
      [
        75.997666,
        39.533849
      ],
      [
        75.994181,
        39.533658
      ],
      [
        75.993779,
        39.533636
      ],
      [
        75.993576,
        39.533625
      ],
      [
        75.992591,
        39.533557
      ],
      [
        75.992471,
        39.533551
      ],
      [
        75.99231,
        39.533522
      ],
      [
        75.992329,
        39.533436
      ],
      [
        75.992654,
        39.532012
      ],
      [
        75.993089,
        39.530073
      ],
      [
        75.993664,
        39.527556
      ],
      [
        75.994538,
        39.523739
      ],
      [
        75.994645,
        39.52327
      ],
      [
        75.995226,
        39.522005
      ],
      [
        75.996473,
        39.519921
      ],
      [
        75.996632,
        39.519626
      ],
      [
        75.996636,
        39.519618
      ],
      [
        75.996721,
        39.519461
      ],
      [
        75.996895,
        39.519014
      ],
      [
        75.997011,
        39.5186
      ],
      [
        75.997083,
        39.518086
      ],
      [
        75.997088,
        39.518029
      ],
      [
        75.997609,
        39.511807
      ],
      [
        75.997779,
        39.50978
      ],
      [
        75.997958,
        39.507643
      ],
      [
        75.998409,
        39.502786
      ],
      [
        75.9987,
        39.499228
      ],
      [
        75.998764,
        39.498558
      ],
      [
        75.999147,
        39.494593
      ],
      [
        75.999149,
        39.494493
      ],
      [
        75.999271,
        39.492286
      ],
      [
        75.999258,
        39.49173
      ],
      [
        75.999169,
        39.491247
      ],
      [
        75.998964,
        39.490807
      ],
      [
        75.998713,
        39.490358
      ],
      [
        75.998472,
        39.490068
      ],
      [
        75.998113,
        39.489706
      ],
      [
        75.997788,
        39.489448
      ],
      [
        75.995298,
        39.487827
      ],
      [
        75.994642,
        39.487402
      ],
      [
        75.990929,
        39.484997
      ],
      [
        75.990163,
        39.484501
      ],
      [
        75.989645,
        39.484028
      ],
      [
        75.989189,
        39.483435
      ],
      [
        75.988925,
        39.48293
      ],
      [
        75.98862,
        39.481813
      ],
      [
        75.98857,
        39.481634
      ],
      [
        75.988249,
        39.480498
      ],
      [
        75.988192,
        39.480278
      ],
      [
        75.988057,
        39.479786
      ],
      [
        75.988006,
        39.479531
      ],
      [
        75.987982,
        39.479409
      ],
      [
        75.987963,
        39.479276
      ],
      [
        75.987909,
        39.479103
      ],
      [
        75.987468,
        39.478257
      ],
      [
        75.987439,
        39.478203
      ],
      [
        75.98635,
        39.476222
      ],
      [
        75.986252,
        39.476017
      ],
      [
        75.986228,
        39.475946
      ],
      [
        75.986192,
        39.475842
      ],
      [
        75.986171,
        39.475738
      ],
      [
        75.986152,
        39.47554
      ],
      [
        75.986149,
        39.475507
      ],
      [
        75.986301,
        39.474031
      ],
      [
        75.986332,
        39.47315
      ],
      [
        75.98639,
        39.471621
      ],
      [
        75.986421,
        39.47091
      ],
      [
        75.986449,
        39.469619
      ],
      [
        75.986489,
        39.468526
      ],
      [
        75.986521,
        39.467225
      ],
      [
        75.986523,
        39.467081
      ],
      [
        75.986721,
        39.467075
      ],
      [
        75.986707,
        39.467242
      ],
      [
        75.986639,
        39.468529
      ],
      [
        75.986604,
        39.469524
      ],
      [
        75.986579,
        39.470161
      ],
      [
        75.986473,
        39.472796
      ],
      [
        75.9866,
        39.47284
      ],
      [
        75.986678,
        39.472868
      ],
      [
        75.987132,
        39.473027
      ],
      [
        75.987218,
        39.473057
      ],
      [
        75.987463,
        39.472633
      ],
      [
        75.987679,
        39.472213
      ],
      [
        75.987743,
        39.472091
      ]
    ],
    "type": "LineString"
  }
}
