{
  "type": "Feature",
  "properties": {
    "tripId": "xinjiang-self-drive-2026",
    "dayId": "day-2",
    "segmentId": "day-2-driving",
    "label": "禾木游客服务中心至贾登峪",
    "mode": "driving",
    "routeQuality": "road-network",
    "routingProvider": "https://router.project-osrm.org",
    "routingProfile": "driving",
    "requestOptions": {
      "geometries": "geojson",
      "overview": "full",
      "steps": false,
      "alternatives": false
    },
    "inputCoordinates": [
      [
        87.524492,
        48.571074
      ],
      [
        87.128007,
        48.506368
      ]
    ],
    "snappedWaypoints": [
      [
        87.524082,
        48.571894
      ],
      [
        87.127679,
        48.506019
      ]
    ],
    "source": "OSRM",
    "sourceUrl": "https://project-osrm.org/",
    "mapData": "© OpenStreetMap contributors",
    "mapDataUrl": "https://www.openstreetmap.org/copyright",
    "generatedAt": "2026-09-05T14:58:43.386Z",
    "distanceMeters": 65316.4,
    "durationSeconds": 4415.8,
    "distanceKm": 65.3,
    "durationMinutes": 74
  },
  "geometry": {
    "coordinates": [
      [
        87.524082,
        48.571894
      ],
      [
        87.523836,
        48.57184
      ],
      [
        87.522963,
        48.57165
      ],
      [
        87.52218,
        48.571558
      ],
      [
        87.519595,
        48.571303
      ],
      [
        87.514616,
        48.570812
      ],
      [
        87.514005,
        48.570678
      ],
      [
        87.513329,
        48.570578
      ],
      [
        87.512846,
        48.570479
      ],
      [
        87.512395,
        48.570401
      ],
      [
        87.509949,
        48.569911
      ],
      [
        87.509284,
        48.569584
      ],
      [
        87.508533,
        48.56918
      ],
      [
        87.507922,
        48.56881
      ],
      [
        87.507321,
        48.568548
      ],
      [
        87.506924,
        48.568463
      ],
      [
        87.50643,
        48.568321
      ],
      [
        87.505765,
        48.568193
      ],
      [
        87.505046,
        48.568093
      ],
      [
        87.504521,
        48.568015
      ],
      [
        87.503834,
        48.567866
      ],
      [
        87.50319,
        48.567767
      ],
      [
        87.501817,
        48.567554
      ],
      [
        87.500991,
        48.567405
      ],
      [
        87.500047,
        48.567291
      ],
      [
        87.499371,
        48.567241
      ],
      [
        87.498791,
        48.567263
      ],
      [
        87.497783,
        48.567312
      ],
      [
        87.496914,
        48.567334
      ],
      [
        87.495659,
        48.567298
      ],
      [
        87.4948,
        48.567291
      ],
      [
        87.494081,
        48.567284
      ],
      [
        87.493427,
        48.567391
      ],
      [
        87.492751,
        48.567462
      ],
      [
        87.492086,
        48.567433
      ],
      [
        87.491388,
        48.567447
      ],
      [
        87.490552,
        48.567462
      ],
      [
        87.489683,
        48.567383
      ],
      [
        87.488932,
        48.567391
      ],
      [
        87.487891,
        48.567369
      ],
      [
        87.486829,
        48.567298
      ],
      [
        87.484254,
        48.567036
      ],
      [
        87.482687,
        48.566851
      ],
      [
        87.481046,
        48.566681
      ],
      [
        87.480477,
        48.566581
      ],
      [
        87.480102,
        48.566595
      ],
      [
        87.479576,
        48.566744
      ],
      [
        87.478932,
        48.566915
      ],
      [
        87.478492,
        48.567071
      ],
      [
        87.477827,
        48.567114
      ],
      [
        87.477323,
        48.56717
      ],
      [
        87.476465,
        48.567178
      ],
      [
        87.475875,
        48.567234
      ],
      [
        87.475378,
        48.567209
      ],
      [
        87.474991,
        48.56718
      ],
      [
        87.474745,
        48.567149
      ],
      [
        87.47463,
        48.567109
      ],
      [
        87.474586,
        48.567023
      ],
      [
        87.474565,
        48.566922
      ],
      [
        87.474597,
        48.566797
      ],
      [
        87.474643,
        48.566666
      ],
      [
        87.474786,
        48.566601
      ],
      [
        87.474956,
        48.566507
      ],
      [
        87.475108,
        48.566408
      ],
      [
        87.475242,
        48.566302
      ],
      [
        87.475359,
        48.566191
      ],
      [
        87.475463,
        48.566075
      ],
      [
        87.475554,
        48.565954
      ],
      [
        87.475635,
        48.565829
      ],
      [
        87.475706,
        48.5657
      ],
      [
        87.475769,
        48.565568
      ],
      [
        87.478779,
        48.558859
      ],
      [
        87.479135,
        48.558096
      ],
      [
        87.482766,
        48.550829
      ],
      [
        87.482808,
        48.550724
      ],
      [
        87.482831,
        48.550617
      ],
      [
        87.482834,
        48.550511
      ],
      [
        87.482817,
        48.550405
      ],
      [
        87.48278,
        48.550301
      ],
      [
        87.482723,
        48.550199
      ],
      [
        87.482644,
        48.550099
      ],
      [
        87.482544,
        48.550003
      ],
      [
        87.478411,
        48.54651
      ],
      [
        87.478319,
        48.546423
      ],
      [
        87.478247,
        48.546333
      ],
      [
        87.478193,
        48.546241
      ],
      [
        87.478158,
        48.546147
      ],
      [
        87.478142,
        48.54605
      ],
      [
        87.478145,
        48.545951
      ],
      [
        87.478166,
        48.545849
      ],
      [
        87.478205,
        48.545745
      ],
      [
        87.479849,
        48.54215
      ],
      [
        87.479904,
        48.542009
      ],
      [
        87.479946,
        48.541867
      ],
      [
        87.479976,
        48.541727
      ],
      [
        87.479994,
        48.541595
      ],
      [
        87.480003,
        48.541476
      ],
      [
        87.480003,
        48.541374
      ],
      [
        87.479995,
        48.541277
      ],
      [
        87.479977,
        48.54117
      ],
      [
        87.479949,
        48.541055
      ],
      [
        87.479909,
        48.540932
      ],
      [
        87.479857,
        48.540803
      ],
      [
        87.479792,
        48.540669
      ],
      [
        87.478627,
        48.538466
      ],
      [
        87.47858,
        48.538351
      ],
      [
        87.47855,
        48.538218
      ],
      [
        87.478538,
        48.538076
      ],
      [
        87.478547,
        48.537936
      ],
      [
        87.47858,
        48.537806
      ],
      [
        87.478646,
        48.537633
      ],
      [
        87.478726,
        48.537423
      ],
      [
        87.478874,
        48.537036
      ],
      [
        87.478962,
        48.536842
      ],
      [
        87.479059,
        48.536681
      ],
      [
        87.479171,
        48.536536
      ],
      [
        87.4793,
        48.536405
      ],
      [
        87.479447,
        48.536286
      ],
      [
        87.479629,
        48.53617
      ],
      [
        87.479817,
        48.536073
      ],
      [
        87.480046,
        48.535977
      ],
      [
        87.480555,
        48.535787
      ],
      [
        87.480687,
        48.535732
      ],
      [
        87.480803,
        48.535673
      ],
      [
        87.480902,
        48.535609
      ],
      [
        87.480979,
        48.535546
      ],
      [
        87.481044,
        48.535473
      ],
      [
        87.481087,
        48.535404
      ],
      [
        87.481112,
        48.535331
      ],
      [
        87.48112,
        48.535256
      ],
      [
        87.481109,
        48.535168
      ],
      [
        87.481078,
        48.535082
      ],
      [
        87.481028,
        48.535005
      ],
      [
        87.480874,
        48.534868
      ],
      [
        87.480763,
        48.534804
      ],
      [
        87.480638,
        48.534748
      ],
      [
        87.480491,
        48.534695
      ],
      [
        87.479428,
        48.534331
      ],
      [
        87.476972,
        48.533576
      ],
      [
        87.476778,
        48.533522
      ],
      [
        87.476567,
        48.533478
      ],
      [
        87.476341,
        48.533446
      ],
      [
        87.472697,
        48.533031
      ],
      [
        87.472513,
        48.533007
      ],
      [
        87.472354,
        48.532979
      ],
      [
        87.472206,
        48.532946
      ],
      [
        87.472056,
        48.532903
      ],
      [
        87.471889,
        48.532847
      ],
      [
        87.47096,
        48.532519
      ],
      [
        87.470728,
        48.532444
      ],
      [
        87.470489,
        48.532377
      ],
      [
        87.470246,
        48.532321
      ],
      [
        87.469999,
        48.532275
      ],
      [
        87.469751,
        48.532239
      ],
      [
        87.469503,
        48.532215
      ],
      [
        87.468463,
        48.532133
      ],
      [
        87.468262,
        48.532113
      ],
      [
        87.468076,
        48.532086
      ],
      [
        87.467873,
        48.532044
      ],
      [
        87.466719,
        48.531778
      ],
      [
        87.466509,
        48.531722
      ],
      [
        87.466312,
        48.531655
      ],
      [
        87.466133,
        48.531578
      ],
      [
        87.464267,
        48.530686
      ],
      [
        87.464111,
        48.530616
      ],
      [
        87.463941,
        48.530549
      ],
      [
        87.463758,
        48.530483
      ],
      [
        87.463565,
        48.530421
      ],
      [
        87.463364,
        48.530362
      ],
      [
        87.463159,
        48.530308
      ],
      [
        87.46295,
        48.530258
      ],
      [
        87.462741,
        48.530213
      ],
      [
        87.462534,
        48.530174
      ],
      [
        87.462331,
        48.530141
      ],
      [
        87.462135,
        48.530115
      ],
      [
        87.461948,
        48.530097
      ],
      [
        87.461072,
        48.530026
      ],
      [
        87.460963,
        48.53002
      ],
      [
        87.460855,
        48.53002
      ],
      [
        87.460747,
        48.530025
      ],
      [
        87.460641,
        48.530037
      ],
      [
        87.460536,
        48.530054
      ],
      [
        87.460432,
        48.530078
      ],
      [
        87.460332,
        48.530108
      ],
      [
        87.459806,
        48.530288
      ],
      [
        87.459718,
        48.530314
      ],
      [
        87.459624,
        48.530334
      ],
      [
        87.459526,
        48.530348
      ],
      [
        87.459424,
        48.530355
      ],
      [
        87.459321,
        48.530354
      ],
      [
        87.459216,
        48.530345
      ],
      [
        87.459111,
        48.530328
      ],
      [
        87.459007,
        48.530301
      ],
      [
        87.458906,
        48.530265
      ],
      [
        87.458808,
        48.530218
      ],
      [
        87.458396,
        48.52999
      ],
      [
        87.458131,
        48.529823
      ],
      [
        87.457884,
        48.529643
      ],
      [
        87.457823,
        48.5296
      ],
      [
        87.457751,
        48.529552
      ],
      [
        87.457671,
        48.529505
      ],
      [
        87.457585,
        48.52946
      ],
      [
        87.457497,
        48.529422
      ],
      [
        87.456574,
        48.529071
      ],
      [
        87.45651,
        48.529049
      ],
      [
        87.456445,
        48.529032
      ],
      [
        87.456378,
        48.52902
      ],
      [
        87.456311,
        48.529013
      ],
      [
        87.456243,
        48.529013
      ],
      [
        87.456176,
        48.529019
      ],
      [
        87.45611,
        48.529033
      ],
      [
        87.456047,
        48.529054
      ],
      [
        87.455829,
        48.529141
      ],
      [
        87.455765,
        48.529164
      ],
      [
        87.455702,
        48.529181
      ],
      [
        87.455639,
        48.529193
      ],
      [
        87.455572,
        48.529201
      ],
      [
        87.455501,
        48.529204
      ],
      [
        87.455099,
        48.52921
      ],
      [
        87.455,
        48.529208
      ],
      [
        87.454931,
        48.529201
      ],
      [
        87.454865,
        48.529188
      ],
      [
        87.454805,
        48.529171
      ],
      [
        87.454727,
        48.529136
      ],
      [
        87.454427,
        48.528959
      ],
      [
        87.454379,
        48.528938
      ],
      [
        87.454322,
        48.528923
      ],
      [
        87.454259,
        48.528916
      ],
      [
        87.454192,
        48.528918
      ],
      [
        87.454126,
        48.528929
      ],
      [
        87.454063,
        48.52895
      ],
      [
        87.454008,
        48.528982
      ],
      [
        87.453962,
        48.529026
      ],
      [
        87.453931,
        48.529083
      ],
      [
        87.453916,
        48.529153
      ],
      [
        87.453891,
        48.529526
      ],
      [
        87.453881,
        48.529594
      ],
      [
        87.453859,
        48.529652
      ],
      [
        87.453826,
        48.5297
      ],
      [
        87.453784,
        48.52974
      ],
      [
        87.453734,
        48.529772
      ],
      [
        87.453676,
        48.529796
      ],
      [
        87.453613,
        48.529814
      ],
      [
        87.453544,
        48.529826
      ],
      [
        87.453472,
        48.529833
      ],
      [
        87.453397,
        48.529835
      ],
      [
        87.453051,
        48.529832
      ],
      [
        87.452985,
        48.529834
      ],
      [
        87.452924,
        48.529841
      ],
      [
        87.452868,
        48.529854
      ],
      [
        87.452818,
        48.529871
      ],
      [
        87.452776,
        48.529893
      ],
      [
        87.452741,
        48.52992
      ],
      [
        87.452716,
        48.52995
      ],
      [
        87.452701,
        48.529984
      ],
      [
        87.452696,
        48.530021
      ],
      [
        87.452703,
        48.530061
      ],
      [
        87.452745,
        48.530195
      ],
      [
        87.452755,
        48.530269
      ],
      [
        87.452753,
        48.530322
      ],
      [
        87.452743,
        48.530376
      ],
      [
        87.452725,
        48.530428
      ],
      [
        87.452513,
        48.530904
      ],
      [
        87.452459,
        48.530986
      ],
      [
        87.452407,
        48.531038
      ],
      [
        87.452344,
        48.531086
      ],
      [
        87.452235,
        48.531142
      ],
      [
        87.45204,
        48.531219
      ],
      [
        87.451897,
        48.531269
      ],
      [
        87.451704,
        48.531318
      ],
      [
        87.451283,
        48.531399
      ],
      [
        87.451126,
        48.531434
      ],
      [
        87.450982,
        48.531479
      ],
      [
        87.450854,
        48.531536
      ],
      [
        87.450741,
        48.531604
      ],
      [
        87.450645,
        48.531685
      ],
      [
        87.450574,
        48.531756
      ],
      [
        87.450487,
        48.531824
      ],
      [
        87.450201,
        48.531997
      ],
      [
        87.45013,
        48.532045
      ],
      [
        87.450068,
        48.532094
      ],
      [
        87.449955,
        48.532201
      ],
      [
        87.449896,
        48.532244
      ],
      [
        87.449809,
        48.532294
      ],
      [
        87.44954,
        48.532406
      ],
      [
        87.449477,
        48.532436
      ],
      [
        87.44938,
        48.532499
      ],
      [
        87.44925,
        48.532604
      ],
      [
        87.449203,
        48.532633
      ],
      [
        87.449152,
        48.532658
      ],
      [
        87.449059,
        48.532694
      ],
      [
        87.448801,
        48.532786
      ],
      [
        87.448727,
        48.532818
      ],
      [
        87.448661,
        48.532852
      ],
      [
        87.448601,
        48.53289
      ],
      [
        87.448511,
        48.532957
      ],
      [
        87.448318,
        48.533108
      ],
      [
        87.44822,
        48.533172
      ],
      [
        87.448109,
        48.533231
      ],
      [
        87.447803,
        48.533375
      ],
      [
        87.447716,
        48.533409
      ],
      [
        87.447623,
        48.533431
      ],
      [
        87.447532,
        48.53344
      ],
      [
        87.447443,
        48.533437
      ],
      [
        87.447358,
        48.533421
      ],
      [
        87.447267,
        48.533392
      ],
      [
        87.447181,
        48.533352
      ],
      [
        87.447091,
        48.533298
      ],
      [
        87.446847,
        48.533129
      ],
      [
        87.446709,
        48.533026
      ],
      [
        87.446569,
        48.532915
      ],
      [
        87.446013,
        48.532466
      ],
      [
        87.445908,
        48.532389
      ],
      [
        87.44579,
        48.532314
      ],
      [
        87.445666,
        48.532246
      ],
      [
        87.445557,
        48.532197
      ],
      [
        87.44539,
        48.532131
      ],
      [
        87.445296,
        48.532101
      ],
      [
        87.445209,
        48.532087
      ],
      [
        87.445116,
        48.532087
      ],
      [
        87.444997,
        48.532101
      ],
      [
        87.444796,
        48.532133
      ],
      [
        87.444712,
        48.532142
      ],
      [
        87.444626,
        48.532143
      ],
      [
        87.444543,
        48.532137
      ],
      [
        87.444255,
        48.532107
      ],
      [
        87.444144,
        48.532104
      ],
      [
        87.444039,
        48.53211
      ],
      [
        87.443308,
        48.53217
      ],
      [
        87.443173,
        48.532187
      ],
      [
        87.443033,
        48.532214
      ],
      [
        87.442917,
        48.532244
      ],
      [
        87.442676,
        48.532313
      ],
      [
        87.442558,
        48.532341
      ],
      [
        87.442439,
        48.53236
      ],
      [
        87.442318,
        48.53237
      ],
      [
        87.441799,
        48.53239
      ],
      [
        87.441556,
        48.532404
      ],
      [
        87.441228,
        48.532429
      ],
      [
        87.441107,
        48.532433
      ],
      [
        87.440971,
        48.532428
      ],
      [
        87.440844,
        48.532415
      ],
      [
        87.44071,
        48.532393
      ],
      [
        87.440581,
        48.532362
      ],
      [
        87.44047,
        48.532327
      ],
      [
        87.440369,
        48.532285
      ],
      [
        87.440282,
        48.532238
      ],
      [
        87.439651,
        48.531842
      ],
      [
        87.439557,
        48.531794
      ],
      [
        87.439439,
        48.531752
      ],
      [
        87.439313,
        48.53172
      ],
      [
        87.439193,
        48.531702
      ],
      [
        87.438526,
        48.531645
      ],
      [
        87.438349,
        48.531621
      ],
      [
        87.438175,
        48.531581
      ],
      [
        87.438014,
        48.531527
      ],
      [
        87.437872,
        48.531461
      ],
      [
        87.43758,
        48.531306
      ],
      [
        87.437448,
        48.531243
      ],
      [
        87.437306,
        48.531191
      ],
      [
        87.437154,
        48.53115
      ],
      [
        87.43701,
        48.531124
      ],
      [
        87.436851,
        48.531102
      ],
      [
        87.436672,
        48.531068
      ],
      [
        87.436515,
        48.531028
      ],
      [
        87.436401,
        48.530987
      ],
      [
        87.436209,
        48.530903
      ],
      [
        87.436111,
        48.53087
      ],
      [
        87.435994,
        48.530843
      ],
      [
        87.43584,
        48.53082
      ],
      [
        87.435334,
        48.53077
      ],
      [
        87.435115,
        48.530754
      ],
      [
        87.434934,
        48.530747
      ],
      [
        87.434488,
        48.530735
      ],
      [
        87.434147,
        48.530722
      ],
      [
        87.433836,
        48.530701
      ],
      [
        87.433684,
        48.530695
      ],
      [
        87.433537,
        48.5307
      ],
      [
        87.433393,
        48.530716
      ],
      [
        87.433259,
        48.530742
      ],
      [
        87.432943,
        48.530811
      ],
      [
        87.432635,
        48.530891
      ],
      [
        87.432007,
        48.531074
      ],
      [
        87.431875,
        48.531106
      ],
      [
        87.431756,
        48.53112
      ],
      [
        87.431631,
        48.531119
      ],
      [
        87.431496,
        48.531102
      ],
      [
        87.431152,
        48.531043
      ],
      [
        87.431048,
        48.531027
      ],
      [
        87.430944,
        48.531018
      ],
      [
        87.430847,
        48.531013
      ],
      [
        87.430495,
        48.531005
      ],
      [
        87.430349,
        48.530995
      ],
      [
        87.430204,
        48.530979
      ],
      [
        87.429902,
        48.530943
      ],
      [
        87.428643,
        48.531063
      ],
      [
        87.427212,
        48.530967
      ],
      [
        87.426786,
        48.530987
      ],
      [
        87.42553,
        48.531271
      ],
      [
        87.42465,
        48.531075
      ],
      [
        87.423142,
        48.53103
      ],
      [
        87.422174,
        48.530783
      ],
      [
        87.421121,
        48.530718
      ],
      [
        87.420728,
        48.530649
      ],
      [
        87.420029,
        48.53043
      ],
      [
        87.419553,
        48.530184
      ],
      [
        87.418907,
        48.529423
      ],
      [
        87.418646,
        48.529263
      ],
      [
        87.418425,
        48.529198
      ],
      [
        87.417794,
        48.529188
      ],
      [
        87.416875,
        48.529381
      ],
      [
        87.416417,
        48.529129
      ],
      [
        87.41617,
        48.528903
      ],
      [
        87.415992,
        48.528803
      ],
      [
        87.415776,
        48.528748
      ],
      [
        87.414984,
        48.528799
      ],
      [
        87.413888,
        48.528918
      ],
      [
        87.41367,
        48.528897
      ],
      [
        87.412074,
        48.528278
      ],
      [
        87.411825,
        48.528148
      ],
      [
        87.411509,
        48.52791
      ],
      [
        87.411385,
        48.527777
      ],
      [
        87.410989,
        48.527591
      ],
      [
        87.409858,
        48.527239
      ],
      [
        87.409533,
        48.527096
      ],
      [
        87.409324,
        48.526922
      ],
      [
        87.409123,
        48.526663
      ],
      [
        87.408899,
        48.526494
      ],
      [
        87.408337,
        48.52619
      ],
      [
        87.407271,
        48.52586
      ],
      [
        87.406604,
        48.525727
      ],
      [
        87.405965,
        48.525742
      ],
      [
        87.405277,
        48.526021
      ],
      [
        87.404922,
        48.526079
      ],
      [
        87.403094,
        48.525893
      ],
      [
        87.402894,
        48.525903
      ],
      [
        87.402644,
        48.525988
      ],
      [
        87.402523,
        48.526086
      ],
      [
        87.402502,
        48.526277
      ],
      [
        87.402735,
        48.52652
      ],
      [
        87.403059,
        48.526716
      ],
      [
        87.403927,
        48.52711
      ],
      [
        87.40482,
        48.527657
      ],
      [
        87.405268,
        48.528315
      ],
      [
        87.405389,
        48.528771
      ],
      [
        87.405342,
        48.528922
      ],
      [
        87.404906,
        48.529246
      ],
      [
        87.404513,
        48.529348
      ],
      [
        87.402955,
        48.529488
      ],
      [
        87.400769,
        48.529633
      ],
      [
        87.398621,
        48.529678
      ],
      [
        87.396966,
        48.529791
      ],
      [
        87.396592,
        48.529752
      ],
      [
        87.39639,
        48.529746
      ],
      [
        87.396086,
        48.529646
      ],
      [
        87.395379,
        48.52916
      ],
      [
        87.395049,
        48.52903
      ],
      [
        87.393583,
        48.528681
      ],
      [
        87.393152,
        48.528656
      ],
      [
        87.390995,
        48.528778
      ],
      [
        87.390741,
        48.528766
      ],
      [
        87.390334,
        48.528642
      ],
      [
        87.388979,
        48.527917
      ],
      [
        87.388771,
        48.527871
      ],
      [
        87.388404,
        48.527836
      ],
      [
        87.386879,
        48.527787
      ],
      [
        87.38645,
        48.52771
      ],
      [
        87.386172,
        48.527564
      ],
      [
        87.384662,
        48.526106
      ],
      [
        87.384588,
        48.525845
      ],
      [
        87.38481,
        48.525103
      ],
      [
        87.384717,
        48.52484
      ],
      [
        87.384483,
        48.524673
      ],
      [
        87.384177,
        48.524572
      ],
      [
        87.382906,
        48.52413
      ],
      [
        87.38225,
        48.523981
      ],
      [
        87.380942,
        48.52399
      ],
      [
        87.378693,
        48.523495
      ],
      [
        87.376805,
        48.52323
      ],
      [
        87.374599,
        48.52258
      ],
      [
        87.372998,
        48.522171
      ],
      [
        87.370753,
        48.521098
      ],
      [
        87.369783,
        48.520728
      ],
      [
        87.368309,
        48.520272
      ],
      [
        87.367441,
        48.519768
      ],
      [
        87.366113,
        48.519682
      ],
      [
        87.365053,
        48.51931
      ],
      [
        87.364682,
        48.519248
      ],
      [
        87.363358,
        48.519086
      ],
      [
        87.361986,
        48.518978
      ],
      [
        87.361747,
        48.518904
      ],
      [
        87.361169,
        48.518573
      ],
      [
        87.360931,
        48.518504
      ],
      [
        87.360085,
        48.518502
      ],
      [
        87.358318,
        48.518802
      ],
      [
        87.357544,
        48.519191
      ],
      [
        87.356522,
        48.519365
      ],
      [
        87.355986,
        48.519368
      ],
      [
        87.355474,
        48.519428
      ],
      [
        87.354613,
        48.519329
      ],
      [
        87.353988,
        48.519417
      ],
      [
        87.353698,
        48.519559
      ],
      [
        87.352718,
        48.520247
      ],
      [
        87.351943,
        48.520662
      ],
      [
        87.351512,
        48.520841
      ],
      [
        87.350832,
        48.521
      ],
      [
        87.349588,
        48.521097
      ],
      [
        87.349007,
        48.521218
      ],
      [
        87.348385,
        48.521263
      ],
      [
        87.34739,
        48.521427
      ],
      [
        87.346569,
        48.52161
      ],
      [
        87.345953,
        48.521715
      ],
      [
        87.34531,
        48.521777
      ],
      [
        87.344458,
        48.521726
      ],
      [
        87.343412,
        48.521539
      ],
      [
        87.342806,
        48.521563
      ],
      [
        87.342378,
        48.521539
      ],
      [
        87.342216,
        48.521379
      ],
      [
        87.342259,
        48.521221
      ],
      [
        87.342748,
        48.520656
      ],
      [
        87.343053,
        48.519977
      ],
      [
        87.343419,
        48.519452
      ],
      [
        87.343649,
        48.518898
      ],
      [
        87.343815,
        48.517672
      ],
      [
        87.343728,
        48.517095
      ],
      [
        87.343749,
        48.516793
      ],
      [
        87.34414,
        48.516162
      ],
      [
        87.344284,
        48.515482
      ],
      [
        87.344187,
        48.514774
      ],
      [
        87.344236,
        48.514248
      ],
      [
        87.344163,
        48.513771
      ],
      [
        87.343839,
        48.512905
      ],
      [
        87.343301,
        48.511762
      ],
      [
        87.342955,
        48.511325
      ],
      [
        87.342475,
        48.510767
      ],
      [
        87.342258,
        48.510484
      ],
      [
        87.34103,
        48.50958
      ],
      [
        87.340164,
        48.509025
      ],
      [
        87.339565,
        48.508351
      ],
      [
        87.33891,
        48.5079
      ],
      [
        87.338474,
        48.507344
      ],
      [
        87.33765,
        48.506661
      ],
      [
        87.337205,
        48.50617
      ],
      [
        87.336892,
        48.505988
      ],
      [
        87.336042,
        48.505626
      ],
      [
        87.335528,
        48.505265
      ],
      [
        87.335269,
        48.505007
      ],
      [
        87.335051,
        48.50446
      ],
      [
        87.335048,
        48.504106
      ],
      [
        87.335142,
        48.503719
      ],
      [
        87.335111,
        48.503461
      ],
      [
        87.334958,
        48.503214
      ],
      [
        87.334788,
        48.503031
      ],
      [
        87.334306,
        48.502176
      ],
      [
        87.334263,
        48.501883
      ],
      [
        87.334333,
        48.501656
      ],
      [
        87.334307,
        48.501344
      ],
      [
        87.334004,
        48.500661
      ],
      [
        87.333806,
        48.500367
      ],
      [
        87.333744,
        48.500178
      ],
      [
        87.333634,
        48.499924
      ],
      [
        87.333385,
        48.499623
      ],
      [
        87.332737,
        48.499061
      ],
      [
        87.332403,
        48.498711
      ],
      [
        87.332063,
        48.498503
      ],
      [
        87.331371,
        48.498176
      ],
      [
        87.330891,
        48.497899
      ],
      [
        87.330486,
        48.497686
      ],
      [
        87.330166,
        48.49736
      ],
      [
        87.329719,
        48.496762
      ],
      [
        87.329199,
        48.496319
      ],
      [
        87.327143,
        48.494019
      ],
      [
        87.32694,
        48.49358
      ],
      [
        87.326672,
        48.493184
      ],
      [
        87.32614,
        48.492609
      ],
      [
        87.325642,
        48.492259
      ],
      [
        87.325423,
        48.492154
      ],
      [
        87.325214,
        48.492005
      ],
      [
        87.324767,
        48.491529
      ],
      [
        87.324458,
        48.491326
      ],
      [
        87.324179,
        48.491015
      ],
      [
        87.323987,
        48.490679
      ],
      [
        87.32311,
        48.488702
      ],
      [
        87.323037,
        48.488126
      ],
      [
        87.323032,
        48.487855
      ],
      [
        87.322931,
        48.487549
      ],
      [
        87.322798,
        48.486937
      ],
      [
        87.32269,
        48.486109
      ],
      [
        87.322511,
        48.485568
      ],
      [
        87.322483,
        48.485383
      ],
      [
        87.322498,
        48.485212
      ],
      [
        87.322814,
        48.484463
      ],
      [
        87.322829,
        48.484298
      ],
      [
        87.322812,
        48.484119
      ],
      [
        87.322735,
        48.48375
      ],
      [
        87.322752,
        48.483601
      ],
      [
        87.322813,
        48.483459
      ],
      [
        87.323003,
        48.483294
      ],
      [
        87.323945,
        48.482766
      ],
      [
        87.324285,
        48.48252
      ],
      [
        87.324626,
        48.482102
      ],
      [
        87.32478,
        48.481974
      ],
      [
        87.324916,
        48.48191
      ],
      [
        87.325081,
        48.48189
      ],
      [
        87.325308,
        48.481903
      ],
      [
        87.325762,
        48.481947
      ],
      [
        87.326118,
        48.481966
      ],
      [
        87.326851,
        48.481881
      ],
      [
        87.327104,
        48.48187
      ],
      [
        87.328281,
        48.48193
      ],
      [
        87.328602,
        48.481917
      ],
      [
        87.329819,
        48.481724
      ],
      [
        87.330179,
        48.481711
      ],
      [
        87.330868,
        48.481735
      ],
      [
        87.33215,
        48.481708
      ],
      [
        87.336803,
        48.482149
      ],
      [
        87.340937,
        48.482488
      ],
      [
        87.34162,
        48.48253
      ],
      [
        87.342059,
        48.482488
      ],
      [
        87.3425,
        48.482384
      ],
      [
        87.344176,
        48.481825
      ],
      [
        87.344755,
        48.481537
      ],
      [
        87.345055,
        48.481446
      ],
      [
        87.345297,
        48.481517
      ],
      [
        87.345746,
        48.481676
      ],
      [
        87.34589,
        48.481674
      ],
      [
        87.346007,
        48.481621
      ],
      [
        87.346067,
        48.481527
      ],
      [
        87.346094,
        48.481086
      ],
      [
        87.346223,
        48.480832
      ],
      [
        87.346371,
        48.480674
      ],
      [
        87.346527,
        48.480614
      ],
      [
        87.347528,
        48.480427
      ],
      [
        87.348333,
        48.48024
      ],
      [
        87.34882,
        48.479988
      ],
      [
        87.350111,
        48.479047
      ],
      [
        87.350541,
        48.478339
      ],
      [
        87.35074,
        48.477976
      ],
      [
        87.35097,
        48.476726
      ],
      [
        87.35112,
        48.476397
      ],
      [
        87.351041,
        48.475898
      ],
      [
        87.351056,
        48.475591
      ],
      [
        87.350751,
        48.474929
      ],
      [
        87.350719,
        48.474517
      ],
      [
        87.350185,
        48.473564
      ],
      [
        87.349983,
        48.473392
      ],
      [
        87.349374,
        48.473221
      ],
      [
        87.348213,
        48.472709
      ],
      [
        87.347511,
        48.472104
      ],
      [
        87.346915,
        48.471686
      ],
      [
        87.346293,
        48.471454
      ],
      [
        87.345793,
        48.471327
      ],
      [
        87.342858,
        48.470784
      ],
      [
        87.340861,
        48.469877
      ],
      [
        87.340641,
        48.469766
      ],
      [
        87.340427,
        48.469467
      ],
      [
        87.339789,
        48.46803
      ],
      [
        87.337584,
        48.466783
      ],
      [
        87.336936,
        48.466452
      ],
      [
        87.336535,
        48.466357
      ],
      [
        87.335244,
        48.466237
      ],
      [
        87.33444,
        48.466036
      ],
      [
        87.333921,
        48.465753
      ],
      [
        87.333405,
        48.465495
      ],
      [
        87.332701,
        48.46507
      ],
      [
        87.332384,
        48.46476
      ],
      [
        87.332227,
        48.464493
      ],
      [
        87.332235,
        48.464025
      ],
      [
        87.332196,
        48.463157
      ],
      [
        87.332118,
        48.462959
      ],
      [
        87.331881,
        48.462664
      ],
      [
        87.331628,
        48.462428
      ],
      [
        87.331498,
        48.462316
      ],
      [
        87.331342,
        48.462172
      ],
      [
        87.331237,
        48.462124
      ],
      [
        87.331091,
        48.462112
      ],
      [
        87.330061,
        48.462246
      ],
      [
        87.329913,
        48.462253
      ],
      [
        87.329782,
        48.462243
      ],
      [
        87.329622,
        48.462183
      ],
      [
        87.329459,
        48.462078
      ],
      [
        87.329214,
        48.461877
      ],
      [
        87.328973,
        48.461761
      ],
      [
        87.328228,
        48.461478
      ],
      [
        87.327883,
        48.461257
      ],
      [
        87.327581,
        48.460995
      ],
      [
        87.326995,
        48.460119
      ],
      [
        87.326797,
        48.459621
      ],
      [
        87.326529,
        48.459219
      ],
      [
        87.326442,
        48.459004
      ],
      [
        87.326411,
        48.458659
      ],
      [
        87.326347,
        48.458379
      ],
      [
        87.325967,
        48.457344
      ],
      [
        87.325941,
        48.45715
      ],
      [
        87.325916,
        48.456893
      ],
      [
        87.325936,
        48.456388
      ],
      [
        87.326122,
        48.455878
      ],
      [
        87.326348,
        48.455465
      ],
      [
        87.326608,
        48.455115
      ],
      [
        87.327631,
        48.454085
      ],
      [
        87.327686,
        48.453986
      ],
      [
        87.327719,
        48.453861
      ],
      [
        87.327756,
        48.453707
      ],
      [
        87.327797,
        48.453625
      ],
      [
        87.327888,
        48.453543
      ],
      [
        87.32821,
        48.453355
      ],
      [
        87.32833,
        48.453225
      ],
      [
        87.32866,
        48.452691
      ],
      [
        87.329496,
        48.451381
      ],
      [
        87.329623,
        48.451163
      ],
      [
        87.329663,
        48.450995
      ],
      [
        87.329661,
        48.450837
      ],
      [
        87.329603,
        48.450257
      ],
      [
        87.329488,
        48.449275
      ],
      [
        87.329501,
        48.448938
      ],
      [
        87.329672,
        48.448527
      ],
      [
        87.329805,
        48.448211
      ],
      [
        87.330346,
        48.447177
      ],
      [
        87.330378,
        48.447001
      ],
      [
        87.330384,
        48.446825
      ],
      [
        87.330359,
        48.446669
      ],
      [
        87.330301,
        48.446534
      ],
      [
        87.330255,
        48.446464
      ],
      [
        87.330173,
        48.446395
      ],
      [
        87.330066,
        48.446334
      ],
      [
        87.329927,
        48.446286
      ],
      [
        87.3292,
        48.446125
      ],
      [
        87.328899,
        48.446008
      ],
      [
        87.328062,
        48.44559
      ],
      [
        87.327142,
        48.44514
      ],
      [
        87.326538,
        48.44487
      ],
      [
        87.326354,
        48.444807
      ],
      [
        87.326144,
        48.444769
      ],
      [
        87.325325,
        48.4447
      ],
      [
        87.324818,
        48.444615
      ],
      [
        87.32459,
        48.444563
      ],
      [
        87.324406,
        48.444501
      ],
      [
        87.323764,
        48.444195
      ],
      [
        87.323242,
        48.443992
      ],
      [
        87.323021,
        48.443882
      ],
      [
        87.322864,
        48.44377
      ],
      [
        87.322744,
        48.443626
      ],
      [
        87.322429,
        48.443172
      ],
      [
        87.322059,
        48.442868
      ],
      [
        87.321678,
        48.44256
      ],
      [
        87.321431,
        48.442391
      ],
      [
        87.321079,
        48.442262
      ],
      [
        87.320669,
        48.442133
      ],
      [
        87.318368,
        48.44154
      ],
      [
        87.318006,
        48.44149
      ],
      [
        87.317467,
        48.441335
      ],
      [
        87.316933,
        48.441259
      ],
      [
        87.316734,
        48.441239
      ],
      [
        87.316536,
        48.441205
      ],
      [
        87.31635,
        48.441147
      ],
      [
        87.316213,
        48.441085
      ],
      [
        87.315449,
        48.440691
      ],
      [
        87.31519,
        48.440595
      ],
      [
        87.314408,
        48.440445
      ],
      [
        87.313892,
        48.440285
      ],
      [
        87.312466,
        48.43965
      ],
      [
        87.312377,
        48.439626
      ],
      [
        87.31228,
        48.439624
      ],
      [
        87.312171,
        48.439641
      ],
      [
        87.312123,
        48.439673
      ],
      [
        87.312095,
        48.439721
      ],
      [
        87.312104,
        48.439778
      ],
      [
        87.312157,
        48.439838
      ],
      [
        87.312439,
        48.440019
      ],
      [
        87.313046,
        48.440331
      ],
      [
        87.313659,
        48.440556
      ],
      [
        87.314245,
        48.44073
      ],
      [
        87.314318,
        48.440772
      ],
      [
        87.314352,
        48.440825
      ],
      [
        87.314344,
        48.440875
      ],
      [
        87.314309,
        48.440917
      ],
      [
        87.314245,
        48.440951
      ],
      [
        87.314165,
        48.44096
      ],
      [
        87.314048,
        48.440939
      ],
      [
        87.313944,
        48.440897
      ],
      [
        87.313418,
        48.440647
      ],
      [
        87.312961,
        48.440448
      ],
      [
        87.31237,
        48.440243
      ],
      [
        87.311784,
        48.44009
      ],
      [
        87.310775,
        48.440004
      ],
      [
        87.310179,
        48.43989
      ],
      [
        87.309373,
        48.439732
      ],
      [
        87.308857,
        48.439667
      ],
      [
        87.308002,
        48.439576
      ],
      [
        87.307708,
        48.439567
      ],
      [
        87.307438,
        48.439577
      ],
      [
        87.307113,
        48.439603
      ],
      [
        87.306659,
        48.439687
      ],
      [
        87.305935,
        48.439893
      ],
      [
        87.304558,
        48.44014
      ],
      [
        87.30417,
        48.440206
      ],
      [
        87.30402,
        48.440204
      ],
      [
        87.303853,
        48.440179
      ],
      [
        87.303249,
        48.440021
      ],
      [
        87.303034,
        48.439988
      ],
      [
        87.302794,
        48.439975
      ],
      [
        87.302272,
        48.439998
      ],
      [
        87.301996,
        48.440004
      ],
      [
        87.301791,
        48.439989
      ],
      [
        87.301665,
        48.439961
      ],
      [
        87.301539,
        48.439915
      ],
      [
        87.301411,
        48.439844
      ],
      [
        87.30128,
        48.439701
      ],
      [
        87.301095,
        48.439447
      ],
      [
        87.30085,
        48.439245
      ],
      [
        87.30067,
        48.439118
      ],
      [
        87.30038,
        48.439002
      ],
      [
        87.300082,
        48.438918
      ],
      [
        87.299539,
        48.438843
      ],
      [
        87.298982,
        48.438784
      ],
      [
        87.298333,
        48.438796
      ],
      [
        87.297677,
        48.438876
      ],
      [
        87.296596,
        48.438987
      ],
      [
        87.295609,
        48.43909
      ],
      [
        87.295415,
        48.439144
      ],
      [
        87.295221,
        48.439257
      ],
      [
        87.294201,
        48.439981
      ],
      [
        87.29376,
        48.440327
      ],
      [
        87.2934,
        48.440693
      ],
      [
        87.293186,
        48.440825
      ],
      [
        87.292961,
        48.440895
      ],
      [
        87.292631,
        48.440946
      ],
      [
        87.29203,
        48.440993
      ],
      [
        87.291332,
        48.441012
      ],
      [
        87.290936,
        48.440993
      ],
      [
        87.290467,
        48.440939
      ],
      [
        87.290259,
        48.440937
      ],
      [
        87.288063,
        48.441168
      ],
      [
        87.287777,
        48.441177
      ],
      [
        87.287421,
        48.441167
      ],
      [
        87.2873,
        48.441175
      ],
      [
        87.287209,
        48.441193
      ],
      [
        87.287134,
        48.441227
      ],
      [
        87.287074,
        48.441288
      ],
      [
        87.287074,
        48.441332
      ],
      [
        87.28709,
        48.44137
      ],
      [
        87.287154,
        48.441414
      ],
      [
        87.287217,
        48.441429
      ],
      [
        87.287279,
        48.441431
      ],
      [
        87.287371,
        48.441431
      ],
      [
        87.287866,
        48.441382
      ],
      [
        87.288477,
        48.441355
      ],
      [
        87.289119,
        48.44131
      ],
      [
        87.289781,
        48.441217
      ],
      [
        87.289911,
        48.441192
      ],
      [
        87.290031,
        48.441187
      ],
      [
        87.290106,
        48.441202
      ],
      [
        87.290155,
        48.441238
      ],
      [
        87.290181,
        48.441277
      ],
      [
        87.290184,
        48.441319
      ],
      [
        87.290172,
        48.44136
      ],
      [
        87.290122,
        48.441398
      ],
      [
        87.290061,
        48.441425
      ],
      [
        87.289968,
        48.441444
      ],
      [
        87.289269,
        48.441462
      ],
      [
        87.288544,
        48.441578
      ],
      [
        87.28783,
        48.441604
      ],
      [
        87.287384,
        48.44167
      ],
      [
        87.287051,
        48.441694
      ],
      [
        87.286633,
        48.441686
      ],
      [
        87.286232,
        48.441677
      ],
      [
        87.28582,
        48.441694
      ],
      [
        87.285449,
        48.441719
      ],
      [
        87.285326,
        48.441731
      ],
      [
        87.28524,
        48.441751
      ],
      [
        87.285185,
        48.441779
      ],
      [
        87.285149,
        48.441825
      ],
      [
        87.285144,
        48.441869
      ],
      [
        87.285154,
        48.441918
      ],
      [
        87.285182,
        48.441947
      ],
      [
        87.28524,
        48.441974
      ],
      [
        87.285289,
        48.441984
      ],
      [
        87.285337,
        48.441989
      ],
      [
        87.285482,
        48.441982
      ],
      [
        87.285794,
        48.441926
      ],
      [
        87.286159,
        48.441886
      ],
      [
        87.286725,
        48.441878
      ],
      [
        87.287492,
        48.441958
      ],
      [
        87.287856,
        48.44198
      ],
      [
        87.288174,
        48.441979
      ],
      [
        87.288912,
        48.441919
      ],
      [
        87.289463,
        48.441877
      ],
      [
        87.290093,
        48.441885
      ],
      [
        87.290419,
        48.441953
      ],
      [
        87.290609,
        48.442081
      ],
      [
        87.290807,
        48.442333
      ],
      [
        87.290913,
        48.442519
      ],
      [
        87.290996,
        48.442585
      ],
      [
        87.291105,
        48.44264
      ],
      [
        87.291904,
        48.44292
      ],
      [
        87.292256,
        48.443012
      ],
      [
        87.292595,
        48.443068
      ],
      [
        87.292743,
        48.443075
      ],
      [
        87.292881,
        48.443064
      ],
      [
        87.29306,
        48.443029
      ],
      [
        87.293794,
        48.442812
      ],
      [
        87.294164,
        48.442779
      ],
      [
        87.2947,
        48.442777
      ],
      [
        87.295232,
        48.442751
      ],
      [
        87.295325,
        48.44276
      ],
      [
        87.2954,
        48.442784
      ],
      [
        87.295454,
        48.442817
      ],
      [
        87.295491,
        48.442868
      ],
      [
        87.295492,
        48.442898
      ],
      [
        87.295485,
        48.442928
      ],
      [
        87.295441,
        48.442971
      ],
      [
        87.295375,
        48.443001
      ],
      [
        87.295293,
        48.443017
      ],
      [
        87.294963,
        48.443029
      ],
      [
        87.294515,
        48.443035
      ],
      [
        87.294278,
        48.443081
      ],
      [
        87.29402,
        48.443166
      ],
      [
        87.29347,
        48.443389
      ],
      [
        87.293297,
        48.443436
      ],
      [
        87.293132,
        48.443452
      ],
      [
        87.29214,
        48.443426
      ],
      [
        87.291994,
        48.443422
      ],
      [
        87.291867,
        48.443415
      ],
      [
        87.291594,
        48.443366
      ],
      [
        87.291014,
        48.443232
      ],
      [
        87.290791,
        48.443189
      ],
      [
        87.290547,
        48.443164
      ],
      [
        87.290231,
        48.443165
      ],
      [
        87.289839,
        48.443124
      ],
      [
        87.289684,
        48.443088
      ],
      [
        87.289562,
        48.443046
      ],
      [
        87.28924,
        48.442862
      ],
      [
        87.288978,
        48.442693
      ],
      [
        87.288914,
        48.442674
      ],
      [
        87.288837,
        48.442671
      ],
      [
        87.28877,
        48.442675
      ],
      [
        87.288703,
        48.442702
      ],
      [
        87.28865,
        48.44275
      ],
      [
        87.288643,
        48.442793
      ],
      [
        87.288655,
        48.442843
      ],
      [
        87.288711,
        48.442889
      ],
      [
        87.288988,
        48.443034
      ],
      [
        87.289293,
        48.443168
      ],
      [
        87.289557,
        48.443272
      ],
      [
        87.289879,
        48.443342
      ],
      [
        87.29027,
        48.443406
      ],
      [
        87.290713,
        48.44347
      ],
      [
        87.290964,
        48.443529
      ],
      [
        87.291188,
        48.443618
      ],
      [
        87.291673,
        48.443843
      ],
      [
        87.292692,
        48.444199
      ],
      [
        87.293001,
        48.444252
      ],
      [
        87.293482,
        48.444274
      ],
      [
        87.294545,
        48.444258
      ],
      [
        87.295455,
        48.444172
      ],
      [
        87.295537,
        48.444173
      ],
      [
        87.295606,
        48.444186
      ],
      [
        87.295663,
        48.444216
      ],
      [
        87.295689,
        48.444246
      ],
      [
        87.295697,
        48.444296
      ],
      [
        87.29568,
        48.444341
      ],
      [
        87.295647,
        48.444369
      ],
      [
        87.295605,
        48.444391
      ],
      [
        87.295523,
        48.444411
      ],
      [
        87.295422,
        48.444423
      ],
      [
        87.294734,
        48.444452
      ],
      [
        87.29341,
        48.444619
      ],
      [
        87.293076,
        48.444645
      ],
      [
        87.292759,
        48.444624
      ],
      [
        87.292127,
        48.444548
      ],
      [
        87.291565,
        48.444448
      ],
      [
        87.290752,
        48.444176
      ],
      [
        87.290515,
        48.444138
      ],
      [
        87.289469,
        48.444152
      ],
      [
        87.288666,
        48.444058
      ],
      [
        87.287804,
        48.443899
      ],
      [
        87.287597,
        48.443891
      ],
      [
        87.286869,
        48.44394
      ],
      [
        87.28661,
        48.443987
      ],
      [
        87.286417,
        48.44407
      ],
      [
        87.286178,
        48.444241
      ],
      [
        87.285949,
        48.444515
      ],
      [
        87.285609,
        48.445052
      ],
      [
        87.285437,
        48.445185
      ],
      [
        87.285236,
        48.445277
      ],
      [
        87.284712,
        48.445424
      ],
      [
        87.28429,
        48.445599
      ],
      [
        87.28358,
        48.445921
      ],
      [
        87.283472,
        48.445948
      ],
      [
        87.283283,
        48.44596
      ],
      [
        87.283075,
        48.445945
      ],
      [
        87.282846,
        48.445938
      ],
      [
        87.282709,
        48.445957
      ],
      [
        87.282588,
        48.44599
      ],
      [
        87.282393,
        48.446077
      ],
      [
        87.281269,
        48.446876
      ],
      [
        87.280789,
        48.447047
      ],
      [
        87.280189,
        48.447257
      ],
      [
        87.279757,
        48.44749
      ],
      [
        87.279418,
        48.447596
      ],
      [
        87.278618,
        48.447659
      ],
      [
        87.277721,
        48.447705
      ],
      [
        87.277469,
        48.447686
      ],
      [
        87.277297,
        48.44766
      ],
      [
        87.277104,
        48.447593
      ],
      [
        87.276958,
        48.447525
      ],
      [
        87.276216,
        48.44714
      ],
      [
        87.275611,
        48.446827
      ],
      [
        87.27535,
        48.44673
      ],
      [
        87.274247,
        48.446459
      ],
      [
        87.271752,
        48.445735
      ],
      [
        87.271208,
        48.445665
      ],
      [
        87.271056,
        48.445634
      ],
      [
        87.270932,
        48.44559
      ],
      [
        87.270789,
        48.445509
      ],
      [
        87.270632,
        48.445407
      ],
      [
        87.270357,
        48.445076
      ],
      [
        87.270308,
        48.44503
      ],
      [
        87.270239,
        48.444994
      ],
      [
        87.270163,
        48.444982
      ],
      [
        87.270074,
        48.444986
      ],
      [
        87.270021,
        48.445007
      ],
      [
        87.269984,
        48.445037
      ],
      [
        87.269961,
        48.445093
      ],
      [
        87.269964,
        48.445141
      ],
      [
        87.270003,
        48.445198
      ],
      [
        87.270184,
        48.445372
      ],
      [
        87.270508,
        48.445657
      ],
      [
        87.270592,
        48.445776
      ],
      [
        87.270687,
        48.445953
      ],
      [
        87.270768,
        48.446093
      ],
      [
        87.27083,
        48.446133
      ],
      [
        87.270917,
        48.446166
      ],
      [
        87.271134,
        48.446201
      ],
      [
        87.271865,
        48.446273
      ],
      [
        87.271937,
        48.446287
      ],
      [
        87.271969,
        48.446301
      ],
      [
        87.272002,
        48.44632
      ],
      [
        87.272029,
        48.446348
      ],
      [
        87.272039,
        48.44638
      ],
      [
        87.272034,
        48.446415
      ],
      [
        87.272009,
        48.446451
      ],
      [
        87.271964,
        48.44648
      ],
      [
        87.271931,
        48.446491
      ],
      [
        87.271892,
        48.446498
      ],
      [
        87.271818,
        48.446499
      ],
      [
        87.271739,
        48.446494
      ],
      [
        87.270391,
        48.446342
      ],
      [
        87.270284,
        48.446315
      ],
      [
        87.270199,
        48.446284
      ],
      [
        87.270078,
        48.446216
      ],
      [
        87.269989,
        48.446145
      ],
      [
        87.269379,
        48.4455
      ],
      [
        87.268855,
        48.445048
      ],
      [
        87.268362,
        48.444724
      ],
      [
        87.268003,
        48.444576
      ],
      [
        87.267662,
        48.444296
      ],
      [
        87.267439,
        48.444232
      ],
      [
        87.266646,
        48.444182
      ],
      [
        87.266294,
        48.444146
      ],
      [
        87.265938,
        48.444024
      ],
      [
        87.265659,
        48.443849
      ],
      [
        87.265472,
        48.443691
      ],
      [
        87.265269,
        48.443401
      ],
      [
        87.265175,
        48.44332
      ],
      [
        87.26507,
        48.443261
      ],
      [
        87.264712,
        48.443146
      ],
      [
        87.263876,
        48.442919
      ],
      [
        87.263404,
        48.442764
      ],
      [
        87.263083,
        48.442662
      ],
      [
        87.26277,
        48.442603
      ],
      [
        87.262307,
        48.442486
      ],
      [
        87.261925,
        48.442395
      ],
      [
        87.26161,
        48.442336
      ],
      [
        87.261239,
        48.442305
      ],
      [
        87.260678,
        48.442266
      ],
      [
        87.259858,
        48.442186
      ],
      [
        87.259195,
        48.442011
      ],
      [
        87.259038,
        48.441988
      ],
      [
        87.258925,
        48.441989
      ],
      [
        87.258845,
        48.442014
      ],
      [
        87.258807,
        48.442058
      ],
      [
        87.258795,
        48.442109
      ],
      [
        87.258828,
        48.442176
      ],
      [
        87.258869,
        48.442209
      ],
      [
        87.258928,
        48.442233
      ],
      [
        87.259166,
        48.442262
      ],
      [
        87.259774,
        48.442329
      ],
      [
        87.260382,
        48.442473
      ],
      [
        87.261054,
        48.442628
      ],
      [
        87.261162,
        48.442676
      ],
      [
        87.261211,
        48.442732
      ],
      [
        87.261213,
        48.442769
      ],
      [
        87.261201,
        48.442809
      ],
      [
        87.261145,
        48.442852
      ],
      [
        87.261066,
        48.442878
      ],
      [
        87.260977,
        48.442883
      ],
      [
        87.260853,
        48.442854
      ],
      [
        87.260295,
        48.442601
      ],
      [
        87.260143,
        48.442553
      ],
      [
        87.259828,
        48.442498
      ],
      [
        87.259047,
        48.442483
      ],
      [
        87.258831,
        48.442459
      ],
      [
        87.257839,
        48.442268
      ],
      [
        87.256973,
        48.442149
      ],
      [
        87.256424,
        48.442127
      ],
      [
        87.256025,
        48.442136
      ],
      [
        87.255726,
        48.442107
      ],
      [
        87.255426,
        48.442022
      ],
      [
        87.25482,
        48.441798
      ],
      [
        87.254321,
        48.441543
      ],
      [
        87.254064,
        48.441416
      ],
      [
        87.253844,
        48.441338
      ],
      [
        87.253401,
        48.44118
      ],
      [
        87.253231,
        48.441073
      ],
      [
        87.252829,
        48.44062
      ],
      [
        87.252571,
        48.440362
      ],
      [
        87.251721,
        48.439648
      ],
      [
        87.25151,
        48.439426
      ],
      [
        87.251342,
        48.439204
      ],
      [
        87.250943,
        48.438468
      ],
      [
        87.250535,
        48.438073
      ],
      [
        87.249991,
        48.437644
      ],
      [
        87.249628,
        48.437173
      ],
      [
        87.249475,
        48.437024
      ],
      [
        87.249285,
        48.436913
      ],
      [
        87.248778,
        48.436783
      ],
      [
        87.248044,
        48.436627
      ],
      [
        87.247782,
        48.436528
      ],
      [
        87.247527,
        48.436386
      ],
      [
        87.247159,
        48.436166
      ],
      [
        87.24706,
        48.436114
      ],
      [
        87.246927,
        48.436068
      ],
      [
        87.246829,
        48.436045
      ],
      [
        87.246728,
        48.436046
      ],
      [
        87.246652,
        48.436059
      ],
      [
        87.246589,
        48.436083
      ],
      [
        87.24655,
        48.436118
      ],
      [
        87.246519,
        48.436163
      ],
      [
        87.246512,
        48.436208
      ],
      [
        87.246527,
        48.436264
      ],
      [
        87.246584,
        48.436329
      ],
      [
        87.247221,
        48.436949
      ],
      [
        87.247456,
        48.437085
      ],
      [
        87.247734,
        48.437236
      ],
      [
        87.248884,
        48.437718
      ],
      [
        87.249026,
        48.437803
      ],
      [
        87.249147,
        48.437889
      ],
      [
        87.249264,
        48.438019
      ],
      [
        87.249409,
        48.438204
      ],
      [
        87.249534,
        48.43841
      ],
      [
        87.249632,
        48.439238
      ],
      [
        87.249693,
        48.43949
      ],
      [
        87.249777,
        48.439703
      ],
      [
        87.250115,
        48.440195
      ],
      [
        87.25025,
        48.440348
      ],
      [
        87.250361,
        48.440443
      ],
      [
        87.250603,
        48.440548
      ],
      [
        87.250867,
        48.440649
      ],
      [
        87.25095,
        48.440694
      ],
      [
        87.250993,
        48.440733
      ],
      [
        87.251028,
        48.440777
      ],
      [
        87.251028,
        48.44083
      ],
      [
        87.251001,
        48.440873
      ],
      [
        87.250959,
        48.440896
      ],
      [
        87.25088,
        48.440911
      ],
      [
        87.250806,
        48.440904
      ],
      [
        87.250723,
        48.440875
      ],
      [
        87.250582,
        48.440799
      ],
      [
        87.250105,
        48.440513
      ],
      [
        87.249759,
        48.440255
      ],
      [
        87.249459,
        48.439953
      ],
      [
        87.248717,
        48.438853
      ],
      [
        87.248624,
        48.438761
      ],
      [
        87.248486,
        48.438665
      ],
      [
        87.248335,
        48.438621
      ],
      [
        87.247561,
        48.438621
      ],
      [
        87.247398,
        48.438592
      ],
      [
        87.246247,
        48.43814
      ],
      [
        87.245937,
        48.438078
      ],
      [
        87.245616,
        48.438035
      ],
      [
        87.245262,
        48.438026
      ],
      [
        87.244368,
        48.438064
      ],
      [
        87.243957,
        48.438065
      ],
      [
        87.243645,
        48.438028
      ],
      [
        87.243305,
        48.437941
      ],
      [
        87.242208,
        48.437519
      ],
      [
        87.241367,
        48.437191
      ],
      [
        87.241189,
        48.437082
      ],
      [
        87.241024,
        48.436945
      ],
      [
        87.240396,
        48.43608
      ],
      [
        87.240226,
        48.435937
      ],
      [
        87.239972,
        48.435828
      ],
      [
        87.239406,
        48.435638
      ],
      [
        87.2391,
        48.435481
      ],
      [
        87.238651,
        48.435146
      ],
      [
        87.237671,
        48.434329
      ],
      [
        87.236539,
        48.43322
      ],
      [
        87.236368,
        48.433032
      ],
      [
        87.23632,
        48.432911
      ],
      [
        87.236303,
        48.432753
      ],
      [
        87.236274,
        48.432395
      ],
      [
        87.236189,
        48.43208
      ],
      [
        87.236085,
        48.431753
      ],
      [
        87.235931,
        48.431373
      ],
      [
        87.235691,
        48.430993
      ],
      [
        87.235564,
        48.43079
      ],
      [
        87.235418,
        48.430618
      ],
      [
        87.235255,
        48.430503
      ],
      [
        87.235053,
        48.430419
      ],
      [
        87.234753,
        48.430345
      ],
      [
        87.234516,
        48.430324
      ],
      [
        87.234315,
        48.430327
      ],
      [
        87.233685,
        48.430407
      ],
      [
        87.233028,
        48.430534
      ],
      [
        87.232778,
        48.430562
      ],
      [
        87.232558,
        48.430548
      ],
      [
        87.232399,
        48.430505
      ],
      [
        87.232168,
        48.430373
      ],
      [
        87.231583,
        48.429838
      ],
      [
        87.231131,
        48.429432
      ],
      [
        87.230655,
        48.429054
      ],
      [
        87.230193,
        48.428717
      ],
      [
        87.229995,
        48.428617
      ],
      [
        87.229781,
        48.428565
      ],
      [
        87.229508,
        48.428574
      ],
      [
        87.229139,
        48.428623
      ],
      [
        87.228649,
        48.428749
      ],
      [
        87.228277,
        48.428883
      ],
      [
        87.228147,
        48.428923
      ],
      [
        87.228017,
        48.428946
      ],
      [
        87.227834,
        48.428947
      ],
      [
        87.227616,
        48.428906
      ],
      [
        87.226075,
        48.428411
      ],
      [
        87.224485,
        48.42783
      ],
      [
        87.223791,
        48.427663
      ],
      [
        87.223306,
        48.427496
      ],
      [
        87.222576,
        48.427141
      ],
      [
        87.221416,
        48.4266
      ],
      [
        87.220871,
        48.426337
      ],
      [
        87.220587,
        48.426199
      ],
      [
        87.220309,
        48.426102
      ],
      [
        87.220097,
        48.426077
      ],
      [
        87.219852,
        48.426094
      ],
      [
        87.219601,
        48.426121
      ],
      [
        87.219321,
        48.426137
      ],
      [
        87.219036,
        48.42613
      ],
      [
        87.218752,
        48.426111
      ],
      [
        87.218279,
        48.426045
      ],
      [
        87.217686,
        48.425829
      ],
      [
        87.217401,
        48.425792
      ],
      [
        87.216685,
        48.425831
      ],
      [
        87.216069,
        48.42589
      ],
      [
        87.21581,
        48.425956
      ],
      [
        87.215312,
        48.426301
      ],
      [
        87.214919,
        48.426559
      ],
      [
        87.214652,
        48.426666
      ],
      [
        87.214222,
        48.426782
      ],
      [
        87.213956,
        48.426885
      ],
      [
        87.213773,
        48.427014
      ],
      [
        87.213463,
        48.427259
      ],
      [
        87.213087,
        48.427484
      ],
      [
        87.212543,
        48.427767
      ],
      [
        87.211609,
        48.428332
      ],
      [
        87.211523,
        48.428441
      ],
      [
        87.211467,
        48.42855
      ],
      [
        87.211452,
        48.428761
      ],
      [
        87.211424,
        48.428905
      ],
      [
        87.211351,
        48.428985
      ],
      [
        87.211242,
        48.429049
      ],
      [
        87.211111,
        48.429094
      ],
      [
        87.21097,
        48.429093
      ],
      [
        87.210867,
        48.42907
      ],
      [
        87.210761,
        48.429008
      ],
      [
        87.210651,
        48.428886
      ],
      [
        87.210316,
        48.428287
      ],
      [
        87.210282,
        48.428138
      ],
      [
        87.210287,
        48.428052
      ],
      [
        87.21039,
        48.427561
      ],
      [
        87.210545,
        48.427162
      ],
      [
        87.21065,
        48.426792
      ],
      [
        87.21072,
        48.426628
      ],
      [
        87.210999,
        48.4262
      ],
      [
        87.211046,
        48.426027
      ],
      [
        87.211034,
        48.425749
      ],
      [
        87.21075,
        48.426297
      ],
      [
        87.210408,
        48.426631
      ],
      [
        87.210123,
        48.427228
      ],
      [
        87.20963,
        48.427735
      ],
      [
        87.209542,
        48.427929
      ],
      [
        87.209532,
        48.428164
      ],
      [
        87.209693,
        48.429034
      ],
      [
        87.209582,
        48.42918
      ],
      [
        87.208643,
        48.429668
      ],
      [
        87.208415,
        48.429716
      ],
      [
        87.207332,
        48.429579
      ],
      [
        87.20721,
        48.429636
      ],
      [
        87.207117,
        48.429721
      ],
      [
        87.207055,
        48.430586
      ],
      [
        87.206945,
        48.430765
      ],
      [
        87.20653,
        48.43108
      ],
      [
        87.206376,
        48.431279
      ],
      [
        87.206095,
        48.432441
      ],
      [
        87.206046,
        48.432918
      ],
      [
        87.206144,
        48.433945
      ],
      [
        87.20613,
        48.434163
      ],
      [
        87.206049,
        48.434468
      ],
      [
        87.205894,
        48.435072
      ],
      [
        87.205825,
        48.436489
      ],
      [
        87.205628,
        48.437527
      ],
      [
        87.205652,
        48.437689
      ],
      [
        87.205761,
        48.437861
      ],
      [
        87.206241,
        48.438313
      ],
      [
        87.206281,
        48.438377
      ],
      [
        87.206288,
        48.438432
      ],
      [
        87.206275,
        48.438477
      ],
      [
        87.206248,
        48.43852
      ],
      [
        87.206201,
        48.438554
      ],
      [
        87.206147,
        48.438581
      ],
      [
        87.206062,
        48.438596
      ],
      [
        87.205991,
        48.438588
      ],
      [
        87.205931,
        48.43857
      ],
      [
        87.205868,
        48.438527
      ],
      [
        87.205809,
        48.438465
      ],
      [
        87.205243,
        48.437779
      ],
      [
        87.205193,
        48.437749
      ],
      [
        87.205135,
        48.437729
      ],
      [
        87.205035,
        48.437726
      ],
      [
        87.204961,
        48.437746
      ],
      [
        87.204891,
        48.437794
      ],
      [
        87.204862,
        48.437843
      ],
      [
        87.204855,
        48.437902
      ],
      [
        87.205065,
        48.438333
      ],
      [
        87.205099,
        48.438465
      ],
      [
        87.205109,
        48.438589
      ],
      [
        87.205092,
        48.438704
      ],
      [
        87.205053,
        48.43883
      ],
      [
        87.204908,
        48.439049
      ],
      [
        87.204705,
        48.439243
      ],
      [
        87.203942,
        48.439725
      ],
      [
        87.203663,
        48.439969
      ],
      [
        87.202867,
        48.441326
      ],
      [
        87.202741,
        48.441444
      ],
      [
        87.202545,
        48.441589
      ],
      [
        87.201902,
        48.441847
      ],
      [
        87.20171,
        48.441972
      ],
      [
        87.201535,
        48.442123
      ],
      [
        87.201194,
        48.442615
      ],
      [
        87.200066,
        48.443911
      ],
      [
        87.199998,
        48.443986
      ],
      [
        87.199966,
        48.444011
      ],
      [
        87.199928,
        48.444033
      ],
      [
        87.199877,
        48.44405
      ],
      [
        87.199804,
        48.444059
      ],
      [
        87.199741,
        48.444053
      ],
      [
        87.199693,
        48.444041
      ],
      [
        87.199641,
        48.444013
      ],
      [
        87.199616,
        48.443981
      ],
      [
        87.199604,
        48.443947
      ],
      [
        87.199603,
        48.443912
      ],
      [
        87.199618,
        48.443876
      ],
      [
        87.199743,
        48.443668
      ],
      [
        87.199955,
        48.443377
      ],
      [
        87.200092,
        48.443103
      ],
      [
        87.200192,
        48.442826
      ],
      [
        87.200179,
        48.442749
      ],
      [
        87.200128,
        48.442712
      ],
      [
        87.200049,
        48.442685
      ],
      [
        87.199971,
        48.44268
      ],
      [
        87.199903,
        48.442693
      ],
      [
        87.199845,
        48.442717
      ],
      [
        87.199801,
        48.442783
      ],
      [
        87.199602,
        48.443202
      ],
      [
        87.199504,
        48.44334
      ],
      [
        87.199322,
        48.443582
      ],
      [
        87.19916,
        48.443762
      ],
      [
        87.198714,
        48.444108
      ],
      [
        87.198285,
        48.444407
      ],
      [
        87.197012,
        48.445329
      ],
      [
        87.196343,
        48.445812
      ],
      [
        87.195838,
        48.446209
      ],
      [
        87.195619,
        48.446442
      ],
      [
        87.19533,
        48.44689
      ],
      [
        87.195218,
        48.447122
      ],
      [
        87.195062,
        48.44735
      ],
      [
        87.194942,
        48.447476
      ],
      [
        87.193747,
        48.448509
      ],
      [
        87.193237,
        48.44899
      ],
      [
        87.192161,
        48.449778
      ],
      [
        87.190389,
        48.451747
      ],
      [
        87.19026,
        48.451856
      ],
      [
        87.19018,
        48.451909
      ],
      [
        87.190105,
        48.45193
      ],
      [
        87.190039,
        48.451933
      ],
      [
        87.189984,
        48.451919
      ],
      [
        87.189942,
        48.451892
      ],
      [
        87.189917,
        48.451848
      ],
      [
        87.189923,
        48.451804
      ],
      [
        87.189954,
        48.451749
      ],
      [
        87.190034,
        48.451663
      ],
      [
        87.190349,
        48.451342
      ],
      [
        87.190573,
        48.451069
      ],
      [
        87.190763,
        48.450737
      ],
      [
        87.190774,
        48.45067
      ],
      [
        87.19077,
        48.450617
      ],
      [
        87.190731,
        48.450572
      ],
      [
        87.190678,
        48.450537
      ],
      [
        87.190591,
        48.450526
      ],
      [
        87.190513,
        48.450539
      ],
      [
        87.190468,
        48.450561
      ],
      [
        87.190403,
        48.450606
      ],
      [
        87.190177,
        48.45091
      ],
      [
        87.190021,
        48.45109
      ],
      [
        87.189851,
        48.451244
      ],
      [
        87.18969,
        48.451374
      ],
      [
        87.18921,
        48.451701
      ],
      [
        87.188723,
        48.452027
      ],
      [
        87.188221,
        48.452376
      ],
      [
        87.187886,
        48.452649
      ],
      [
        87.18767,
        48.452885
      ],
      [
        87.187482,
        48.453057
      ],
      [
        87.186607,
        48.45368
      ],
      [
        87.186413,
        48.453835
      ],
      [
        87.186,
        48.454294
      ],
      [
        87.185329,
        48.455309
      ],
      [
        87.184427,
        48.456326
      ],
      [
        87.184367,
        48.456433
      ],
      [
        87.184338,
        48.456524
      ],
      [
        87.184322,
        48.456672
      ],
      [
        87.184342,
        48.456793
      ],
      [
        87.184389,
        48.456909
      ],
      [
        87.184506,
        48.457026
      ],
      [
        87.184842,
        48.457253
      ],
      [
        87.184888,
        48.457292
      ],
      [
        87.184918,
        48.457345
      ],
      [
        87.184926,
        48.457393
      ],
      [
        87.184906,
        48.457448
      ],
      [
        87.184867,
        48.457489
      ],
      [
        87.184819,
        48.457511
      ],
      [
        87.184771,
        48.457522
      ],
      [
        87.184675,
        48.457515
      ],
      [
        87.184577,
        48.457491
      ],
      [
        87.184472,
        48.457448
      ],
      [
        87.184332,
        48.457366
      ],
      [
        87.184219,
        48.457287
      ],
      [
        87.184126,
        48.457194
      ],
      [
        87.184059,
        48.457109
      ],
      [
        87.184027,
        48.457051
      ],
      [
        87.184011,
        48.456995
      ],
      [
        87.184001,
        48.456893
      ],
      [
        87.184003,
        48.4567
      ],
      [
        87.184142,
        48.456058
      ],
      [
        87.184144,
        48.455897
      ],
      [
        87.184056,
        48.455758
      ],
      [
        87.183942,
        48.455668
      ],
      [
        87.183819,
        48.455605
      ],
      [
        87.183622,
        48.455562
      ],
      [
        87.183454,
        48.455539
      ],
      [
        87.183267,
        48.455572
      ],
      [
        87.183096,
        48.455608
      ],
      [
        87.182451,
        48.455978
      ],
      [
        87.181838,
        48.456351
      ],
      [
        87.181724,
        48.456449
      ],
      [
        87.181637,
        48.456556
      ],
      [
        87.181144,
        48.457532
      ],
      [
        87.18109,
        48.457727
      ],
      [
        87.181094,
        48.457869
      ],
      [
        87.181148,
        48.458026
      ],
      [
        87.181213,
        48.458154
      ],
      [
        87.182095,
        48.459536
      ],
      [
        87.182224,
        48.459756
      ],
      [
        87.182258,
        48.459831
      ],
      [
        87.182257,
        48.459961
      ],
      [
        87.182194,
        48.46007
      ],
      [
        87.182079,
        48.46015
      ],
      [
        87.181861,
        48.460192
      ],
      [
        87.181648,
        48.460206
      ],
      [
        87.180119,
        48.460081
      ],
      [
        87.179748,
        48.460006
      ],
      [
        87.179498,
        48.459898
      ],
      [
        87.178349,
        48.459109
      ],
      [
        87.177962,
        48.458952
      ],
      [
        87.177516,
        48.458876
      ],
      [
        87.177029,
        48.458888
      ],
      [
        87.175935,
        48.45904
      ],
      [
        87.175192,
        48.459179
      ],
      [
        87.174895,
        48.459309
      ],
      [
        87.172855,
        48.460493
      ],
      [
        87.172169,
        48.460891
      ],
      [
        87.170868,
        48.461818
      ],
      [
        87.170612,
        48.461963
      ],
      [
        87.170369,
        48.462042
      ],
      [
        87.170049,
        48.462125
      ],
      [
        87.168921,
        48.462283
      ],
      [
        87.164536,
        48.463164
      ],
      [
        87.164246,
        48.4632
      ],
      [
        87.163843,
        48.463199
      ],
      [
        87.16164,
        48.46289
      ],
      [
        87.161202,
        48.46287
      ],
      [
        87.160899,
        48.462913
      ],
      [
        87.16061,
        48.463055
      ],
      [
        87.159767,
        48.463652
      ],
      [
        87.159315,
        48.463904
      ],
      [
        87.157766,
        48.464397
      ],
      [
        87.156812,
        48.464701
      ],
      [
        87.156678,
        48.464803
      ],
      [
        87.156607,
        48.464928
      ],
      [
        87.156638,
        48.465053
      ],
      [
        87.157153,
        48.465554
      ],
      [
        87.157181,
        48.46566
      ],
      [
        87.15712,
        48.465754
      ],
      [
        87.157044,
        48.465797
      ],
      [
        87.156921,
        48.465822
      ],
      [
        87.155436,
        48.465921
      ],
      [
        87.15384,
        48.465749
      ],
      [
        87.1536,
        48.465752
      ],
      [
        87.153369,
        48.465796
      ],
      [
        87.152673,
        48.466077
      ],
      [
        87.152213,
        48.466285
      ],
      [
        87.151903,
        48.466514
      ],
      [
        87.15174,
        48.466721
      ],
      [
        87.151629,
        48.46692
      ],
      [
        87.151564,
        48.46712
      ],
      [
        87.151555,
        48.467394
      ],
      [
        87.151595,
        48.467656
      ],
      [
        87.15177,
        48.467999
      ],
      [
        87.151806,
        48.468124
      ],
      [
        87.151772,
        48.468224
      ],
      [
        87.151677,
        48.46831
      ],
      [
        87.151525,
        48.468382
      ],
      [
        87.150757,
        48.46853
      ],
      [
        87.150448,
        48.468644
      ],
      [
        87.14986,
        48.469142
      ],
      [
        87.14884,
        48.469757
      ],
      [
        87.148207,
        48.470218
      ],
      [
        87.147866,
        48.470603
      ],
      [
        87.147736,
        48.470864
      ],
      [
        87.147709,
        48.471057
      ],
      [
        87.147703,
        48.471383
      ],
      [
        87.147751,
        48.471527
      ],
      [
        87.147823,
        48.471676
      ],
      [
        87.147988,
        48.471893
      ],
      [
        87.148182,
        48.472106
      ],
      [
        87.148895,
        48.472703
      ],
      [
        87.149118,
        48.472843
      ],
      [
        87.149225,
        48.472921
      ],
      [
        87.149267,
        48.47297
      ],
      [
        87.149273,
        48.473018
      ],
      [
        87.149264,
        48.47307
      ],
      [
        87.14923,
        48.47311
      ],
      [
        87.149168,
        48.473137
      ],
      [
        87.149089,
        48.473142
      ],
      [
        87.149015,
        48.473129
      ],
      [
        87.14893,
        48.47309
      ],
      [
        87.148856,
        48.473041
      ],
      [
        87.147425,
        48.471794
      ],
      [
        87.147315,
        48.471638
      ],
      [
        87.147221,
        48.471476
      ],
      [
        87.147162,
        48.471307
      ],
      [
        87.14712,
        48.471138
      ],
      [
        87.147137,
        48.470767
      ],
      [
        87.147238,
        48.470425
      ],
      [
        87.147496,
        48.469973
      ],
      [
        87.147502,
        48.46992
      ],
      [
        87.147494,
        48.469869
      ],
      [
        87.147457,
        48.469833
      ],
      [
        87.147375,
        48.469798
      ],
      [
        87.14727,
        48.4698
      ],
      [
        87.147196,
        48.469826
      ],
      [
        87.14715,
        48.469861
      ],
      [
        87.147123,
        48.4699
      ],
      [
        87.146629,
        48.471358
      ],
      [
        87.146611,
        48.471502
      ],
      [
        87.146603,
        48.471645
      ],
      [
        87.146644,
        48.471818
      ],
      [
        87.146734,
        48.471996
      ],
      [
        87.147348,
        48.47276
      ],
      [
        87.147779,
        48.473681
      ],
      [
        87.148354,
        48.474246
      ],
      [
        87.14897,
        48.474769
      ],
      [
        87.149134,
        48.474882
      ],
      [
        87.149298,
        48.474995
      ],
      [
        87.149504,
        48.475036
      ],
      [
        87.149711,
        48.475034
      ],
      [
        87.14986,
        48.474986
      ],
      [
        87.150016,
        48.474905
      ],
      [
        87.150691,
        48.474482
      ],
      [
        87.150806,
        48.474439
      ],
      [
        87.150965,
        48.474434
      ],
      [
        87.151165,
        48.47448
      ],
      [
        87.151262,
        48.474559
      ],
      [
        87.151539,
        48.475337
      ],
      [
        87.151661,
        48.47543
      ],
      [
        87.151795,
        48.475478
      ],
      [
        87.151969,
        48.475507
      ],
      [
        87.152608,
        48.475539
      ],
      [
        87.152713,
        48.475579
      ],
      [
        87.152793,
        48.475638
      ],
      [
        87.152821,
        48.475719
      ],
      [
        87.152817,
        48.475808
      ],
      [
        87.152532,
        48.476268
      ],
      [
        87.15251,
        48.476362
      ],
      [
        87.15252,
        48.476416
      ],
      [
        87.152565,
        48.476475
      ],
      [
        87.152655,
        48.476579
      ],
      [
        87.152685,
        48.476614
      ],
      [
        87.152707,
        48.476661
      ],
      [
        87.152698,
        48.476699
      ],
      [
        87.152669,
        48.476743
      ],
      [
        87.152627,
        48.476771
      ],
      [
        87.152563,
        48.476792
      ],
      [
        87.152404,
        48.476802
      ],
      [
        87.152027,
        48.476836
      ],
      [
        87.151865,
        48.47687
      ],
      [
        87.151588,
        48.476987
      ],
      [
        87.151251,
        48.477161
      ],
      [
        87.150987,
        48.477362
      ],
      [
        87.149765,
        48.478571
      ],
      [
        87.149628,
        48.47871
      ],
      [
        87.149528,
        48.478854
      ],
      [
        87.149487,
        48.478974
      ],
      [
        87.149476,
        48.479094
      ],
      [
        87.149481,
        48.479189
      ],
      [
        87.149523,
        48.479292
      ],
      [
        87.149607,
        48.479404
      ],
      [
        87.14974,
        48.479523
      ],
      [
        87.150026,
        48.479656
      ],
      [
        87.150583,
        48.479895
      ],
      [
        87.151098,
        48.480093
      ],
      [
        87.151195,
        48.480156
      ],
      [
        87.151229,
        48.480225
      ],
      [
        87.151215,
        48.480307
      ],
      [
        87.151139,
        48.480377
      ],
      [
        87.151028,
        48.480406
      ],
      [
        87.150898,
        48.480433
      ],
      [
        87.150495,
        48.48049
      ],
      [
        87.149537,
        48.480529
      ],
      [
        87.149294,
        48.480562
      ],
      [
        87.14917,
        48.480616
      ],
      [
        87.14907,
        48.480685
      ],
      [
        87.148978,
        48.480832
      ],
      [
        87.148818,
        48.482307
      ],
      [
        87.148437,
        48.483402
      ],
      [
        87.148363,
        48.483764
      ],
      [
        87.148347,
        48.484061
      ],
      [
        87.148485,
        48.484832
      ],
      [
        87.148439,
        48.485476
      ],
      [
        87.148539,
        48.486375
      ],
      [
        87.148627,
        48.486638
      ],
      [
        87.148772,
        48.486823
      ],
      [
        87.149066,
        48.486973
      ],
      [
        87.15029,
        48.487307
      ],
      [
        87.150448,
        48.48737
      ],
      [
        87.150581,
        48.487446
      ],
      [
        87.150741,
        48.487569
      ],
      [
        87.15086,
        48.487731
      ],
      [
        87.150902,
        48.48786
      ],
      [
        87.150913,
        48.487932
      ],
      [
        87.150899,
        48.487995
      ],
      [
        87.150852,
        48.488028
      ],
      [
        87.150786,
        48.488068
      ],
      [
        87.150676,
        48.48808
      ],
      [
        87.150572,
        48.48805
      ],
      [
        87.150343,
        48.487875
      ],
      [
        87.150216,
        48.487794
      ],
      [
        87.150052,
        48.487737
      ],
      [
        87.149806,
        48.487698
      ],
      [
        87.149613,
        48.487689
      ],
      [
        87.148883,
        48.48773
      ],
      [
        87.148528,
        48.487717
      ],
      [
        87.148309,
        48.487665
      ],
      [
        87.148176,
        48.487605
      ],
      [
        87.148022,
        48.487509
      ],
      [
        87.147924,
        48.487421
      ],
      [
        87.147764,
        48.487191
      ],
      [
        87.14739,
        48.48621
      ],
      [
        87.146874,
        48.485383
      ],
      [
        87.146782,
        48.48531
      ],
      [
        87.14668,
        48.48528
      ],
      [
        87.146523,
        48.485272
      ],
      [
        87.146381,
        48.485304
      ],
      [
        87.146301,
        48.485355
      ],
      [
        87.146257,
        48.485422
      ],
      [
        87.14624,
        48.485505
      ],
      [
        87.14624,
        48.486638
      ],
      [
        87.145846,
        48.488255
      ],
      [
        87.145698,
        48.489013
      ],
      [
        87.144533,
        48.49097
      ],
      [
        87.144118,
        48.49154
      ],
      [
        87.143797,
        48.491886
      ],
      [
        87.143428,
        48.492283
      ],
      [
        87.143323,
        48.492392
      ],
      [
        87.142775,
        48.493101
      ],
      [
        87.142298,
        48.493875
      ],
      [
        87.142186,
        48.494195
      ],
      [
        87.142297,
        48.494403
      ],
      [
        87.142992,
        48.494999
      ],
      [
        87.143152,
        48.495202
      ],
      [
        87.143181,
        48.495345
      ],
      [
        87.143118,
        48.495462
      ],
      [
        87.14278,
        48.495907
      ],
      [
        87.142701,
        48.496086
      ],
      [
        87.142688,
        48.49626
      ],
      [
        87.142751,
        48.496448
      ],
      [
        87.143009,
        48.496906
      ],
      [
        87.143075,
        48.497082
      ],
      [
        87.143059,
        48.497223
      ],
      [
        87.142868,
        48.497711
      ],
      [
        87.142816,
        48.497965
      ],
      [
        87.142832,
        48.498212
      ],
      [
        87.143032,
        48.498944
      ],
      [
        87.143063,
        48.499148
      ],
      [
        87.143033,
        48.499368
      ],
      [
        87.142703,
        48.500339
      ],
      [
        87.142529,
        48.50059
      ],
      [
        87.142254,
        48.50077
      ],
      [
        87.141991,
        48.500885
      ],
      [
        87.14055,
        48.50118
      ],
      [
        87.139714,
        48.501397
      ],
      [
        87.137479,
        48.50193
      ],
      [
        87.137161,
        48.502019
      ],
      [
        87.136868,
        48.502153
      ],
      [
        87.13673,
        48.502259
      ],
      [
        87.13662,
        48.502344
      ],
      [
        87.135712,
        48.50315
      ],
      [
        87.135452,
        48.503443
      ],
      [
        87.135118,
        48.504158
      ],
      [
        87.134893,
        48.504397
      ],
      [
        87.134631,
        48.504534
      ],
      [
        87.13215,
        48.50519
      ],
      [
        87.131612,
        48.505309
      ],
      [
        87.128444,
        48.505776
      ],
      [
        87.127888,
        48.505933
      ],
      [
        87.127679,
        48.506019
      ]
    ],
    "type": "LineString"
  }
}
