{
  "type": "Feature",
  "properties": {
    "tripId": "xinjiang-self-drive-2026",
    "dayId": "day-10",
    "segmentId": "day-10-driving",
    "label": "喀什古城经加油点至机场",
    "mode": "driving",
    "routeQuality": "road-network",
    "routingProvider": "https://router.project-osrm.org",
    "routingProfile": "driving",
    "requestOptions": {
      "geometries": "geojson",
      "overview": "full",
      "steps": false,
      "alternatives": false
    },
    "inputCoordinates": [
      [
        75.987628,
        39.472055
      ],
      [
        76.012,
        39.52
      ],
      [
        76.019713,
        39.54002
      ]
    ],
    "snappedWaypoints": [
      [
        75.987743,
        39.472091
      ],
      [
        76.011275,
        39.51981
      ],
      [
        76.018033,
        39.536693
      ]
    ],
    "source": "OSRM",
    "sourceUrl": "https://project-osrm.org/",
    "mapData": "© OpenStreetMap contributors",
    "mapDataUrl": "https://www.openstreetmap.org/copyright",
    "generatedAt": "2026-09-06T06:54:28.556Z",
    "distanceMeters": 13292.6,
    "durationSeconds": 1120,
    "distanceKm": 13.3,
    "durationMinutes": 19
  },
  "geometry": {
    "coordinates": [
      [
        75.987743,
        39.472091
      ],
      [
        75.987679,
        39.472213
      ],
      [
        75.987463,
        39.472633
      ],
      [
        75.987218,
        39.473057
      ],
      [
        75.987132,
        39.473027
      ],
      [
        75.986678,
        39.472868
      ],
      [
        75.9866,
        39.47284
      ],
      [
        75.986473,
        39.472796
      ],
      [
        75.986451,
        39.473154
      ],
      [
        75.986344,
        39.475041
      ],
      [
        75.986331,
        39.475264
      ],
      [
        75.986334,
        39.475552
      ],
      [
        75.986335,
        39.475649
      ],
      [
        75.986336,
        39.475728
      ],
      [
        75.98636,
        39.475837
      ],
      [
        75.986397,
        39.475928
      ],
      [
        75.986503,
        39.476191
      ],
      [
        75.98763,
        39.478191
      ],
      [
        75.988107,
        39.479141
      ],
      [
        75.98814,
        39.479288
      ],
      [
        75.988181,
        39.479433
      ],
      [
        75.988276,
        39.479755
      ],
      [
        75.98839,
        39.480246
      ],
      [
        75.988436,
        39.480466
      ],
      [
        75.988749,
        39.481721
      ],
      [
        75.989096,
        39.482903
      ],
      [
        75.98936,
        39.483407
      ],
      [
        75.989397,
        39.483457
      ],
      [
        75.989815,
        39.484
      ],
      [
        75.990333,
        39.484473
      ],
      [
        75.993608,
        39.486595
      ],
      [
        75.99566,
        39.487924
      ],
      [
        75.997365,
        39.489062
      ],
      [
        75.997877,
        39.489405
      ],
      [
        75.998231,
        39.489644
      ],
      [
        75.998339,
        39.489737
      ],
      [
        75.998643,
        39.490041
      ],
      [
        75.998884,
        39.49033
      ],
      [
        75.999117,
        39.49078
      ],
      [
        75.99934,
        39.49122
      ],
      [
        75.999415,
        39.491628
      ],
      [
        75.999429,
        39.491702
      ],
      [
        75.999442,
        39.492259
      ],
      [
        75.999297,
        39.494498
      ],
      [
        75.99929,
        39.4946
      ],
      [
        75.998987,
        39.497932
      ],
      [
        75.998532,
        39.502787
      ],
      [
        75.998312,
        39.505373
      ],
      [
        75.998118,
        39.507651
      ],
      [
        75.997936,
        39.509787
      ],
      [
        75.99776,
        39.511848
      ],
      [
        75.997225,
        39.51806
      ],
      [
        75.997164,
        39.518441
      ],
      [
        75.997052,
        39.518875
      ],
      [
        75.996908,
        39.519227
      ],
      [
        75.996759,
        39.519585
      ],
      [
        75.997243,
        39.519629
      ],
      [
        75.997321,
        39.519637
      ],
      [
        75.998618,
        39.519769
      ],
      [
        76.001788,
        39.520132
      ],
      [
        76.007787,
        39.52078
      ],
      [
        76.010705,
        39.521105
      ],
      [
        76.011275,
        39.51981
      ],
      [
        76.013004,
        39.515879
      ],
      [
        76.012569,
        39.515839
      ],
      [
        76.010731,
        39.515601
      ],
      [
        76.009025,
        39.51868
      ],
      [
        76.008075,
        39.520396
      ],
      [
        76.007943,
        39.520621
      ],
      [
        76.007747,
        39.520967
      ],
      [
        76.007663,
        39.521115
      ],
      [
        76.006353,
        39.523448
      ],
      [
        76.006253,
        39.523588
      ],
      [
        76.006054,
        39.523643
      ],
      [
        76.005837,
        39.523664
      ],
      [
        76.00532,
        39.523567
      ],
      [
        76.004052,
        39.523259
      ],
      [
        76.00358,
        39.523203
      ],
      [
        76.001269,
        39.523325
      ],
      [
        76.000164,
        39.523389
      ],
      [
        75.994697,
        39.523694
      ],
      [
        75.993842,
        39.527332
      ],
      [
        75.993396,
        39.529233
      ],
      [
        75.992997,
        39.531169
      ],
      [
        75.992817,
        39.531983
      ],
      [
        75.99262,
        39.532875
      ],
      [
        75.992556,
        39.533168
      ],
      [
        75.992491,
        39.533462
      ],
      [
        75.993216,
        39.533501
      ],
      [
        75.998675,
        39.5338
      ],
      [
        76.001233,
        39.53394
      ],
      [
        76.004965,
        39.534149
      ],
      [
        76.009061,
        39.534378
      ],
      [
        76.009984,
        39.534429
      ],
      [
        76.011341,
        39.534499
      ],
      [
        76.012057,
        39.534584
      ],
      [
        76.013231,
        39.534645
      ],
      [
        76.014451,
        39.534708
      ],
      [
        76.01605,
        39.534791
      ],
      [
        76.015987,
        39.53547
      ],
      [
        76.015919,
        39.536201
      ],
      [
        76.016353,
        39.53623
      ],
      [
        76.016431,
        39.536299
      ],
      [
        76.01648,
        39.536422
      ],
      [
        76.016652,
        39.536588
      ],
      [
        76.017048,
        39.536653
      ],
      [
        76.018033,
        39.536693
      ],
      [
        76.018033,
        39.536693
      ]
    ],
    "type": "LineString"
  }
}
