{
  "type": "Feature",
  "properties": {
    "tripId": "xinjiang-self-drive-2026",
    "dayId": "day-4",
    "segmentId": "day-4-driving",
    "label": "贾登峪经布尔津至阿勒泰市",
    "mode": "driving",
    "routeQuality": "road-network",
    "routingProvider": "https://router.project-osrm.org",
    "routingProfile": "driving",
    "requestOptions": {
      "geometries": "geojson",
      "overview": "full",
      "steps": false,
      "alternatives": false
    },
    "inputCoordinates": [
      [
        87.128007,
        48.506368
      ],
      [
        86.872219,
        47.700617
      ],
      [
        88.12917,
        47.825756
      ]
    ],
    "snappedWaypoints": [
      [
        87.127679,
        48.506019
      ],
      [
        86.871976,
        47.700251
      ],
      [
        88.129422,
        47.825646
      ]
    ],
    "source": "OSRM",
    "sourceUrl": "https://project-osrm.org/",
    "mapData": "© OpenStreetMap contributors",
    "mapDataUrl": "https://www.openstreetmap.org/copyright",
    "generatedAt": "2026-09-05T14:58:44.745Z",
    "distanceMeters": 230038.4,
    "durationSeconds": 11332.4,
    "distanceKm": 230,
    "durationMinutes": 189
  },
  "geometry": {
    "coordinates": [
      [
        87.127679,
        48.506019
      ],
      [
        87.127888,
        48.505933
      ],
      [
        87.128444,
        48.505776
      ],
      [
        87.131612,
        48.505309
      ],
      [
        87.13215,
        48.50519
      ],
      [
        87.134631,
        48.504534
      ],
      [
        87.134893,
        48.504397
      ],
      [
        87.135118,
        48.504158
      ],
      [
        87.135452,
        48.503443
      ],
      [
        87.135712,
        48.50315
      ],
      [
        87.13662,
        48.502344
      ],
      [
        87.13673,
        48.502259
      ],
      [
        87.136868,
        48.502153
      ],
      [
        87.137161,
        48.502019
      ],
      [
        87.137479,
        48.50193
      ],
      [
        87.139714,
        48.501397
      ],
      [
        87.14055,
        48.50118
      ],
      [
        87.141991,
        48.500885
      ],
      [
        87.142254,
        48.50077
      ],
      [
        87.142529,
        48.50059
      ],
      [
        87.142703,
        48.500339
      ],
      [
        87.143033,
        48.499368
      ],
      [
        87.143063,
        48.499148
      ],
      [
        87.143032,
        48.498944
      ],
      [
        87.142832,
        48.498212
      ],
      [
        87.142816,
        48.497965
      ],
      [
        87.142868,
        48.497711
      ],
      [
        87.143059,
        48.497223
      ],
      [
        87.143075,
        48.497082
      ],
      [
        87.143009,
        48.496906
      ],
      [
        87.142751,
        48.496448
      ],
      [
        87.142688,
        48.49626
      ],
      [
        87.142701,
        48.496086
      ],
      [
        87.14278,
        48.495907
      ],
      [
        87.143118,
        48.495462
      ],
      [
        87.143181,
        48.495345
      ],
      [
        87.143152,
        48.495202
      ],
      [
        87.142992,
        48.494999
      ],
      [
        87.142297,
        48.494403
      ],
      [
        87.142186,
        48.494195
      ],
      [
        87.142298,
        48.493875
      ],
      [
        87.142775,
        48.493101
      ],
      [
        87.143323,
        48.492392
      ],
      [
        87.143428,
        48.492283
      ],
      [
        87.143797,
        48.491886
      ],
      [
        87.144118,
        48.49154
      ],
      [
        87.144533,
        48.49097
      ],
      [
        87.145698,
        48.489013
      ],
      [
        87.145846,
        48.488255
      ],
      [
        87.14624,
        48.486638
      ],
      [
        87.14624,
        48.485505
      ],
      [
        87.146257,
        48.485422
      ],
      [
        87.146301,
        48.485355
      ],
      [
        87.146381,
        48.485304
      ],
      [
        87.146523,
        48.485272
      ],
      [
        87.14668,
        48.48528
      ],
      [
        87.146782,
        48.48531
      ],
      [
        87.146874,
        48.485383
      ],
      [
        87.14739,
        48.48621
      ],
      [
        87.147764,
        48.487191
      ],
      [
        87.147924,
        48.487421
      ],
      [
        87.148022,
        48.487509
      ],
      [
        87.148176,
        48.487605
      ],
      [
        87.148309,
        48.487665
      ],
      [
        87.148528,
        48.487717
      ],
      [
        87.148883,
        48.48773
      ],
      [
        87.149613,
        48.487689
      ],
      [
        87.149806,
        48.487698
      ],
      [
        87.150052,
        48.487737
      ],
      [
        87.150216,
        48.487794
      ],
      [
        87.150343,
        48.487875
      ],
      [
        87.150572,
        48.48805
      ],
      [
        87.150676,
        48.48808
      ],
      [
        87.150786,
        48.488068
      ],
      [
        87.150852,
        48.488028
      ],
      [
        87.150899,
        48.487995
      ],
      [
        87.150913,
        48.487932
      ],
      [
        87.150902,
        48.48786
      ],
      [
        87.15086,
        48.487731
      ],
      [
        87.150741,
        48.487569
      ],
      [
        87.150581,
        48.487446
      ],
      [
        87.150448,
        48.48737
      ],
      [
        87.15029,
        48.487307
      ],
      [
        87.149066,
        48.486973
      ],
      [
        87.148772,
        48.486823
      ],
      [
        87.148627,
        48.486638
      ],
      [
        87.148539,
        48.486375
      ],
      [
        87.148439,
        48.485476
      ],
      [
        87.148485,
        48.484832
      ],
      [
        87.148347,
        48.484061
      ],
      [
        87.148363,
        48.483764
      ],
      [
        87.148437,
        48.483402
      ],
      [
        87.148818,
        48.482307
      ],
      [
        87.148978,
        48.480832
      ],
      [
        87.14907,
        48.480685
      ],
      [
        87.14917,
        48.480616
      ],
      [
        87.149294,
        48.480562
      ],
      [
        87.149537,
        48.480529
      ],
      [
        87.150495,
        48.48049
      ],
      [
        87.150898,
        48.480433
      ],
      [
        87.151028,
        48.480406
      ],
      [
        87.151139,
        48.480377
      ],
      [
        87.151215,
        48.480307
      ],
      [
        87.151229,
        48.480225
      ],
      [
        87.151195,
        48.480156
      ],
      [
        87.151098,
        48.480093
      ],
      [
        87.150583,
        48.479895
      ],
      [
        87.150026,
        48.479656
      ],
      [
        87.14974,
        48.479523
      ],
      [
        87.149607,
        48.479404
      ],
      [
        87.149523,
        48.479292
      ],
      [
        87.149481,
        48.479189
      ],
      [
        87.149476,
        48.479094
      ],
      [
        87.149487,
        48.478974
      ],
      [
        87.149528,
        48.478854
      ],
      [
        87.149628,
        48.47871
      ],
      [
        87.149765,
        48.478571
      ],
      [
        87.150987,
        48.477362
      ],
      [
        87.151251,
        48.477161
      ],
      [
        87.151588,
        48.476987
      ],
      [
        87.151865,
        48.47687
      ],
      [
        87.152027,
        48.476836
      ],
      [
        87.152404,
        48.476802
      ],
      [
        87.152563,
        48.476792
      ],
      [
        87.152627,
        48.476771
      ],
      [
        87.152669,
        48.476743
      ],
      [
        87.152698,
        48.476699
      ],
      [
        87.152707,
        48.476661
      ],
      [
        87.152685,
        48.476614
      ],
      [
        87.152655,
        48.476579
      ],
      [
        87.152565,
        48.476475
      ],
      [
        87.15252,
        48.476416
      ],
      [
        87.15251,
        48.476362
      ],
      [
        87.152532,
        48.476268
      ],
      [
        87.152817,
        48.475808
      ],
      [
        87.152821,
        48.475719
      ],
      [
        87.152793,
        48.475638
      ],
      [
        87.152713,
        48.475579
      ],
      [
        87.152608,
        48.475539
      ],
      [
        87.151969,
        48.475507
      ],
      [
        87.151795,
        48.475478
      ],
      [
        87.151661,
        48.47543
      ],
      [
        87.151539,
        48.475337
      ],
      [
        87.151262,
        48.474559
      ],
      [
        87.151165,
        48.47448
      ],
      [
        87.150965,
        48.474434
      ],
      [
        87.150806,
        48.474439
      ],
      [
        87.150691,
        48.474482
      ],
      [
        87.150016,
        48.474905
      ],
      [
        87.14986,
        48.474986
      ],
      [
        87.149711,
        48.475034
      ],
      [
        87.149504,
        48.475036
      ],
      [
        87.149298,
        48.474995
      ],
      [
        87.149134,
        48.474882
      ],
      [
        87.14897,
        48.474769
      ],
      [
        87.148354,
        48.474246
      ],
      [
        87.147779,
        48.473681
      ],
      [
        87.147348,
        48.47276
      ],
      [
        87.146734,
        48.471996
      ],
      [
        87.146644,
        48.471818
      ],
      [
        87.146603,
        48.471645
      ],
      [
        87.146611,
        48.471502
      ],
      [
        87.146629,
        48.471358
      ],
      [
        87.147123,
        48.4699
      ],
      [
        87.14715,
        48.469861
      ],
      [
        87.147196,
        48.469826
      ],
      [
        87.14727,
        48.4698
      ],
      [
        87.147375,
        48.469798
      ],
      [
        87.147457,
        48.469833
      ],
      [
        87.147494,
        48.469869
      ],
      [
        87.147502,
        48.46992
      ],
      [
        87.147496,
        48.469973
      ],
      [
        87.147238,
        48.470425
      ],
      [
        87.147137,
        48.470767
      ],
      [
        87.14712,
        48.471138
      ],
      [
        87.147162,
        48.471307
      ],
      [
        87.147221,
        48.471476
      ],
      [
        87.147315,
        48.471638
      ],
      [
        87.147425,
        48.471794
      ],
      [
        87.148856,
        48.473041
      ],
      [
        87.14893,
        48.47309
      ],
      [
        87.149015,
        48.473129
      ],
      [
        87.149089,
        48.473142
      ],
      [
        87.149168,
        48.473137
      ],
      [
        87.14923,
        48.47311
      ],
      [
        87.149264,
        48.47307
      ],
      [
        87.149273,
        48.473018
      ],
      [
        87.149267,
        48.47297
      ],
      [
        87.149225,
        48.472921
      ],
      [
        87.149118,
        48.472843
      ],
      [
        87.148895,
        48.472703
      ],
      [
        87.148182,
        48.472106
      ],
      [
        87.147988,
        48.471893
      ],
      [
        87.147823,
        48.471676
      ],
      [
        87.147751,
        48.471527
      ],
      [
        87.147703,
        48.471383
      ],
      [
        87.147709,
        48.471057
      ],
      [
        87.147736,
        48.470864
      ],
      [
        87.147866,
        48.470603
      ],
      [
        87.148207,
        48.470218
      ],
      [
        87.14884,
        48.469757
      ],
      [
        87.14986,
        48.469142
      ],
      [
        87.150448,
        48.468644
      ],
      [
        87.150757,
        48.46853
      ],
      [
        87.151525,
        48.468382
      ],
      [
        87.151677,
        48.46831
      ],
      [
        87.151772,
        48.468224
      ],
      [
        87.151806,
        48.468124
      ],
      [
        87.15177,
        48.467999
      ],
      [
        87.151595,
        48.467656
      ],
      [
        87.151555,
        48.467394
      ],
      [
        87.151564,
        48.46712
      ],
      [
        87.151629,
        48.46692
      ],
      [
        87.15174,
        48.466721
      ],
      [
        87.151903,
        48.466514
      ],
      [
        87.152213,
        48.466285
      ],
      [
        87.152673,
        48.466077
      ],
      [
        87.153369,
        48.465796
      ],
      [
        87.1536,
        48.465752
      ],
      [
        87.15384,
        48.465749
      ],
      [
        87.155436,
        48.465921
      ],
      [
        87.156921,
        48.465822
      ],
      [
        87.157044,
        48.465797
      ],
      [
        87.15712,
        48.465754
      ],
      [
        87.157181,
        48.46566
      ],
      [
        87.157153,
        48.465554
      ],
      [
        87.156638,
        48.465053
      ],
      [
        87.156607,
        48.464928
      ],
      [
        87.156678,
        48.464803
      ],
      [
        87.156812,
        48.464701
      ],
      [
        87.157766,
        48.464397
      ],
      [
        87.159315,
        48.463904
      ],
      [
        87.159767,
        48.463652
      ],
      [
        87.16061,
        48.463055
      ],
      [
        87.160899,
        48.462913
      ],
      [
        87.161202,
        48.46287
      ],
      [
        87.16164,
        48.46289
      ],
      [
        87.163843,
        48.463199
      ],
      [
        87.164246,
        48.4632
      ],
      [
        87.164536,
        48.463164
      ],
      [
        87.168921,
        48.462283
      ],
      [
        87.170049,
        48.462125
      ],
      [
        87.170369,
        48.462042
      ],
      [
        87.170612,
        48.461963
      ],
      [
        87.170868,
        48.461818
      ],
      [
        87.172169,
        48.460891
      ],
      [
        87.172855,
        48.460493
      ],
      [
        87.174895,
        48.459309
      ],
      [
        87.175192,
        48.459179
      ],
      [
        87.175935,
        48.45904
      ],
      [
        87.177029,
        48.458888
      ],
      [
        87.177516,
        48.458876
      ],
      [
        87.177962,
        48.458952
      ],
      [
        87.178349,
        48.459109
      ],
      [
        87.179498,
        48.459898
      ],
      [
        87.179748,
        48.460006
      ],
      [
        87.180119,
        48.460081
      ],
      [
        87.181648,
        48.460206
      ],
      [
        87.181861,
        48.460192
      ],
      [
        87.182079,
        48.46015
      ],
      [
        87.182194,
        48.46007
      ],
      [
        87.182257,
        48.459961
      ],
      [
        87.182258,
        48.459831
      ],
      [
        87.182224,
        48.459756
      ],
      [
        87.182095,
        48.459536
      ],
      [
        87.181213,
        48.458154
      ],
      [
        87.181148,
        48.458026
      ],
      [
        87.181094,
        48.457869
      ],
      [
        87.18109,
        48.457727
      ],
      [
        87.181144,
        48.457532
      ],
      [
        87.181637,
        48.456556
      ],
      [
        87.181724,
        48.456449
      ],
      [
        87.181838,
        48.456351
      ],
      [
        87.182451,
        48.455978
      ],
      [
        87.183096,
        48.455608
      ],
      [
        87.183267,
        48.455572
      ],
      [
        87.183454,
        48.455539
      ],
      [
        87.183622,
        48.455562
      ],
      [
        87.183819,
        48.455605
      ],
      [
        87.183942,
        48.455668
      ],
      [
        87.184056,
        48.455758
      ],
      [
        87.184144,
        48.455897
      ],
      [
        87.184142,
        48.456058
      ],
      [
        87.184003,
        48.4567
      ],
      [
        87.184001,
        48.456893
      ],
      [
        87.184011,
        48.456995
      ],
      [
        87.184027,
        48.457051
      ],
      [
        87.184059,
        48.457109
      ],
      [
        87.184126,
        48.457194
      ],
      [
        87.184219,
        48.457287
      ],
      [
        87.184332,
        48.457366
      ],
      [
        87.184472,
        48.457448
      ],
      [
        87.184577,
        48.457491
      ],
      [
        87.184675,
        48.457515
      ],
      [
        87.184771,
        48.457522
      ],
      [
        87.184819,
        48.457511
      ],
      [
        87.184867,
        48.457489
      ],
      [
        87.184906,
        48.457448
      ],
      [
        87.184926,
        48.457393
      ],
      [
        87.184918,
        48.457345
      ],
      [
        87.184888,
        48.457292
      ],
      [
        87.184842,
        48.457253
      ],
      [
        87.184506,
        48.457026
      ],
      [
        87.184389,
        48.456909
      ],
      [
        87.184342,
        48.456793
      ],
      [
        87.184322,
        48.456672
      ],
      [
        87.184338,
        48.456524
      ],
      [
        87.184367,
        48.456433
      ],
      [
        87.184427,
        48.456326
      ],
      [
        87.185329,
        48.455309
      ],
      [
        87.186,
        48.454294
      ],
      [
        87.186413,
        48.453835
      ],
      [
        87.186607,
        48.45368
      ],
      [
        87.187482,
        48.453057
      ],
      [
        87.18767,
        48.452885
      ],
      [
        87.187886,
        48.452649
      ],
      [
        87.188221,
        48.452376
      ],
      [
        87.188723,
        48.452027
      ],
      [
        87.18921,
        48.451701
      ],
      [
        87.18969,
        48.451374
      ],
      [
        87.189851,
        48.451244
      ],
      [
        87.190021,
        48.45109
      ],
      [
        87.190177,
        48.45091
      ],
      [
        87.190403,
        48.450606
      ],
      [
        87.190468,
        48.450561
      ],
      [
        87.190513,
        48.450539
      ],
      [
        87.190591,
        48.450526
      ],
      [
        87.190678,
        48.450537
      ],
      [
        87.190731,
        48.450572
      ],
      [
        87.19077,
        48.450617
      ],
      [
        87.190774,
        48.45067
      ],
      [
        87.190763,
        48.450737
      ],
      [
        87.190573,
        48.451069
      ],
      [
        87.190349,
        48.451342
      ],
      [
        87.190034,
        48.451663
      ],
      [
        87.189954,
        48.451749
      ],
      [
        87.189923,
        48.451804
      ],
      [
        87.189917,
        48.451848
      ],
      [
        87.189942,
        48.451892
      ],
      [
        87.189984,
        48.451919
      ],
      [
        87.190039,
        48.451933
      ],
      [
        87.190105,
        48.45193
      ],
      [
        87.19018,
        48.451909
      ],
      [
        87.19026,
        48.451856
      ],
      [
        87.190389,
        48.451747
      ],
      [
        87.192161,
        48.449778
      ],
      [
        87.193237,
        48.44899
      ],
      [
        87.193747,
        48.448509
      ],
      [
        87.194942,
        48.447476
      ],
      [
        87.195062,
        48.44735
      ],
      [
        87.195218,
        48.447122
      ],
      [
        87.19533,
        48.44689
      ],
      [
        87.195619,
        48.446442
      ],
      [
        87.195838,
        48.446209
      ],
      [
        87.196343,
        48.445812
      ],
      [
        87.197012,
        48.445329
      ],
      [
        87.198285,
        48.444407
      ],
      [
        87.198714,
        48.444108
      ],
      [
        87.19916,
        48.443762
      ],
      [
        87.199322,
        48.443582
      ],
      [
        87.199504,
        48.44334
      ],
      [
        87.199602,
        48.443202
      ],
      [
        87.199801,
        48.442783
      ],
      [
        87.199845,
        48.442717
      ],
      [
        87.199903,
        48.442693
      ],
      [
        87.199971,
        48.44268
      ],
      [
        87.200049,
        48.442685
      ],
      [
        87.200128,
        48.442712
      ],
      [
        87.200179,
        48.442749
      ],
      [
        87.200192,
        48.442826
      ],
      [
        87.200092,
        48.443103
      ],
      [
        87.199955,
        48.443377
      ],
      [
        87.199743,
        48.443668
      ],
      [
        87.199618,
        48.443876
      ],
      [
        87.199603,
        48.443912
      ],
      [
        87.199604,
        48.443947
      ],
      [
        87.199616,
        48.443981
      ],
      [
        87.199641,
        48.444013
      ],
      [
        87.199693,
        48.444041
      ],
      [
        87.199741,
        48.444053
      ],
      [
        87.199804,
        48.444059
      ],
      [
        87.199877,
        48.44405
      ],
      [
        87.199928,
        48.444033
      ],
      [
        87.199966,
        48.444011
      ],
      [
        87.199998,
        48.443986
      ],
      [
        87.200066,
        48.443911
      ],
      [
        87.201194,
        48.442615
      ],
      [
        87.201535,
        48.442123
      ],
      [
        87.20171,
        48.441972
      ],
      [
        87.201902,
        48.441847
      ],
      [
        87.202545,
        48.441589
      ],
      [
        87.202741,
        48.441444
      ],
      [
        87.202867,
        48.441326
      ],
      [
        87.203663,
        48.439969
      ],
      [
        87.203942,
        48.439725
      ],
      [
        87.204705,
        48.439243
      ],
      [
        87.204908,
        48.439049
      ],
      [
        87.205053,
        48.43883
      ],
      [
        87.205092,
        48.438704
      ],
      [
        87.205109,
        48.438589
      ],
      [
        87.205099,
        48.438465
      ],
      [
        87.205065,
        48.438333
      ],
      [
        87.204855,
        48.437902
      ],
      [
        87.204862,
        48.437843
      ],
      [
        87.204891,
        48.437794
      ],
      [
        87.204961,
        48.437746
      ],
      [
        87.205035,
        48.437726
      ],
      [
        87.205135,
        48.437729
      ],
      [
        87.205193,
        48.437749
      ],
      [
        87.205243,
        48.437779
      ],
      [
        87.205809,
        48.438465
      ],
      [
        87.205868,
        48.438527
      ],
      [
        87.205931,
        48.43857
      ],
      [
        87.205991,
        48.438588
      ],
      [
        87.206062,
        48.438596
      ],
      [
        87.206147,
        48.438581
      ],
      [
        87.206201,
        48.438554
      ],
      [
        87.206248,
        48.43852
      ],
      [
        87.206275,
        48.438477
      ],
      [
        87.206288,
        48.438432
      ],
      [
        87.206281,
        48.438377
      ],
      [
        87.206241,
        48.438313
      ],
      [
        87.205761,
        48.437861
      ],
      [
        87.205652,
        48.437689
      ],
      [
        87.205628,
        48.437527
      ],
      [
        87.205825,
        48.436489
      ],
      [
        87.205894,
        48.435072
      ],
      [
        87.206049,
        48.434468
      ],
      [
        87.20613,
        48.434163
      ],
      [
        87.206144,
        48.433945
      ],
      [
        87.206046,
        48.432918
      ],
      [
        87.206095,
        48.432441
      ],
      [
        87.206376,
        48.431279
      ],
      [
        87.20653,
        48.43108
      ],
      [
        87.206945,
        48.430765
      ],
      [
        87.207055,
        48.430586
      ],
      [
        87.207117,
        48.429721
      ],
      [
        87.20721,
        48.429636
      ],
      [
        87.207332,
        48.429579
      ],
      [
        87.208415,
        48.429716
      ],
      [
        87.208643,
        48.429668
      ],
      [
        87.209582,
        48.42918
      ],
      [
        87.209693,
        48.429034
      ],
      [
        87.209532,
        48.428164
      ],
      [
        87.209542,
        48.427929
      ],
      [
        87.20963,
        48.427735
      ],
      [
        87.210123,
        48.427228
      ],
      [
        87.210408,
        48.426631
      ],
      [
        87.21075,
        48.426297
      ],
      [
        87.211034,
        48.425749
      ],
      [
        87.211055,
        48.42567
      ],
      [
        87.211112,
        48.425456
      ],
      [
        87.211553,
        48.425048
      ],
      [
        87.211613,
        48.424905
      ],
      [
        87.211623,
        48.424745
      ],
      [
        87.211491,
        48.423979
      ],
      [
        87.211437,
        48.423547
      ],
      [
        87.211359,
        48.423287
      ],
      [
        87.211257,
        48.42308
      ],
      [
        87.210712,
        48.422317
      ],
      [
        87.210163,
        48.421593
      ],
      [
        87.209899,
        48.421361
      ],
      [
        87.209119,
        48.420935
      ],
      [
        87.209048,
        48.42085
      ],
      [
        87.209037,
        48.420771
      ],
      [
        87.209093,
        48.420637
      ],
      [
        87.209266,
        48.420557
      ],
      [
        87.210349,
        48.420549
      ],
      [
        87.210555,
        48.420503
      ],
      [
        87.210684,
        48.420383
      ],
      [
        87.210732,
        48.420224
      ],
      [
        87.210588,
        48.417703
      ],
      [
        87.210848,
        48.416227
      ],
      [
        87.210844,
        48.415942
      ],
      [
        87.210757,
        48.415555
      ],
      [
        87.210547,
        48.415189
      ],
      [
        87.209967,
        48.414547
      ],
      [
        87.209858,
        48.414321
      ],
      [
        87.209843,
        48.414139
      ],
      [
        87.210202,
        48.41325
      ],
      [
        87.210162,
        48.413158
      ],
      [
        87.209752,
        48.412812
      ],
      [
        87.206902,
        48.410908
      ],
      [
        87.206802,
        48.4108
      ],
      [
        87.206779,
        48.410632
      ],
      [
        87.206993,
        48.410323
      ],
      [
        87.207055,
        48.410062
      ],
      [
        87.206802,
        48.409555
      ],
      [
        87.206099,
        48.40915
      ],
      [
        87.205771,
        48.40869
      ],
      [
        87.204999,
        48.408166
      ],
      [
        87.204581,
        48.407574
      ],
      [
        87.204125,
        48.407121
      ],
      [
        87.203929,
        48.406665
      ],
      [
        87.203792,
        48.406507
      ],
      [
        87.203512,
        48.406311
      ],
      [
        87.202617,
        48.405984
      ],
      [
        87.202215,
        48.405627
      ],
      [
        87.201336,
        48.403332
      ],
      [
        87.20062,
        48.402132
      ],
      [
        87.200616,
        48.401785
      ],
      [
        87.200832,
        48.40133
      ],
      [
        87.200854,
        48.401166
      ],
      [
        87.200782,
        48.401027
      ],
      [
        87.200565,
        48.400839
      ],
      [
        87.200065,
        48.400585
      ],
      [
        87.198776,
        48.400134
      ],
      [
        87.195383,
        48.399451
      ],
      [
        87.19494,
        48.399294
      ],
      [
        87.191737,
        48.397865
      ],
      [
        87.191471,
        48.397701
      ],
      [
        87.190828,
        48.397033
      ],
      [
        87.190601,
        48.396921
      ],
      [
        87.189663,
        48.396691
      ],
      [
        87.189186,
        48.396214
      ],
      [
        87.188947,
        48.396099
      ],
      [
        87.187524,
        48.395882
      ],
      [
        87.187151,
        48.395876
      ],
      [
        87.186328,
        48.396002
      ],
      [
        87.185978,
        48.396048
      ],
      [
        87.185607,
        48.396039
      ],
      [
        87.185256,
        48.395931
      ],
      [
        87.184677,
        48.395562
      ],
      [
        87.183916,
        48.395208
      ],
      [
        87.182685,
        48.394867
      ],
      [
        87.182046,
        48.394614
      ],
      [
        87.180756,
        48.393973
      ],
      [
        87.179359,
        48.393544
      ],
      [
        87.17813,
        48.393485
      ],
      [
        87.177288,
        48.393126
      ],
      [
        87.176403,
        48.392615
      ],
      [
        87.172662,
        48.389936
      ],
      [
        87.169974,
        48.387606
      ],
      [
        87.169418,
        48.386947
      ],
      [
        87.168794,
        48.385942
      ],
      [
        87.168395,
        48.385641
      ],
      [
        87.167503,
        48.385223
      ],
      [
        87.167277,
        48.384987
      ],
      [
        87.166845,
        48.384309
      ],
      [
        87.166559,
        48.383976
      ],
      [
        87.166106,
        48.383598
      ],
      [
        87.165697,
        48.38338
      ],
      [
        87.164115,
        48.382906
      ],
      [
        87.163911,
        48.382757
      ],
      [
        87.163739,
        48.382447
      ],
      [
        87.163664,
        48.381684
      ],
      [
        87.163407,
        48.38125
      ],
      [
        87.162269,
        48.380288
      ],
      [
        87.161502,
        48.379914
      ],
      [
        87.161207,
        48.379718
      ],
      [
        87.160193,
        48.378681
      ],
      [
        87.158981,
        48.37686
      ],
      [
        87.157318,
        48.375584
      ],
      [
        87.157066,
        48.375339
      ],
      [
        87.156862,
        48.37484
      ],
      [
        87.156045,
        48.37337
      ],
      [
        87.155781,
        48.373044
      ],
      [
        87.154577,
        48.371891
      ],
      [
        87.153876,
        48.37015
      ],
      [
        87.153741,
        48.369961
      ],
      [
        87.153536,
        48.369869
      ],
      [
        87.152929,
        48.36984
      ],
      [
        87.152722,
        48.369772
      ],
      [
        87.152641,
        48.369627
      ],
      [
        87.15267,
        48.369218
      ],
      [
        87.152227,
        48.368418
      ],
      [
        87.152171,
        48.368139
      ],
      [
        87.152304,
        48.367146
      ],
      [
        87.15226,
        48.366836
      ],
      [
        87.151621,
        48.365433
      ],
      [
        87.151775,
        48.364435
      ],
      [
        87.151247,
        48.363527
      ],
      [
        87.150995,
        48.363388
      ],
      [
        87.150562,
        48.363396
      ],
      [
        87.150393,
        48.363347
      ],
      [
        87.150328,
        48.363243
      ],
      [
        87.150248,
        48.362673
      ],
      [
        87.149488,
        48.361137
      ],
      [
        87.149164,
        48.360716
      ],
      [
        87.148279,
        48.360117
      ],
      [
        87.147426,
        48.359872
      ],
      [
        87.146063,
        48.35905
      ],
      [
        87.144656,
        48.357843
      ],
      [
        87.14307,
        48.356884
      ],
      [
        87.142266,
        48.356246
      ],
      [
        87.141611,
        48.35584
      ],
      [
        87.141343,
        48.355519
      ],
      [
        87.140908,
        48.354525
      ],
      [
        87.140619,
        48.354318
      ],
      [
        87.139583,
        48.353833
      ],
      [
        87.138465,
        48.353625
      ],
      [
        87.138038,
        48.353469
      ],
      [
        87.136166,
        48.352266
      ],
      [
        87.133492,
        48.351774
      ],
      [
        87.132966,
        48.351552
      ],
      [
        87.13159,
        48.350773
      ],
      [
        87.131325,
        48.350509
      ],
      [
        87.131287,
        48.350297
      ],
      [
        87.131609,
        48.349637
      ],
      [
        87.131526,
        48.349259
      ],
      [
        87.131032,
        48.348587
      ],
      [
        87.130625,
        48.348355
      ],
      [
        87.129327,
        48.34811
      ],
      [
        87.129048,
        48.347975
      ],
      [
        87.12894,
        48.347811
      ],
      [
        87.128919,
        48.34764
      ],
      [
        87.12893,
        48.346727
      ],
      [
        87.128747,
        48.346442
      ],
      [
        87.126848,
        48.345365
      ],
      [
        87.126559,
        48.345058
      ],
      [
        87.126462,
        48.344495
      ],
      [
        87.126998,
        48.342113
      ],
      [
        87.12688,
        48.341015
      ],
      [
        87.126677,
        48.340737
      ],
      [
        87.125346,
        48.339617
      ],
      [
        87.125175,
        48.339182
      ],
      [
        87.124359,
        48.338227
      ],
      [
        87.123726,
        48.336693
      ],
      [
        87.123308,
        48.335959
      ],
      [
        87.122213,
        48.335196
      ],
      [
        87.121999,
        48.334732
      ],
      [
        87.121977,
        48.334482
      ],
      [
        87.122256,
        48.334154
      ],
      [
        87.123404,
        48.333241
      ],
      [
        87.123705,
        48.332714
      ],
      [
        87.123566,
        48.33225
      ],
      [
        87.122008,
        48.330215
      ],
      [
        87.121905,
        48.329956
      ],
      [
        87.121902,
        48.329723
      ],
      [
        87.122052,
        48.328852
      ],
      [
        87.122018,
        48.328652
      ],
      [
        87.12189,
        48.328464
      ],
      [
        87.118539,
        48.325609
      ],
      [
        87.118335,
        48.325352
      ],
      [
        87.117948,
        48.32442
      ],
      [
        87.117607,
        48.323859
      ],
      [
        87.115259,
        48.32064
      ],
      [
        87.114792,
        48.320159
      ],
      [
        87.114551,
        48.319971
      ],
      [
        87.114297,
        48.319857
      ],
      [
        87.114004,
        48.319807
      ],
      [
        87.113666,
        48.319823
      ],
      [
        87.111344,
        48.320217
      ],
      [
        87.111091,
        48.320214
      ],
      [
        87.110949,
        48.320167
      ],
      [
        87.110814,
        48.320073
      ],
      [
        87.10981,
        48.318383
      ],
      [
        87.109726,
        48.317976
      ],
      [
        87.109797,
        48.317736
      ],
      [
        87.109971,
        48.317496
      ],
      [
        87.110728,
        48.316971
      ],
      [
        87.110997,
        48.31652
      ],
      [
        87.111283,
        48.315474
      ],
      [
        87.111323,
        48.314899
      ],
      [
        87.111169,
        48.313559
      ],
      [
        87.111211,
        48.313304
      ],
      [
        87.111294,
        48.313084
      ],
      [
        87.112564,
        48.311397
      ],
      [
        87.112667,
        48.311147
      ],
      [
        87.112651,
        48.31086
      ],
      [
        87.112471,
        48.310615
      ],
      [
        87.111756,
        48.310138
      ],
      [
        87.110233,
        48.309151
      ],
      [
        87.110082,
        48.309006
      ],
      [
        87.109992,
        48.308829
      ],
      [
        87.10996,
        48.308633
      ],
      [
        87.109891,
        48.307874
      ],
      [
        87.10978,
        48.30765
      ],
      [
        87.109617,
        48.307467
      ],
      [
        87.107167,
        48.305275
      ],
      [
        87.10568,
        48.303949
      ],
      [
        87.104389,
        48.302829
      ],
      [
        87.104155,
        48.302716
      ],
      [
        87.103853,
        48.30263
      ],
      [
        87.10151,
        48.30224
      ],
      [
        87.098536,
        48.301739
      ],
      [
        87.098331,
        48.301642
      ],
      [
        87.098242,
        48.301512
      ],
      [
        87.098251,
        48.301359
      ],
      [
        87.098376,
        48.301198
      ],
      [
        87.099582,
        48.300002
      ],
      [
        87.099734,
        48.299758
      ],
      [
        87.099797,
        48.299555
      ],
      [
        87.099865,
        48.298749
      ],
      [
        87.099867,
        48.298401
      ],
      [
        87.099758,
        48.298165
      ],
      [
        87.09948,
        48.297994
      ],
      [
        87.098849,
        48.297611
      ],
      [
        87.098567,
        48.297371
      ],
      [
        87.098391,
        48.29709
      ],
      [
        87.094702,
        48.290915
      ],
      [
        87.094415,
        48.290338
      ],
      [
        87.094225,
        48.289719
      ],
      [
        87.093924,
        48.287458
      ],
      [
        87.093778,
        48.286803
      ],
      [
        87.093504,
        48.286271
      ],
      [
        87.092761,
        48.285336
      ],
      [
        87.091497,
        48.283725
      ],
      [
        87.090276,
        48.282324
      ],
      [
        87.089583,
        48.281767
      ],
      [
        87.086393,
        48.27982
      ],
      [
        87.082894,
        48.278175
      ],
      [
        87.08044,
        48.276931
      ],
      [
        87.07815,
        48.275365
      ],
      [
        87.075535,
        48.273721
      ],
      [
        87.075035,
        48.273496
      ],
      [
        87.072503,
        48.272626
      ],
      [
        87.072097,
        48.272427
      ],
      [
        87.070759,
        48.271541
      ],
      [
        87.069964,
        48.271106
      ],
      [
        87.068834,
        48.2707
      ],
      [
        87.06842,
        48.270521
      ],
      [
        87.06785,
        48.270168
      ],
      [
        87.067344,
        48.26974
      ],
      [
        87.066705,
        48.269023
      ],
      [
        87.066433,
        48.268811
      ],
      [
        87.066024,
        48.268733
      ],
      [
        87.065303,
        48.268699
      ],
      [
        87.06507,
        48.26872
      ],
      [
        87.064963,
        48.268799
      ],
      [
        87.064919,
        48.268892
      ],
      [
        87.064943,
        48.268988
      ],
      [
        87.065035,
        48.26906
      ],
      [
        87.065173,
        48.269108
      ],
      [
        87.065565,
        48.269143
      ],
      [
        87.065721,
        48.269208
      ],
      [
        87.065825,
        48.269329
      ],
      [
        87.065872,
        48.269672
      ],
      [
        87.065771,
        48.269855
      ],
      [
        87.065586,
        48.269964
      ],
      [
        87.065377,
        48.270008
      ],
      [
        87.065084,
        48.269972
      ],
      [
        87.064304,
        48.269705
      ],
      [
        87.063729,
        48.269546
      ],
      [
        87.062881,
        48.269443
      ],
      [
        87.06063,
        48.269377
      ],
      [
        87.058418,
        48.269337
      ],
      [
        87.057106,
        48.269225
      ],
      [
        87.056082,
        48.269109
      ],
      [
        87.055003,
        48.2689
      ],
      [
        87.054112,
        48.268683
      ],
      [
        87.052995,
        48.26833
      ],
      [
        87.043903,
        48.265164
      ],
      [
        87.043455,
        48.26499
      ],
      [
        87.039684,
        48.263193
      ],
      [
        87.038582,
        48.262774
      ],
      [
        87.037814,
        48.262586
      ],
      [
        87.033231,
        48.261717
      ],
      [
        87.030587,
        48.261159
      ],
      [
        87.027801,
        48.260416
      ],
      [
        87.027585,
        48.260347
      ],
      [
        87.026455,
        48.259984
      ],
      [
        87.025387,
        48.259558
      ],
      [
        87.024667,
        48.259109
      ],
      [
        87.023835,
        48.258518
      ],
      [
        87.02158,
        48.257159
      ],
      [
        87.018779,
        48.255233
      ],
      [
        87.017728,
        48.25445
      ],
      [
        87.01699,
        48.253691
      ],
      [
        87.016626,
        48.253105
      ],
      [
        87.016257,
        48.252431
      ],
      [
        87.016061,
        48.25189
      ],
      [
        87.015908,
        48.251069
      ],
      [
        87.015876,
        48.250276
      ],
      [
        87.016075,
        48.249319
      ],
      [
        87.016407,
        48.248347
      ],
      [
        87.016715,
        48.247367
      ],
      [
        87.017105,
        48.246361
      ],
      [
        87.017939,
        48.244098
      ],
      [
        87.019258,
        48.240567
      ],
      [
        87.020229,
        48.237901
      ],
      [
        87.020429,
        48.23738
      ],
      [
        87.020785,
        48.236453
      ],
      [
        87.021144,
        48.235368
      ],
      [
        87.021616,
        48.234092
      ],
      [
        87.022458,
        48.231838
      ],
      [
        87.024293,
        48.226846
      ],
      [
        87.025774,
        48.223486
      ],
      [
        87.026954,
        48.221449
      ],
      [
        87.027748,
        48.219934
      ],
      [
        87.028027,
        48.21884
      ],
      [
        87.028048,
        48.217818
      ],
      [
        87.027726,
        48.216803
      ],
      [
        87.027276,
        48.215995
      ],
      [
        87.025216,
        48.213428
      ],
      [
        87.024679,
        48.212484
      ],
      [
        87.024314,
        48.211669
      ],
      [
        87.024068,
        48.210518
      ],
      [
        87.0241,
        48.209525
      ],
      [
        87.024422,
        48.207887
      ],
      [
        87.025505,
        48.203261
      ],
      [
        87.025559,
        48.202539
      ],
      [
        87.025301,
        48.201581
      ],
      [
        87.025001,
        48.200694
      ],
      [
        87.024454,
        48.199993
      ],
      [
        87.023563,
        48.19907
      ],
      [
        87.023188,
        48.198548
      ],
      [
        87.020967,
        48.195502
      ],
      [
        87.020173,
        48.194479
      ],
      [
        87.019615,
        48.193979
      ],
      [
        87.018929,
        48.193399
      ],
      [
        87.014326,
        48.190703
      ],
      [
        87.013941,
        48.190516
      ],
      [
        87.013228,
        48.190211
      ],
      [
        87.010836,
        48.188976
      ],
      [
        87.009594,
        48.188357
      ],
      [
        87.008981,
        48.188021
      ],
      [
        87.008442,
        48.187545
      ],
      [
        87.008061,
        48.18695
      ],
      [
        87.007844,
        48.186374
      ],
      [
        87.007556,
        48.184918
      ],
      [
        87.007508,
        48.184179
      ],
      [
        87.007497,
        48.183146
      ],
      [
        87.00747,
        48.182194
      ],
      [
        87.007442,
        48.18143
      ],
      [
        87.007481,
        48.180299
      ],
      [
        87.007674,
        48.179261
      ],
      [
        87.008409,
        48.177644
      ],
      [
        87.008999,
        48.176629
      ],
      [
        87.0096,
        48.175952
      ],
      [
        87.010801,
        48.175072
      ],
      [
        87.012008,
        48.174396
      ],
      [
        87.013516,
        48.173777
      ],
      [
        87.014321,
        48.173359
      ],
      [
        87.015157,
        48.17284
      ],
      [
        87.015554,
        48.172497
      ],
      [
        87.016552,
        48.171366
      ],
      [
        87.017394,
        48.170332
      ],
      [
        87.017638,
        48.170048
      ],
      [
        87.018279,
        48.169449
      ],
      [
        87.019057,
        48.16884
      ],
      [
        87.020077,
        48.168136
      ],
      [
        87.020849,
        48.167638
      ],
      [
        87.021809,
        48.166994
      ],
      [
        87.022587,
        48.166354
      ],
      [
        87.023166,
        48.16576
      ],
      [
        87.02366,
        48.165227
      ],
      [
        87.024475,
        48.164511
      ],
      [
        87.025725,
        48.16362
      ],
      [
        87.026739,
        48.163091
      ],
      [
        87.027565,
        48.162826
      ],
      [
        87.028958,
        48.162508
      ],
      [
        87.029507,
        48.162382
      ],
      [
        87.030897,
        48.161928
      ],
      [
        87.032484,
        48.161266
      ],
      [
        87.033584,
        48.160657
      ],
      [
        87.034518,
        48.159892
      ],
      [
        87.035167,
        48.159165
      ],
      [
        87.036004,
        48.157691
      ],
      [
        87.036653,
        48.156557
      ],
      [
        87.036974,
        48.155869
      ],
      [
        87.037098,
        48.15554
      ],
      [
        87.037371,
        48.154599
      ],
      [
        87.037607,
        48.153908
      ],
      [
        87.038037,
        48.1532
      ],
      [
        87.038605,
        48.152384
      ],
      [
        87.039077,
        48.1514
      ],
      [
        87.039667,
        48.150533
      ],
      [
        87.040231,
        48.149961
      ],
      [
        87.040946,
        48.149398
      ],
      [
        87.041314,
        48.149109
      ],
      [
        87.042344,
        48.148243
      ],
      [
        87.042806,
        48.147574
      ],
      [
        87.043331,
        48.146317
      ],
      [
        87.043476,
        48.145362
      ],
      [
        87.043401,
        48.144728
      ],
      [
        87.043117,
        48.144055
      ],
      [
        87.042806,
        48.143525
      ],
      [
        87.042114,
        48.142788
      ],
      [
        87.040735,
        48.141653
      ],
      [
        87.040139,
        48.141202
      ],
      [
        87.0389,
        48.140533
      ],
      [
        87.038412,
        48.140318
      ],
      [
        87.037559,
        48.140057
      ],
      [
        87.036814,
        48.139738
      ],
      [
        87.035977,
        48.13923
      ],
      [
        87.034893,
        48.138521
      ],
      [
        87.034453,
        48.13807
      ],
      [
        87.033852,
        48.137125
      ],
      [
        87.033402,
        48.136165
      ],
      [
        87.033273,
        48.135521
      ],
      [
        87.033241,
        48.134934
      ],
      [
        87.033402,
        48.134096
      ],
      [
        87.033638,
        48.133251
      ],
      [
        87.033927,
        48.131318
      ],
      [
        87.034464,
        48.129212
      ],
      [
        87.034904,
        48.127222
      ],
      [
        87.035269,
        48.125682
      ],
      [
        87.035269,
        48.124708
      ],
      [
        87.034839,
        48.123333
      ],
      [
        87.034464,
        48.122445
      ],
      [
        87.033938,
        48.121951
      ],
      [
        87.032608,
        48.12064
      ],
      [
        87.032018,
        48.120203
      ],
      [
        87.030902,
        48.119781
      ],
      [
        87.026321,
        48.118033
      ],
      [
        87.025462,
        48.117682
      ],
      [
        87.024143,
        48.117066
      ],
      [
        87.021718,
        48.115626
      ],
      [
        87.019723,
        48.113793
      ],
      [
        87.018532,
        48.112747
      ],
      [
        87.01792,
        48.112138
      ],
      [
        87.017362,
        48.111472
      ],
      [
        87.016665,
        48.11087
      ],
      [
        87.015603,
        48.110146
      ],
      [
        87.01453,
        48.109537
      ],
      [
        87.011933,
        48.108477
      ],
      [
        87.007116,
        48.106285
      ],
      [
        87.000829,
        48.10357
      ],
      [
        86.996731,
        48.101836
      ],
      [
        86.992525,
        48.099994
      ],
      [
        86.99054,
        48.099041
      ],
      [
        86.988909,
        48.098131
      ],
      [
        86.987793,
        48.097401
      ],
      [
        86.986742,
        48.096569
      ],
      [
        86.985594,
        48.095366
      ],
      [
        86.984639,
        48.094112
      ],
      [
        86.984049,
        48.093116
      ],
      [
        86.98348,
        48.091761
      ],
      [
        86.983062,
        48.090163
      ],
      [
        86.982869,
        48.088687
      ],
      [
        86.982901,
        48.087461
      ],
      [
        86.983019,
        48.08544
      ],
      [
        86.983395,
        48.081598
      ],
      [
        86.983556,
        48.079799
      ],
      [
        86.983609,
        48.078194
      ],
      [
        86.983813,
        48.076036
      ],
      [
        86.984006,
        48.073699
      ],
      [
        86.984274,
        48.072498
      ],
      [
        86.984559,
        48.071649
      ],
      [
        86.984891,
        48.070885
      ],
      [
        86.98612,
        48.068218
      ],
      [
        86.986828,
        48.066731
      ],
      [
        86.987128,
        48.065677
      ],
      [
        86.987289,
        48.064558
      ],
      [
        86.987257,
        48.063526
      ],
      [
        86.986892,
        48.0625
      ],
      [
        86.986388,
        48.061446
      ],
      [
        86.985841,
        48.060571
      ],
      [
        86.98435,
        48.059001
      ],
      [
        86.983169,
        48.057631
      ],
      [
        86.982601,
        48.056792
      ],
      [
        86.982397,
        48.056387
      ],
      [
        86.982295,
        48.056208
      ],
      [
        86.981801,
        48.054942
      ],
      [
        86.981576,
        48.054003
      ],
      [
        86.98149,
        48.052812
      ],
      [
        86.981453,
        48.050582
      ],
      [
        86.981474,
        48.048151
      ],
      [
        86.981474,
        48.044765
      ],
      [
        86.981324,
        48.043237
      ],
      [
        86.981067,
        48.042355
      ],
      [
        86.980519,
        48.041494
      ],
      [
        86.979822,
        48.040741
      ],
      [
        86.978738,
        48.039801
      ],
      [
        86.977665,
        48.039098
      ],
      [
        86.976078,
        48.038302
      ],
      [
        86.974962,
        48.037972
      ],
      [
        86.973621,
        48.037771
      ],
      [
        86.968761,
        48.03742
      ],
      [
        86.964823,
        48.037126
      ],
      [
        86.962709,
        48.037083
      ],
      [
        86.961089,
        48.037226
      ],
      [
        86.959158,
        48.037592
      ],
      [
        86.957431,
        48.038144
      ],
      [
        86.955779,
        48.038833
      ],
      [
        86.954277,
        48.039357
      ],
      [
        86.952335,
        48.03978
      ],
      [
        86.950725,
        48.040017
      ],
      [
        86.946209,
        48.040476
      ],
      [
        86.943703,
        48.040716
      ],
      [
        86.943374,
        48.040764
      ],
      [
        86.941799,
        48.040949
      ],
      [
        86.940066,
        48.041322
      ],
      [
        86.938366,
        48.04186
      ],
      [
        86.930705,
        48.045009
      ],
      [
        86.927615,
        48.046279
      ],
      [
        86.925352,
        48.046867
      ],
      [
        86.922187,
        48.047268
      ],
      [
        86.919558,
        48.047254
      ],
      [
        86.917155,
        48.04696
      ],
      [
        86.914398,
        48.046257
      ],
      [
        86.913056,
        48.045726
      ],
      [
        86.910943,
        48.04465
      ],
      [
        86.909044,
        48.043237
      ],
      [
        86.906254,
        48.040375
      ],
      [
        86.904066,
        48.038438
      ],
      [
        86.902156,
        48.037176
      ],
      [
        86.899216,
        48.035884
      ],
      [
        86.895826,
        48.034938
      ],
      [
        86.894195,
        48.034679
      ],
      [
        86.892157,
        48.03445
      ],
      [
        86.870205,
        48.034407
      ],
      [
        86.86674,
        48.034091
      ],
      [
        86.863757,
        48.03356
      ],
      [
        86.860721,
        48.032807
      ],
      [
        86.858125,
        48.03196
      ],
      [
        86.856279,
        48.031085
      ],
      [
        86.854456,
        48.030066
      ],
      [
        86.852599,
        48.028968
      ],
      [
        86.850786,
        48.027526
      ],
      [
        86.845626,
        48.022762
      ],
      [
        86.840261,
        48.017745
      ],
      [
        86.834886,
        48.012801
      ],
      [
        86.830391,
        48.008573
      ],
      [
        86.829093,
        48.007137
      ],
      [
        86.827612,
        48.004919
      ],
      [
        86.826947,
        48.003613
      ],
      [
        86.826421,
        48.002105
      ],
      [
        86.825917,
        47.999736
      ],
      [
        86.825906,
        47.997977
      ],
      [
        86.826078,
        47.996398
      ],
      [
        86.826443,
        47.994819
      ],
      [
        86.828342,
        47.986604
      ],
      [
        86.830412,
        47.977893
      ],
      [
        86.831281,
        47.973857
      ],
      [
        86.831732,
        47.969533
      ],
      [
        86.83244,
        47.96028
      ],
      [
        86.833084,
        47.952771
      ],
      [
        86.833781,
        47.943286
      ],
      [
        86.834338,
        47.935592
      ],
      [
        86.834351,
        47.935401
      ],
      [
        86.834639,
        47.93134
      ],
      [
        86.834972,
        47.92607
      ],
      [
        86.835594,
        47.917967
      ],
      [
        86.835787,
        47.915414
      ],
      [
        86.835798,
        47.915026
      ],
      [
        86.836292,
        47.911992
      ],
      [
        86.836817,
        47.910158
      ],
      [
        86.837504,
        47.908374
      ],
      [
        86.838319,
        47.906922
      ],
      [
        86.839027,
        47.905821
      ],
      [
        86.839832,
        47.904688
      ],
      [
        86.841699,
        47.90271
      ],
      [
        86.84444,
        47.900391
      ],
      [
        86.847171,
        47.898377
      ],
      [
        86.853527,
        47.893701
      ],
      [
        86.855593,
        47.89196
      ],
      [
        86.857266,
        47.890421
      ],
      [
        86.858296,
        47.889154
      ],
      [
        86.858833,
        47.888493
      ],
      [
        86.859895,
        47.88691
      ],
      [
        86.860603,
        47.885032
      ],
      [
        86.860989,
        47.88383
      ],
      [
        86.86129,
        47.882621
      ],
      [
        86.861375,
        47.881868
      ],
      [
        86.861421,
        47.881197
      ],
      [
        86.86141,
        47.880426
      ],
      [
        86.861288,
        47.8789
      ],
      [
        86.860171,
        47.869963
      ],
      [
        86.859638,
        47.866627
      ],
      [
        86.859377,
        47.864738
      ],
      [
        86.859192,
        47.863887
      ],
      [
        86.85872,
        47.8624
      ],
      [
        86.858564,
        47.861989
      ],
      [
        86.858524,
        47.861884
      ],
      [
        86.85641,
        47.856312
      ],
      [
        86.856102,
        47.855352
      ],
      [
        86.855923,
        47.854637
      ],
      [
        86.855765,
        47.853692
      ],
      [
        86.855678,
        47.852782
      ],
      [
        86.855507,
        47.848208
      ],
      [
        86.85553,
        47.84739
      ],
      [
        86.855618,
        47.846602
      ],
      [
        86.85565,
        47.846396
      ],
      [
        86.855642,
        47.842973
      ],
      [
        86.855624,
        47.842511
      ],
      [
        86.855552,
        47.841841
      ],
      [
        86.855369,
        47.841095
      ],
      [
        86.855175,
        47.840586
      ],
      [
        86.854914,
        47.839948
      ],
      [
        86.854634,
        47.839539
      ],
      [
        86.853498,
        47.83788
      ],
      [
        86.851093,
        47.834403
      ],
      [
        86.849515,
        47.832197
      ],
      [
        86.848759,
        47.831112
      ],
      [
        86.844195,
        47.824555
      ],
      [
        86.841469,
        47.820615
      ],
      [
        86.840921,
        47.819713
      ],
      [
        86.840741,
        47.819314
      ],
      [
        86.840598,
        47.818944
      ],
      [
        86.840429,
        47.81845
      ],
      [
        86.840327,
        47.817909
      ],
      [
        86.84027,
        47.817436
      ],
      [
        86.840245,
        47.817083
      ],
      [
        86.84025,
        47.816627
      ],
      [
        86.840291,
        47.816268
      ],
      [
        86.840352,
        47.815826
      ],
      [
        86.84047,
        47.815278
      ],
      [
        86.842738,
        47.80674
      ],
      [
        86.84285,
        47.806177
      ],
      [
        86.84291,
        47.805762
      ],
      [
        86.842964,
        47.805263
      ],
      [
        86.842964,
        47.804739
      ],
      [
        86.842947,
        47.804283
      ],
      [
        86.842835,
        47.803736
      ],
      [
        86.842668,
        47.803162
      ],
      [
        86.842524,
        47.802835
      ],
      [
        86.842188,
        47.802142
      ],
      [
        86.841716,
        47.801369
      ],
      [
        86.841272,
        47.800752
      ],
      [
        86.841105,
        47.800453
      ],
      [
        86.84093,
        47.80014
      ],
      [
        86.840445,
        47.799553
      ],
      [
        86.83775,
        47.795797
      ],
      [
        86.837178,
        47.794807
      ],
      [
        86.836885,
        47.79419
      ],
      [
        86.83371,
        47.786655
      ],
      [
        86.832997,
        47.785041
      ],
      [
        86.831512,
        47.781576
      ],
      [
        86.830668,
        47.779605
      ],
      [
        86.822918,
        47.761429
      ],
      [
        86.822273,
        47.760037
      ],
      [
        86.821774,
        47.75909
      ],
      [
        86.821246,
        47.758326
      ],
      [
        86.820463,
        47.757303
      ],
      [
        86.819815,
        47.756542
      ],
      [
        86.809039,
        47.74411
      ],
      [
        86.808289,
        47.743245
      ],
      [
        86.807902,
        47.742725
      ],
      [
        86.808146,
        47.742408
      ],
      [
        86.80924,
        47.741478
      ],
      [
        86.812881,
        47.738428
      ],
      [
        86.814137,
        47.737223
      ],
      [
        86.81487,
        47.73647
      ],
      [
        86.815485,
        47.735807
      ],
      [
        86.815993,
        47.735228
      ],
      [
        86.817039,
        47.733979
      ],
      [
        86.817859,
        47.733002
      ],
      [
        86.824144,
        47.725506
      ],
      [
        86.825034,
        47.724445
      ],
      [
        86.825814,
        47.723505
      ],
      [
        86.826287,
        47.722971
      ],
      [
        86.826757,
        47.722491
      ],
      [
        86.827051,
        47.722215
      ],
      [
        86.827415,
        47.721908
      ],
      [
        86.827977,
        47.721482
      ],
      [
        86.828695,
        47.721036
      ],
      [
        86.82949,
        47.720593
      ],
      [
        86.834274,
        47.718296
      ],
      [
        86.835019,
        47.717915
      ],
      [
        86.83557,
        47.717569
      ],
      [
        86.836356,
        47.717005
      ],
      [
        86.836769,
        47.716656
      ],
      [
        86.837217,
        47.716233
      ],
      [
        86.83736,
        47.716079
      ],
      [
        86.837699,
        47.715685
      ],
      [
        86.838073,
        47.715191
      ],
      [
        86.839462,
        47.713161
      ],
      [
        86.842254,
        47.709071
      ],
      [
        86.842477,
        47.708803
      ],
      [
        86.842706,
        47.708571
      ],
      [
        86.84299,
        47.708343
      ],
      [
        86.843343,
        47.708096
      ],
      [
        86.843624,
        47.707933
      ],
      [
        86.844212,
        47.7077
      ],
      [
        86.844665,
        47.707552
      ],
      [
        86.845445,
        47.707355
      ],
      [
        86.847994,
        47.706738
      ],
      [
        86.849193,
        47.706444
      ],
      [
        86.850473,
        47.706132
      ],
      [
        86.852214,
        47.705706
      ],
      [
        86.853124,
        47.705495
      ],
      [
        86.856443,
        47.704727
      ],
      [
        86.856924,
        47.704612
      ],
      [
        86.858187,
        47.704312
      ],
      [
        86.859705,
        47.703904
      ],
      [
        86.863768,
        47.702674
      ],
      [
        86.868353,
        47.70131
      ],
      [
        86.870674,
        47.700643
      ],
      [
        86.871301,
        47.700454
      ],
      [
        86.871976,
        47.700251
      ],
      [
        86.873266,
        47.699863
      ],
      [
        86.875677,
        47.699153
      ],
      [
        86.875844,
        47.699103
      ],
      [
        86.878158,
        47.698417
      ],
      [
        86.878353,
        47.698363
      ],
      [
        86.882496,
        47.701361
      ],
      [
        86.883853,
        47.702342
      ],
      [
        86.887003,
        47.704609
      ],
      [
        86.892532,
        47.708562
      ],
      [
        86.895128,
        47.71043
      ],
      [
        86.898504,
        47.71286
      ],
      [
        86.899581,
        47.713617
      ],
      [
        86.900396,
        47.714093
      ],
      [
        86.901447,
        47.714569
      ],
      [
        86.902874,
        47.715061
      ],
      [
        86.906154,
        47.715682
      ],
      [
        86.90652,
        47.715751
      ],
      [
        86.925934,
        47.719429
      ],
      [
        86.952947,
        47.724388
      ],
      [
        86.955757,
        47.724844
      ],
      [
        86.959721,
        47.725362
      ],
      [
        86.964079,
        47.725787
      ],
      [
        86.967682,
        47.72631
      ],
      [
        86.971004,
        47.726985
      ],
      [
        86.973451,
        47.727623
      ],
      [
        86.983059,
        47.730395
      ],
      [
        86.98423,
        47.730691
      ],
      [
        86.985425,
        47.730902
      ],
      [
        86.98627,
        47.730958
      ],
      [
        86.986922,
        47.730984
      ],
      [
        86.98769,
        47.730987
      ],
      [
        86.98828,
        47.730964
      ],
      [
        86.989054,
        47.730908
      ],
      [
        86.994948,
        47.730328
      ],
      [
        87.006234,
        47.729183
      ],
      [
        87.009903,
        47.728871
      ],
      [
        87.014006,
        47.728673
      ],
      [
        87.015052,
        47.728589
      ],
      [
        87.015388,
        47.728536
      ],
      [
        87.015657,
        47.728464
      ],
      [
        87.015886,
        47.728379
      ],
      [
        87.016122,
        47.728268
      ],
      [
        87.016289,
        47.728167
      ],
      [
        87.016454,
        47.728043
      ],
      [
        87.016571,
        47.727932
      ],
      [
        87.016765,
        47.727725
      ],
      [
        87.017056,
        47.727442
      ],
      [
        87.017258,
        47.727297
      ],
      [
        87.017432,
        47.727201
      ],
      [
        87.017629,
        47.727129
      ],
      [
        87.017873,
        47.727067
      ],
      [
        87.018118,
        47.72703
      ],
      [
        87.018362,
        47.727021
      ],
      [
        87.018595,
        47.727032
      ],
      [
        87.018771,
        47.727052
      ],
      [
        87.018913,
        47.727083
      ],
      [
        87.019091,
        47.727135
      ],
      [
        87.019294,
        47.727219
      ],
      [
        87.019461,
        47.727306
      ],
      [
        87.020065,
        47.727695
      ],
      [
        87.020305,
        47.72782
      ],
      [
        87.020522,
        47.727904
      ],
      [
        87.020761,
        47.727976
      ],
      [
        87.021012,
        47.728027
      ],
      [
        87.021287,
        47.72806
      ],
      [
        87.021578,
        47.728074
      ],
      [
        87.022514,
        47.728094
      ],
      [
        87.023948,
        47.728109
      ],
      [
        87.024765,
        47.728056
      ],
      [
        87.028863,
        47.72789
      ],
      [
        87.035269,
        47.727572
      ],
      [
        87.042323,
        47.727262
      ],
      [
        87.044989,
        47.72719
      ],
      [
        87.046528,
        47.727242
      ],
      [
        87.046807,
        47.727262
      ],
      [
        87.049179,
        47.727594
      ],
      [
        87.051957,
        47.728261
      ],
      [
        87.063453,
        47.73117
      ],
      [
        87.065317,
        47.731638
      ],
      [
        87.071039,
        47.733075
      ],
      [
        87.076215,
        47.734401
      ],
      [
        87.078179,
        47.734904
      ],
      [
        87.085517,
        47.736776
      ],
      [
        87.093038,
        47.738678
      ],
      [
        87.094674,
        47.738988
      ],
      [
        87.096273,
        47.739172
      ],
      [
        87.097603,
        47.739295
      ],
      [
        87.099448,
        47.739309
      ],
      [
        87.113047,
        47.739013
      ],
      [
        87.116577,
        47.738923
      ],
      [
        87.119085,
        47.738893
      ],
      [
        87.119538,
        47.738909
      ],
      [
        87.120064,
        47.738912
      ],
      [
        87.122676,
        47.738973
      ],
      [
        87.12494,
        47.73919
      ],
      [
        87.127354,
        47.739497
      ],
      [
        87.149262,
        47.743328
      ],
      [
        87.175301,
        47.747855
      ],
      [
        87.180617,
        47.748785
      ],
      [
        87.181889,
        47.748966
      ],
      [
        87.183423,
        47.74911
      ],
      [
        87.18392,
        47.749128
      ],
      [
        87.184222,
        47.749138
      ],
      [
        87.184829,
        47.749157
      ],
      [
        87.202231,
        47.749546
      ],
      [
        87.223924,
        47.750001
      ],
      [
        87.249958,
        47.75056
      ],
      [
        87.258178,
        47.750754
      ],
      [
        87.263315,
        47.750838
      ],
      [
        87.263846,
        47.750845
      ],
      [
        87.269064,
        47.750969
      ],
      [
        87.293501,
        47.751469
      ],
      [
        87.302476,
        47.751627
      ],
      [
        87.303028,
        47.751635
      ],
      [
        87.303221,
        47.75164
      ],
      [
        87.334431,
        47.752461
      ],
      [
        87.342221,
        47.752659
      ],
      [
        87.342875,
        47.752681
      ],
      [
        87.34817,
        47.752829
      ],
      [
        87.352402,
        47.752908
      ],
      [
        87.354897,
        47.753049
      ],
      [
        87.358024,
        47.753315
      ],
      [
        87.369161,
        47.754632
      ],
      [
        87.371972,
        47.754953
      ],
      [
        87.37453,
        47.755173
      ],
      [
        87.377309,
        47.755335
      ],
      [
        87.379192,
        47.755386
      ],
      [
        87.382067,
        47.755422
      ],
      [
        87.390526,
        47.755478
      ],
      [
        87.392653,
        47.755528
      ],
      [
        87.393067,
        47.755543
      ],
      [
        87.393307,
        47.755554
      ],
      [
        87.402821,
        47.755977
      ],
      [
        87.421078,
        47.756788
      ],
      [
        87.425986,
        47.756882
      ],
      [
        87.428309,
        47.756749
      ],
      [
        87.431399,
        47.756446
      ],
      [
        87.448334,
        47.754542
      ],
      [
        87.457969,
        47.75347
      ],
      [
        87.46586,
        47.752567
      ],
      [
        87.466451,
        47.752478
      ],
      [
        87.469735,
        47.752251
      ],
      [
        87.471639,
        47.752214
      ],
      [
        87.474251,
        47.752433
      ],
      [
        87.483662,
        47.753425
      ],
      [
        87.48501,
        47.753545
      ],
      [
        87.486773,
        47.753603
      ],
      [
        87.488904,
        47.753571
      ],
      [
        87.4911,
        47.753324
      ],
      [
        87.49486,
        47.752724
      ],
      [
        87.495218,
        47.752666
      ],
      [
        87.50063,
        47.751803
      ],
      [
        87.505268,
        47.751226
      ],
      [
        87.507323,
        47.751061
      ],
      [
        87.509189,
        47.751029
      ],
      [
        87.511698,
        47.751061
      ],
      [
        87.512492,
        47.751071
      ],
      [
        87.513177,
        47.75108
      ],
      [
        87.515185,
        47.75108
      ],
      [
        87.517372,
        47.750922
      ],
      [
        87.531577,
        47.748564
      ],
      [
        87.534132,
        47.748019
      ],
      [
        87.535612,
        47.747632
      ],
      [
        87.537299,
        47.747005
      ],
      [
        87.538798,
        47.746326
      ],
      [
        87.54007,
        47.745515
      ],
      [
        87.543078,
        47.743246
      ],
      [
        87.54451,
        47.742244
      ],
      [
        87.545877,
        47.741446
      ],
      [
        87.547828,
        47.740539
      ],
      [
        87.549643,
        47.739966
      ],
      [
        87.551956,
        47.73923
      ],
      [
        87.552809,
        47.738959
      ],
      [
        87.569058,
        47.733644
      ],
      [
        87.600613,
        47.723457
      ],
      [
        87.612135,
        47.719666
      ],
      [
        87.612617,
        47.719507
      ],
      [
        87.612966,
        47.719393
      ],
      [
        87.646694,
        47.708375
      ],
      [
        87.651661,
        47.706816
      ],
      [
        87.653775,
        47.706152
      ],
      [
        87.655835,
        47.705805
      ],
      [
        87.658539,
        47.705545
      ],
      [
        87.662702,
        47.705892
      ],
      [
        87.666779,
        47.706845
      ],
      [
        87.670169,
        47.707538
      ],
      [
        87.673559,
        47.707682
      ],
      [
        87.677164,
        47.70696
      ],
      [
        87.680726,
        47.705603
      ],
      [
        87.68568,
        47.702101
      ],
      [
        87.687527,
        47.701222
      ],
      [
        87.689827,
        47.700631
      ],
      [
        87.691469,
        47.700149
      ],
      [
        87.693869,
        47.699786
      ],
      [
        87.695938,
        47.699784
      ],
      [
        87.698159,
        47.699884
      ],
      [
        87.700789,
        47.700275
      ],
      [
        87.703267,
        47.700873
      ],
      [
        87.704723,
        47.701598
      ],
      [
        87.706077,
        47.702516
      ],
      [
        87.707316,
        47.703549
      ],
      [
        87.709264,
        47.704577
      ],
      [
        87.715659,
        47.70696
      ],
      [
        87.723596,
        47.709803
      ],
      [
        87.727139,
        47.710787
      ],
      [
        87.728228,
        47.710877
      ],
      [
        87.732423,
        47.711209
      ],
      [
        87.734397,
        47.711631
      ],
      [
        87.736334,
        47.712314
      ],
      [
        87.738528,
        47.713375
      ],
      [
        87.739397,
        47.713905
      ],
      [
        87.740437,
        47.714753
      ],
      [
        87.741167,
        47.715623
      ],
      [
        87.742084,
        47.716933
      ],
      [
        87.742382,
        47.717401
      ],
      [
        87.742792,
        47.718005
      ],
      [
        87.744203,
        47.720059
      ],
      [
        87.74504,
        47.721048
      ],
      [
        87.745614,
        47.721502
      ],
      [
        87.74658,
        47.722372
      ],
      [
        87.748033,
        47.723321
      ],
      [
        87.749337,
        47.724047
      ],
      [
        87.750592,
        47.724613
      ],
      [
        87.752062,
        47.725144
      ],
      [
        87.753462,
        47.725501
      ],
      [
        87.755023,
        47.7258
      ],
      [
        87.75622,
        47.725887
      ],
      [
        87.757625,
        47.725901
      ],
      [
        87.758886,
        47.725757
      ],
      [
        87.760474,
        47.725429
      ],
      [
        87.763714,
        47.724653
      ],
      [
        87.764867,
        47.724498
      ],
      [
        87.765838,
        47.724451
      ],
      [
        87.766964,
        47.724472
      ],
      [
        87.767844,
        47.724555
      ],
      [
        87.769169,
        47.724804
      ],
      [
        87.770049,
        47.725035
      ],
      [
        87.770988,
        47.725328
      ],
      [
        87.771664,
        47.725649
      ],
      [
        87.772281,
        47.725963
      ],
      [
        87.773085,
        47.726457
      ],
      [
        87.77396,
        47.727154
      ],
      [
        87.774523,
        47.727781
      ],
      [
        87.775226,
        47.72868
      ],
      [
        87.775655,
        47.729712
      ],
      [
        87.775794,
        47.730535
      ],
      [
        87.775826,
        47.731689
      ],
      [
        87.775526,
        47.732728
      ],
      [
        87.775161,
        47.733926
      ],
      [
        87.774818,
        47.735189
      ],
      [
        87.774764,
        47.737123
      ],
      [
        87.775515,
        47.739598
      ],
      [
        87.776599,
        47.741077
      ],
      [
        87.777994,
        47.74244
      ],
      [
        87.781534,
        47.74472
      ],
      [
        87.788991,
        47.749171
      ],
      [
        87.796104,
        47.75337
      ],
      [
        87.802638,
        47.757322
      ],
      [
        87.805248,
        47.75888
      ],
      [
        87.807616,
        47.760294
      ],
      [
        87.814096,
        47.764051
      ],
      [
        87.816402,
        47.765434
      ],
      [
        87.81886,
        47.766907
      ],
      [
        87.823366,
        47.769582
      ],
      [
        87.826188,
        47.77127
      ],
      [
        87.828169,
        47.772349
      ],
      [
        87.832984,
        47.774698
      ],
      [
        87.833719,
        47.775023
      ],
      [
        87.836782,
        47.776158
      ],
      [
        87.839084,
        47.776786
      ],
      [
        87.843515,
        47.777572
      ],
      [
        87.849598,
        47.777882
      ],
      [
        87.852355,
        47.77784
      ],
      [
        87.853101,
        47.777829
      ],
      [
        87.856314,
        47.777781
      ],
      [
        87.858634,
        47.777778
      ],
      [
        87.860155,
        47.77787
      ],
      [
        87.86186,
        47.778038
      ],
      [
        87.863101,
        47.778203
      ],
      [
        87.864673,
        47.778468
      ],
      [
        87.866973,
        47.778899
      ],
      [
        87.867833,
        47.77906
      ],
      [
        87.871926,
        47.779813
      ],
      [
        87.872917,
        47.779957
      ],
      [
        87.874056,
        47.780088
      ],
      [
        87.87594,
        47.780256
      ],
      [
        87.877621,
        47.780359
      ],
      [
        87.888382,
        47.781021
      ],
      [
        87.892775,
        47.781302
      ],
      [
        87.896224,
        47.781506
      ],
      [
        87.898646,
        47.7817
      ],
      [
        87.899297,
        47.781763
      ],
      [
        87.900628,
        47.781892
      ],
      [
        87.902085,
        47.782076
      ],
      [
        87.902852,
        47.782172
      ],
      [
        87.904491,
        47.782393
      ],
      [
        87.90627,
        47.782686
      ],
      [
        87.908201,
        47.783032
      ],
      [
        87.910089,
        47.783412
      ],
      [
        87.921238,
        47.785771
      ],
      [
        87.924815,
        47.786528
      ],
      [
        87.92645,
        47.786863
      ],
      [
        87.927116,
        47.786999
      ],
      [
        87.927882,
        47.787133
      ],
      [
        87.928548,
        47.787238
      ],
      [
        87.929049,
        47.787301
      ],
      [
        87.929892,
        47.787393
      ],
      [
        87.930638,
        47.787458
      ],
      [
        87.931483,
        47.787496
      ],
      [
        87.93238,
        47.787515
      ],
      [
        87.93314,
        47.787515
      ],
      [
        87.934085,
        47.787481
      ],
      [
        87.935233,
        47.787408
      ],
      [
        87.936198,
        47.787305
      ],
      [
        87.937396,
        47.787127
      ],
      [
        87.94,
        47.786716
      ],
      [
        87.940961,
        47.786597
      ],
      [
        87.941894,
        47.786511
      ],
      [
        87.942919,
        47.78646
      ],
      [
        87.943727,
        47.786427
      ],
      [
        87.944834,
        47.786438
      ],
      [
        87.945894,
        47.786482
      ],
      [
        87.946973,
        47.786561
      ],
      [
        87.947869,
        47.786664
      ],
      [
        87.948837,
        47.78681
      ],
      [
        87.95397,
        47.787658
      ],
      [
        87.955967,
        47.787899
      ],
      [
        87.958244,
        47.788066
      ],
      [
        87.959991,
        47.78814
      ],
      [
        87.963733,
        47.788144
      ],
      [
        87.964779,
        47.788163
      ],
      [
        87.966148,
        47.788227
      ],
      [
        87.967658,
        47.788391
      ],
      [
        87.969167,
        47.788657
      ],
      [
        87.970735,
        47.789034
      ],
      [
        87.971776,
        47.789334
      ],
      [
        87.972809,
        47.789698
      ],
      [
        87.973812,
        47.790119
      ],
      [
        87.97467,
        47.790537
      ],
      [
        87.975604,
        47.791035
      ],
      [
        87.976333,
        47.791495
      ],
      [
        87.97716,
        47.792066
      ],
      [
        87.978054,
        47.792762
      ],
      [
        87.979029,
        47.793503
      ],
      [
        87.979673,
        47.793961
      ],
      [
        87.980384,
        47.794426
      ],
      [
        87.981153,
        47.794859
      ],
      [
        87.982003,
        47.795292
      ],
      [
        87.982989,
        47.795725
      ],
      [
        87.983981,
        47.796092
      ],
      [
        87.984934,
        47.796402
      ],
      [
        87.985956,
        47.796675
      ],
      [
        87.986743,
        47.796859
      ],
      [
        87.988011,
        47.797093
      ],
      [
        87.989157,
        47.797248
      ],
      [
        87.990109,
        47.797342
      ],
      [
        87.991207,
        47.797401
      ],
      [
        87.992489,
        47.797446
      ],
      [
        87.993649,
        47.797455
      ],
      [
        87.995176,
        47.797449
      ],
      [
        87.996261,
        47.797444
      ],
      [
        87.997903,
        47.797397
      ],
      [
        87.999213,
        47.79733
      ],
      [
        88.000556,
        47.797247
      ],
      [
        88.009424,
        47.796595
      ],
      [
        88.017749,
        47.795983
      ],
      [
        88.029274,
        47.795115
      ],
      [
        88.034312,
        47.794702
      ],
      [
        88.034479,
        47.794684
      ],
      [
        88.035728,
        47.794547
      ],
      [
        88.036803,
        47.794414
      ],
      [
        88.038452,
        47.794126
      ],
      [
        88.039588,
        47.793904
      ],
      [
        88.041268,
        47.793495
      ],
      [
        88.059077,
        47.788635
      ],
      [
        88.067509,
        47.786362
      ],
      [
        88.068645,
        47.786013
      ],
      [
        88.069625,
        47.785722
      ],
      [
        88.070151,
        47.785599
      ],
      [
        88.074067,
        47.784583
      ],
      [
        88.075515,
        47.784392
      ],
      [
        88.076915,
        47.784334
      ],
      [
        88.078482,
        47.78442
      ],
      [
        88.079925,
        47.784612
      ],
      [
        88.080804,
        47.784853
      ],
      [
        88.08177,
        47.785163
      ],
      [
        88.082719,
        47.785538
      ],
      [
        88.083803,
        47.786118
      ],
      [
        88.084908,
        47.786893
      ],
      [
        88.085632,
        47.787646
      ],
      [
        88.08611,
        47.788245
      ],
      [
        88.086619,
        47.789167
      ],
      [
        88.086968,
        47.790321
      ],
      [
        88.087043,
        47.790998
      ],
      [
        88.087022,
        47.791694
      ],
      [
        88.086855,
        47.792339
      ],
      [
        88.086652,
        47.79293
      ],
      [
        88.086303,
        47.793568
      ],
      [
        88.08589,
        47.794216
      ],
      [
        88.084962,
        47.795388
      ],
      [
        88.084415,
        47.796105
      ],
      [
        88.084018,
        47.796793
      ],
      [
        88.083808,
        47.79728
      ],
      [
        88.083476,
        47.798271
      ],
      [
        88.08324,
        47.79915
      ],
      [
        88.083165,
        47.799744
      ],
      [
        88.083025,
        47.800883
      ],
      [
        88.08295,
        47.801928
      ],
      [
        88.083031,
        47.802699
      ],
      [
        88.083138,
        47.803106
      ],
      [
        88.083417,
        47.803838
      ],
      [
        88.083621,
        47.804185
      ],
      [
        88.083991,
        47.804751
      ],
      [
        88.084543,
        47.805382
      ],
      [
        88.084966,
        47.805755
      ],
      [
        88.085292,
        47.806043
      ],
      [
        88.086061,
        47.806601
      ],
      [
        88.087013,
        47.807307
      ],
      [
        88.087574,
        47.807753
      ],
      [
        88.088015,
        47.808229
      ],
      [
        88.088623,
        47.808985
      ],
      [
        88.088933,
        47.809371
      ],
      [
        88.089637,
        47.810624
      ],
      [
        88.090103,
        47.81141
      ],
      [
        88.09093,
        47.812809
      ],
      [
        88.091751,
        47.813854
      ],
      [
        88.092469,
        47.814583
      ],
      [
        88.09347,
        47.815379
      ],
      [
        88.093943,
        47.815733
      ],
      [
        88.095001,
        47.81664
      ],
      [
        88.095532,
        47.817258
      ],
      [
        88.09616,
        47.818094
      ],
      [
        88.096461,
        47.818607
      ],
      [
        88.09767,
        47.821102
      ],
      [
        88.098426,
        47.822484
      ],
      [
        88.098976,
        47.823327
      ],
      [
        88.09922,
        47.823622
      ],
      [
        88.099644,
        47.824017
      ],
      [
        88.100191,
        47.824415
      ],
      [
        88.100854,
        47.824745
      ],
      [
        88.102431,
        47.825373
      ],
      [
        88.10337,
        47.825708
      ],
      [
        88.103946,
        47.825857
      ],
      [
        88.104464,
        47.825981
      ],
      [
        88.105395,
        47.826138
      ],
      [
        88.10636,
        47.826167
      ],
      [
        88.107285,
        47.82611
      ],
      [
        88.108024,
        47.825964
      ],
      [
        88.109066,
        47.825626
      ],
      [
        88.109429,
        47.825444
      ],
      [
        88.111985,
        47.824217
      ],
      [
        88.113491,
        47.823506
      ],
      [
        88.114251,
        47.823125
      ],
      [
        88.115601,
        47.822353
      ],
      [
        88.116218,
        47.821929
      ],
      [
        88.117336,
        47.821276
      ],
      [
        88.118221,
        47.820833
      ],
      [
        88.118505,
        47.820732
      ],
      [
        88.118961,
        47.820617
      ],
      [
        88.119256,
        47.820566
      ],
      [
        88.119551,
        47.820534
      ],
      [
        88.119868,
        47.820526
      ],
      [
        88.120302,
        47.820555
      ],
      [
        88.120538,
        47.820577
      ],
      [
        88.122749,
        47.820797
      ],
      [
        88.123183,
        47.820859
      ],
      [
        88.123317,
        47.820878
      ],
      [
        88.123331,
        47.820967
      ],
      [
        88.123451,
        47.821389
      ],
      [
        88.123564,
        47.821617
      ],
      [
        88.123735,
        47.821892
      ],
      [
        88.124111,
        47.822517
      ],
      [
        88.124734,
        47.823794
      ],
      [
        88.124892,
        47.824082
      ],
      [
        88.125557,
        47.825258
      ],
      [
        88.126584,
        47.827293
      ],
      [
        88.127609,
        47.826935
      ],
      [
        88.1283,
        47.826694
      ],
      [
        88.128479,
        47.826616
      ],
      [
        88.128951,
        47.826409
      ],
      [
        88.1298,
        47.826036
      ],
      [
        88.129422,
        47.825646
      ]
    ],
    "type": "LineString"
  }
}
