{
  "type": "Feature",
  "properties": {
    "tripId": "xinjiang-self-drive-2026",
    "dayId": "day-5",
    "segmentId": "day-5-altay-driving",
    "label": "阿勒泰市至阿勒泰机场",
    "mode": "driving",
    "routeQuality": "road-network",
    "routingProvider": "https://router.project-osrm.org",
    "routingProfile": "driving",
    "requestOptions": {
      "geometries": "geojson",
      "overview": "full",
      "steps": false,
      "alternatives": false
    },
    "inputCoordinates": [
      [
        88.12917,
        47.825756
      ],
      [
        88.090188,
        47.751698
      ]
    ],
    "snappedWaypoints": [
      [
        88.129422,
        47.825646
      ],
      [
        88.090571,
        47.752171
      ]
    ],
    "source": "OSRM",
    "sourceUrl": "https://project-osrm.org/",
    "mapData": "© OpenStreetMap contributors",
    "mapDataUrl": "https://www.openstreetmap.org/copyright",
    "generatedAt": "2026-09-06T06:54:21.100Z",
    "distanceMeters": 11074.9,
    "durationSeconds": 840.2,
    "distanceKm": 11.1,
    "durationMinutes": 14
  },
  "geometry": {
    "coordinates": [
      [
        88.129422,
        47.825646
      ],
      [
        88.128974,
        47.825184
      ],
      [
        88.12885,
        47.825056
      ],
      [
        88.127065,
        47.823291
      ],
      [
        88.125956,
        47.82214
      ],
      [
        88.125894,
        47.82207
      ],
      [
        88.125757,
        47.82196
      ],
      [
        88.125339,
        47.821658
      ],
      [
        88.124904,
        47.82142
      ],
      [
        88.124454,
        47.821233
      ],
      [
        88.124094,
        47.821107
      ],
      [
        88.123916,
        47.821079
      ],
      [
        88.123331,
        47.820967
      ],
      [
        88.123194,
        47.82095
      ],
      [
        88.123183,
        47.820859
      ],
      [
        88.123176,
        47.820506
      ],
      [
        88.123165,
        47.819855
      ],
      [
        88.123184,
        47.819216
      ],
      [
        88.123301,
        47.814737
      ],
      [
        88.123305,
        47.814646
      ],
      [
        88.123264,
        47.813242
      ],
      [
        88.123311,
        47.812003
      ],
      [
        88.123307,
        47.810266
      ],
      [
        88.123374,
        47.808906
      ],
      [
        88.123419,
        47.808814
      ],
      [
        88.123865,
        47.80791
      ],
      [
        88.124711,
        47.806268
      ],
      [
        88.124794,
        47.80609
      ],
      [
        88.12515,
        47.805602
      ],
      [
        88.125504,
        47.805241
      ],
      [
        88.127863,
        47.802973
      ],
      [
        88.127947,
        47.802892
      ],
      [
        88.128165,
        47.802683
      ],
      [
        88.130147,
        47.800819
      ],
      [
        88.130742,
        47.80023
      ],
      [
        88.130982,
        47.799935
      ],
      [
        88.13135,
        47.799288
      ],
      [
        88.133694,
        47.794637
      ],
      [
        88.133725,
        47.794544
      ],
      [
        88.133787,
        47.794356
      ],
      [
        88.13383,
        47.794119
      ],
      [
        88.133846,
        47.793819
      ],
      [
        88.133819,
        47.793556
      ],
      [
        88.13376,
        47.793326
      ],
      [
        88.133631,
        47.793041
      ],
      [
        88.133055,
        47.792148
      ],
      [
        88.132773,
        47.791711
      ],
      [
        88.131353,
        47.789538
      ],
      [
        88.131212,
        47.789322
      ],
      [
        88.130965,
        47.788972
      ],
      [
        88.130676,
        47.788677
      ],
      [
        88.130423,
        47.788449
      ],
      [
        88.130139,
        47.788269
      ],
      [
        88.129796,
        47.788096
      ],
      [
        88.129538,
        47.787981
      ],
      [
        88.129088,
        47.787826
      ],
      [
        88.128355,
        47.787621
      ],
      [
        88.12825,
        47.787591
      ],
      [
        88.127929,
        47.787502
      ],
      [
        88.125269,
        47.786763
      ],
      [
        88.12517,
        47.786736
      ],
      [
        88.124152,
        47.786454
      ],
      [
        88.12346,
        47.786262
      ],
      [
        88.122058,
        47.785857
      ],
      [
        88.119149,
        47.785017
      ],
      [
        88.119041,
        47.784986
      ],
      [
        88.119104,
        47.784925
      ],
      [
        88.119444,
        47.784579
      ],
      [
        88.119739,
        47.784345
      ],
      [
        88.120147,
        47.78406
      ],
      [
        88.120404,
        47.7839
      ],
      [
        88.120834,
        47.783664
      ],
      [
        88.121952,
        47.782908
      ],
      [
        88.12248,
        47.782484
      ],
      [
        88.122972,
        47.782048
      ],
      [
        88.123166,
        47.781844
      ],
      [
        88.123508,
        47.781484
      ],
      [
        88.123847,
        47.781068
      ],
      [
        88.124159,
        47.78061
      ],
      [
        88.124448,
        47.780104
      ],
      [
        88.124665,
        47.779575
      ],
      [
        88.124829,
        47.779081
      ],
      [
        88.124925,
        47.77858
      ],
      [
        88.124986,
        47.777954
      ],
      [
        88.124998,
        47.777535
      ],
      [
        88.124957,
        47.777087
      ],
      [
        88.124766,
        47.776052
      ],
      [
        88.124605,
        47.774947
      ],
      [
        88.124341,
        47.773488
      ],
      [
        88.124082,
        47.771666
      ],
      [
        88.1239,
        47.770655
      ],
      [
        88.123739,
        47.76995
      ],
      [
        88.123483,
        47.769342
      ],
      [
        88.123103,
        47.768681
      ],
      [
        88.122778,
        47.768237
      ],
      [
        88.122471,
        47.767869
      ],
      [
        88.122089,
        47.767491
      ],
      [
        88.121658,
        47.76713
      ],
      [
        88.121114,
        47.766741
      ],
      [
        88.12046,
        47.766343
      ],
      [
        88.119714,
        47.765981
      ],
      [
        88.118615,
        47.765547
      ],
      [
        88.11769,
        47.765258
      ],
      [
        88.111586,
        47.763631
      ],
      [
        88.109004,
        47.762958
      ],
      [
        88.10788,
        47.762655
      ],
      [
        88.107492,
        47.762555
      ],
      [
        88.104563,
        47.761779
      ],
      [
        88.097687,
        47.759962
      ],
      [
        88.097482,
        47.759906
      ],
      [
        88.09543,
        47.759365
      ],
      [
        88.095082,
        47.759273
      ],
      [
        88.094774,
        47.759191
      ],
      [
        88.093813,
        47.758932
      ],
      [
        88.093308,
        47.758783
      ],
      [
        88.092923,
        47.758657
      ],
      [
        88.092581,
        47.758535
      ],
      [
        88.09219,
        47.758367
      ],
      [
        88.091789,
        47.758164
      ],
      [
        88.091409,
        47.757935
      ],
      [
        88.091091,
        47.757707
      ],
      [
        88.090851,
        47.757509
      ],
      [
        88.090603,
        47.757276
      ],
      [
        88.090369,
        47.757053
      ],
      [
        88.089371,
        47.755833
      ],
      [
        88.091347,
        47.755107
      ],
      [
        88.089993,
        47.75344
      ],
      [
        88.089495,
        47.752827
      ],
      [
        88.089331,
        47.752625
      ],
      [
        88.090152,
        47.752324
      ],
      [
        88.09056,
        47.752175
      ],
      [
        88.090571,
        47.752171
      ]
    ],
    "type": "LineString"
  }
}
